Name,Phone,Address,Automaker,Province
Toyota Bắc Giang,Hotline 1800 1524,"Thôn Riễu, Xã Dĩnh Trì, Thành Phố Bắc Giang, Tỉnh Bắc Giang",Toyota,Bắc Giang
Toyota Bắc Ninh,Hotline 1800 1524," Lô A, Đường Lê Thái Tổ, Phường Võ Cường, Tp. Bắc Ninh",Toyota,Bắc Ninh
Toyota Giải Phóng,Hotline 1800 1524,"Số 807 Đường Giải Phóng, Phường Giáp Bát, Quận Hoàng Mai, Hà Nội",Toyota,Hà Nội
Toyota Giải Phóng - CN Nam Định,Hotline 1800 1524,"Đường Nam Định, Phủ Lý, Xã Lộc Hòa, Tp. Nam Định",Toyota,Nam Định
Toyota Giải Phóng - CN Pháp Vân,Hotline 1800 1524,"Phường Hoàng Liệt, Quận Hoàng Mai, Hà Nội",Toyota,Hà Nội
Toyota Hà Đông,Hotline 1800 1524,"977 - 979 Đường Quang Trung kéo dài, Yên Nghĩa, Hà Đông, Hà Nội",Toyota,Hà Nội
Toyota Hải Dương,Hotline 1800 1524,"Số 01 Ngô Quyền, Phường Cẩm Thượng, Tp. Hải Dương",Toyota,Hải Dương
Toyota Hải Phòng,Hotline 1800 1524,"Số 274 Lạch Tray, Phường Lạch Tray, Ngô Quyền, Hải Phòng",Toyota,Hải Phòng
Toyota Hiroshima Vĩnh Phúc - HT,Hotline 1800 1524,"Xã Quất Lưu, Huyện Bình Xuyên, Vĩnh Phúc",Toyota,Vĩnh Phúc
Toyota Hòa Bình Minh Yên Bái,Hotline 1800 1524,"Thôn Phúc Thịnh, Xã Giới Phiên, Tp. Yên Bái",Toyota,Yên Bái
Toyota Hoàn Kiếm,Hotline 1800 1524,"94 Ngô Thì Nhậm, Hai Bà Trưng, Hà Nội",Toyota,Hà Nội
Toyota Hùng Hải Hà Nam,Hotline 1800 1524,"Thành phố Phủ Lý, Hà Nam",Toyota,Hà Nam
Toyota Hưng Thịnh Phát Thái Bình,Hotline 1800 1524,"Ngã 4 Đông Hòa (Giao lộ Long Hưng và Võ Nguyên Giáp), Tp. Thái Bình",Toyota,Thái Bình
Toyota Hưng Yên,Hotline 1800 1524,"Số 88 Trần Hưng Đạo, Phường Lam Sơn, Tp. Hưng Yên (Ngã tư Đinh Điền)",Toyota,Hà Nội
Toyota IDMC Hoài Đức,Hotline 1800 1524,"Km7, Quốc lộ 32, Trạm Trôi, Huyện Hoài Đức, Hà Nội",Toyota,Hà Nội
Toyota IDMC Lạng Sơn,Hotline 1800 1524," Cụm CN số 2, Hợp Thành, Cao Lộc, Lạng Sơn",Toyota,Lạng Sơn
Toyota IDMC Phú Thọ,Hotline 1800 1524,"Số 286 Nguyễn Tất Thành, Phường Thanh Miếu, Tp. Việt Trì,  Phú Thọ",Toyota,Phú Thọ
Toyota IDMC Từ Sơn,Hotline 1800 1524,"Số 01 Lý Thánh Tông, Phường Tân Hồng, Tp. Từ Sơn, Bắc Ninh",Toyota,Bắc Ninh
Toyota Lào Cai,Hotline 1800 1524,"Km 3+900 Đường Trần Hưng Đạo, Phường Nam Cường, Tp. Lào Cai",Toyota,Lào Cai
Toyota Long Biên,Hotline 1800 1524,"Số 7 & 9 Đường Nguyễn Văn Linh, Tổ 17, Phường Gia Thụy, Quận Long Biên, Hà Nội",Toyota,Hà Nội
Toyota Mỹ Đình,Hotline 1800 1524,"Số 15 Đường Phạm Hùng, Phường Mỹ Đình 2, Quận Nam Từ Liêm, Hà Nội",Toyota,Hà Nội
Toyota Nankai Hải Phòng,Hotline 1800 1524,"Km 88 Thôn Lương Quán, Xã Nam Sơn, Huyện An Dương, Tp. Hải Phòng",Toyota,Hải Phòng
Toyota Nhung Hồng Tuyên Quang,Hotline 1800 1524,"Tổ 3, Phường Hưng Thành, Thành phố Tuyên Quang",Toyota,Tuyên Quang
Toyota Ninh Bình,Hotline 1800 1524,"Lô 08, KCN Phúc Sơn, Đường Trần Nhân Tông, Ninh Phúc, Tp. Ninh Bình",Toyota,Ninh Bình
Toyota Quảng Ninh,Hotline 1800 1524,"Tổ 94, Khu Đồn Điền, Phường Hà Khẩu, Tp. Hạ Long, Quảng Ninh",Toyota,Quảng Ninh
Toyota Quảng Ninh - CN Cẩm Phả,Hotline 1800 1524,"Tổ 5 khu Hòa Lạc, Phường Cẩm Bình, Tp. Cẩm Phả, Tỉnh Quảng Ninh",Toyota,Quảng Ninh
Toyota Tây Bắc Sơn La,Hotline 1800 1524,"Km10, Quốc Lộ 6, Phường Chiềng Sinh, Tp. Sơn La",Toyota,Sơn La
Toyota Tây Bắc Sơn La - CN Điện Biên,Hotline 1800 1524,"Tổ 4, Phường Nam Thanh, Tp. Điện Biên Phủ, Điện Biên",Toyota,Điện Biên
Toyota Thái Hòa Từ Liêm,Hotline 1800 1524,"Ngã ba Tố Hữu - Vũ Trọng Khánh, Ngọc Trục 02, Đại Mỗ, Nam Từ Liêm, Hà Nội",Toyota,Hà Nội
Toyota Thái Nguyên,Hotline 1800 1524,"Đường Cách Mạng Tháng 8, Tổ 2, Phường Cam Giá, Tp. Thái Nguyên",Toyota,Thái Nguyên
Toyota Thăng Long,Hotline 1800 1524,"Số 316 Đường Cầu Giấy, Phường Dịch Vọng, Quận Cầu Giấy, Hà Nội",Toyota,Hà Nội
Toyota Thanh Xuân,Hotline 1800 1524,"Số 315 Trường Chinh, Khương Mai, Thanh Xuân, Hà Nội",Toyota,Hà Nội
Toyota TNG Hòa Bình,Hotline 1800 1524,"Km 05, Quốc Lộ 6, Phố Ngọc, Xã Trung Minh, Tp. Hoà Bình",Toyota,Hoà Bình
Hyundai An Khánh,Hotline 1900 56 12 12,"Km 08+400 Đại lộ Thăng Long, An Khánh, Hoài Đức, Hà Nội",Hyundai,Hà Nội
Hyundai An Khánh - Hà Đông,Hotline 1900 56 12 12,"Lô C24 - Ô 01, Khu đô thị Geleximco, Đường Lê Trọng Tấn - Dương Nội, Hà Đông, Hà Nội",Hyundai,Hà Nội
Hyundai Bắc Giang,Hotline 1900 56 12 12,"Lô 1, Cụm CN Dĩnh Trì, Dĩnh Trì, Tp. Bắc Giang",Hyundai,Bắc Giang
Hyundai Bắc Ninh,Hotline 1900 56 12 12,"Đường Lê Thái Tổ, Phường Võ Cường, Tp. Bắc ninh ",Hyundai,Bắc ninh
Hyundai Bắc Ninh - Từ Sơn,Hotline 1900 56 12 12,"Số 39 Lý Thánh Tông, Phường Tân Hồng, Thị xã Từ Sơn, Bắc Ninh",Hyundai,Bắc Ninh
Hyundai Bắc ViệtTruck & Bus,Hotline 1900 56 12 12,"Khu D6 KCN Đài Tư, 386 Nguyễn Văn Linh, Long Biên, Hà Nội",Hyundai,Hà Nội
Hyundai Bắc Việt PoS Hải PhòngTruck & Bus,Hotline 1900 56 12 12,"Km92 QL5 P. Hùng Vương, Q. Hồng Bàng, Tp Hải Phòng",Hyundai,Hải Phòng
Hyundai Bắc Việt PoS Vĩnh PhúcTruck & Bus,Hotline 1900 56 12 12,"Thôn Mậu Thông, Phường Khai Quang, Vĩnh Yên, Vĩnh Phúc",Hyundai,Vĩnh Phúc
Hyundai Cầu Diễn,Hotline 1900 56 12 12,"Ô Số 2, Lô 1 Cụm Công Nghiệp Lai Xá, Phường Kim Chung, Huyện Hoài Đức, Hà Nội ",Hyundai,Hà Nội
Hyundai Cầu Diễn - Thanh Xuân,Hotline 1900 56 12 12,"Số 231B Nguyễn Trãi, Thanh Xuân, Hà Nội",Hyundai,Hà Nội
Hyundai Giải Phóng,Hotline 1900 56 12 12,"Số 510 Đường Ngọc Hồi, Thanh Trì, Hà Nội",Hyundai,Hà Nội
Hyundai Giải Phóng - Đống Đa,Hotline 1900 56 12 12,"Số 68 Trường Chinh, Quận Đống Đa, Hà Nội ",Hyundai,Hà Nội
Hyundai Hà Nam,Hotline 1900 56 12 12,"Số 16 Đường Lê Duẩn, Liêm Chính, Phủ Lý, Hà Nam",Hyundai,Hà Nam
Hyundai Hà Đông,Hotline 1900 56 12 12,"Tổ 17, Phường Yên Nghĩa, Quận Hà Đông, Hà Nội",Hyundai,Hà Nội
Hyundai Hải Dương,Hotline 1900 56 12 12,"Số 245A Nguyễn Lương Bằng, Phường Thanh Bình, Tp. Hải Dương ",Hyundai,Hải Dương
Hyundai Hải Phòng,Hotline 1900 56 12 12,"Số 742 Nguyễn Văn Linh, Phường Niệm Nghĩa, Quận Lê Chân, Hải Phòng ",Hyundai,Hải Phòng
Hyundai Hải Phòng - Hải An,Hotline 1900 56 12 12,"Số 9/10B Lê Hồng Phong, Quận Hải An, Hải Phòng",Hyundai,Hải Phòng
Hyundai Hòa Bình,Hotline 1900 56 12 12,"Km 5, QL 6, Phố Ngọc, Phường Trung Minh, Tp. Hòa Bình, Hòa Bình",Hyundai,Hòa Bình
Hyundai Hưng Yên,Hotline 1900 56 12 12,"Số 317 Nguyễn Văn Linh, Phường An Tảo, Tp. Hưng Yên",Hyundai,Hưng Yên
Hyundai Kinh BắcTruck & Bus,Hotline 1900 56 12 12,"Km8, Đường Võ Văn Kiệt, Thị trấn Quang Minh, Mê Linh, Hà Nội",Hyundai,Hà Nội
Hyundai Lai Châu,Hotline 1900 56 12 12,"Số 186 Đường 19/8, Phường Đoàn Kết, Tp. Lai Châu",Hyundai,Lai Châu
Hyundai Lạng Sơn,Hotline 1900 56 12 12,"Tổ 5, Khối 1, Thị trấn Cao Lộc, Huyện Cao Lộc, Lạng Sơn",Hyundai,Lạng Sơn
Hyundai Lào Cai,Hotline 1900 56 12 12,"Đường B4A Đại lộ Trần Hưng Đạo, Phường Nam Cường, Tp. Lào Cai",Hyundai,Lào Cai
Hyundai Lê Văn Lương,Hotline 1900 56 12 12,"Tòa nhà E4, T1 Tòa CT3 Yên Hòa Parkview, Số 3 Vũ Phạm Hàm, Phường Yên Hòa, Quận Cầu Giấy, Hà Nội",Hyundai,Hà Nội
Hyundai Lê Văn Lương - Tây Hồ,Hotline 1900 56 12 12,"Số 212 Võ Chí Công, Xuân La, Quận Tây Hồ, Hà Nội",Hyundai,Hà Nội
Hyundai Long Biên ,Hotline 1900 56 12 12,"Số 3+5 Nguyễn Văn Linh, Phường Gia Thụy, Quận Long Biên, Hà Nội",Hyundai,Hà Nội
Hyundai Nam Định,Hotline 1900 56 12 12,"Đại lộ Thiên Trường, Mỹ Hưng, Mỹ Lộc, Nam Định",Hyundai,Nam Định
Hyundai Ninh Bình,Hotline 1900 56 12 12,"Lô C5 - KCN Gián Khẩu, Gia Trấn, Gia Viễn, Ninh Bình",Hyundai,Ninh Bình
Hyundai Ninh Bình - Nam Thành,Hotline 1900 56 12 12,"Số 382 Đường 30/06 (Quốc lộ 1A), Phường Nam Thành, Tp. Ninh Bình",Hyundai,Ninh Bình
Hyundai Ninh Bình PoS Nam ĐịnhTruck & Bus,Hotline 1900 56 12 12,KCN Hòa Xá - Lộc Hòa - TP Nam Định,Hyundai,Nam Định
Hyundai Ninh Bình Truck & BusTruck & Bus,Hotline 1900 56 12 12,"Lô C5, KCN Gián Khẩu, Xã Gia Trấn, Huyện Gia Viễn, Tỉnh Ninh Bình ",Hyundai,Ninh Bình
Hyundai Phạm Hùng,Hotline 1900 56 12 12,"Số 16A Phạm Hùng, Mai Dịch, Cầu Giấy, Hà Nội",Hyundai,Hà Nội
Hyundai Phạm Văn Đồng,Hotline 1900 56 12 12,"Số 138 Phạm Văn Đồng, Xuân Đỉnh, Bắc Từ Liêm, Hà Nội ",Hyundai,Hà Nội
Hyundai Phố HiếnTruck & Bus,Hotline 1900 56 12 12,"Số 8 Đinh Điền, Phường Lam Sơn, Tp. Hưng Yên",Hyundai,Hưng Yên
Hyundai Phố Nối,Hotline 1900 56 12 12,"Số 18 Nguyễn Văn Linh, Phường Bần Yên Nhân, Mỹ Hào, Hưng Yên",Hyundai,Hưng Yên
Hyundai Quảng Ninh - CN Cẩm Phả,Hotline 1900 56 12 12,"Số 898 Đặng Châu Tuệ, Quang Hanh, Cẩm Phả, Quảng Ninh",Hyundai,Quảng Ninh
Hyundai Quảng Ninh - CN Hạ Long,Hotline 1900 56 12 12,"Km 105, Quốc lộ 18, Phường Hà Khẩu, Tp. Hạ Long, Quảng Ninh",Hyundai,Quảng Ninh
Hyundai Sơn La,Hotline 1900 56 12 12,"Km10, Quốc lộ 6 Sơn La - Hà Nội, Tổ 5, Phường Chiềng Sinh, Tp. Sơn La",Hyundai,Sơn La
Hyundai Sơn Tây,Hotline 1900 56 12 12,"Km 35, Quốc Lộ 32 Thị trấn Phúc Thọ, Huyện Phúc Thọ, Hà Nội",Hyundai,Hà Nội
Hyundai Thái Bình,Hotline 1900 56 12 12,"Số 204 Lý Thường Kiệt, Phường Kỳ Bá, Tp. Thái Bình",Hyundai,Thái Bình
Hyundai Thái Nguyên,Hotline 1900 56 12 12,"Đường Bắc Sơn, Tổ 23, Phường Hoàng Văn Thụ, Tp. Thái Nguyên",Hyundai,Thái Nguyên
Hyundai Thái Nguyên - Phổ Yên,Hotline 1900 56 12 12,"TDP Quán Vã, Phường Ba Hàng, Tp. Phổ Yên, Thái Nguyên",Hyundai,Thái Nguyên
Hyundai Thành Công Phúc Yên,Hotline 1900 56 12 12,"QL2A, Tiền Châu, Phúc Yên, Vĩnh Phúc",Hyundai,Vĩnh Phúc
Hyundai Thiên TrườngTruck & Bus,Hotline 1900 56 12 12,"TTTM Thiên Trường - Hoàng Văn Thái, Khu phố 2, Vũ Chính, Thái Bình",Hyundai,Thái Bình
Hyundai Tuyên Quang,Hotline 1900 56 12 12,"Đường Bình Thuận, Tổ 8, Phường Hưng Thành, Tp. Tuyên Quang",Hyundai,Tuyên Quang
Hyundai Tuyên Quang - CN Hà Giang,Hotline 1900 56 12 12,"Thôn Cầu Mè, Xã Phương Thiện, Tp. Hà Giang",Hyundai,Hà Giang
Hyundai Vân ĐạoTruck & Bus,Hotline 1900 561212,"Tổ 3, Phường Lương Sơn, Tp. Sông Công, Thái Nguyên",Hyundai,Thái Nguyên
Hyundai Vân Đạo PoS Bắc GiangTruck & Bus,Hotline 1900 56 12 12,Ngã Tư Kế - TP Bắc Giang,Hyundai,Bắc Giang
Hyundai Việt Trì,Hotline 1900 56 12 12,"Khu 4, Đường Hùng Vương, Phường Vân Phú, Tp. Việt Trì, Phú Thọ",Hyundai,Phú Thọ
Hyundai Vĩnh Yên,Hotline 1900 56 12 12,"Thôn Mậu Thông, Phường Khai Quang, Vĩnh Yên, Vĩnh Phúc",Hyundai,Vĩnh Phúc
Hyundai Xa LộTruck & Bus,Hotline 1900 56 12 12,"Tổ 24 Thị trấn Đông Anh, Huyện Đông Anh, Hà Nội",Hyundai,Hà Nội
Hyundai Yên Bái,Hotline 1900 56 12 12,"Đường Âu Cơ, Thôn Tiên Phú, Xã Văn Phú, Tp. Yên Bái",Hyundai,Yên Bái
Hyundai Yên Bái - Yên Thịnh,Hotline 1900 56 12 12,"Đường Nguyễn Tất Thành, Tổ 12, Phường Yên Thịnh, Tp. Yên Bái",Hyundai,Yên Bái
Hyundai Đông Anh,Hotline 1900 56 12 12,"Quốc Lộ 3, Tổ 25, Thị trấn Đông Anh, Huyện Đông Anh, Hà Nội",Hyundai,Hà Nội
Hyundai Đông NamTruck & Bus,Hotline 1900 56 12 12,"Km 14, QL1A, Xã Ngọc Hồi, Huyện Thanh Trì, Hà Nội",Hyundai,Hà Nội
Hyundai Đông Nam - CN Hải DươngTruck & Bus,Hotline 1900 56 12 12,"Km50+700 quốc lộ 5, Thị trấn Lai Cách, Cẩm Giàng, Hải Dương",Hyundai,Hải Dương
Hyundai Đông Nam - CN Sơn LaTruck & Bus,Hotline 1900 56 12 12,"Km 11, Phường Chiềng Sinh, Tp. Sơn La",Hyundai,Sơn La
Hyundai Đông Đô,Hotline 1900 56 12 12,"Số 987 Tam Trinh, Yên Sở, Hoàng Mai, Hà Nội",Hyundai,Hà Nội
Hyundai Đông Đô - Đống Đa,Hotline 1900 56 12 12,"Số 11 Hoàng Cầu, Trung Liệt, Đống Đa, Hà Nội",Hyundai,Hà Nội
Honda Ôtô Bắc Giang - Dĩnh Kế,Hotline 1800 8001,"Tổ dân phố Giáp Sau, Phường Dĩnh Kế, Thành phố Bắc Giang",Honda,Bắc Giang
Honda Ôtô Bắc Ninh - Võ Cường,Hotline 1800 8001,"Đường Lê Thái Tổ , Phường Võ Cường, Tp. Bắc Ninh",Honda,Bắc Ninh
Honda Ôtô Giải Phóng,Hotline 1800 8001,"Km9 Quốc lộ 1A, Phường Hoàng Liệt, Quận Hoàng Mai, Hà Nội",Honda,Hà Nội
Honda Ôtô Hà Nội - An Khánh,Hotline 1800 8001,"Km9+800, DCT08, Đại Lộ Thăng Long, An Khánh, Hoài Đức, Hà Nội",Honda,Hà Nội
Honda Ôtô Hải Dương,Hotline 1800 8001,"Tp. Hải Dương, Tỉnh Hải Dương",Honda,Hải Dương
Honda Ôtô Hải Phòng,Hotline 1800 8001,"Thửa 3+4, lô 26 Lê Hồng Phong, Đông Khê, Ngô Quyền, Hải Phòng",Honda,Hải Phòng
Honda Ôtô Hải Phòng - Thủy Nguyên,Hotline 1800 8001,"Ngã 3 Đông Sơn, Kênh Giang, Thủy Nguyên, Hải Phòng",Honda,Hải Phòng
Honda Ôtô Hưng Yên - Phố Hiến,Hotline 1800 8001,"288 Phạm Bạch Hổ, Phường Lam Sơn, Thành phố Hưng Yên",Honda,Hưng Yên
Honda Ôtô Lào Cai - Trần Hưng Đạo,Hotline 1800 8001,"Km 2+900, Đại Lộ Trần Hưng Đạo, Phường Bắc Cường, Tp. Lào Cai",Honda,Lào Cai
Honda Ôtô Long Biên,Hotline 1800 8001,"Số 447 Nguyễn Văn Linh, Phường Phúc Đồng, Quận Long Biên, Hà Nội",Honda,Hà Nội
Honda Ôtô Mỹ Đình,Hotline 1800 8001," Số 2 Lê Đức Thọ, Mai Dịch, Cầu Giấy, Hà Nội",Honda,Hà Nội
Honda Ôtô Nam Định - Lộc Vượng,Hotline 1800 8001,"Quốc lộ 10, Phường Lộc Vượng, Tp. Nam Định",Honda,Nam Định
Honda Ôtô Ninh Bình - Tràng An,Hotline 1800 8001,"Khu Công Nghiệp Phúc Sơn, Ninh Phúc, Tp. Ninh Bình",Honda,Ninh Bình
Honda Ôtô Phú Thọ - Việt Trì,Hotline 1800 8001,"Đại lộ Hùng Vương, Khu 4, Phường Vân Phú, Tp. Việt Trì, Phú Thọ",Honda,Phú Thọ
Honda Ôtô Quảng Ninh - Hạ Long,Hotline 1800 8001,"Số 18-20 Khu Đồn Điền, Hà Khẩu, Hạ Long, Quảng Ninh",Honda,Quảng Ninh
Honda Ôtô Sơn La - Chiềng Sinh,Hotline 1800 8001," Km 10, Quốc lộ 6 Sơn La - Hà Nội, Tổ 5, Chiềng Sinh, Tp. Sơn La",Honda,Sơn La
Honda Ôtô Tây Hồ,Hotline 1800 8001,"197A Nghi Tàm, Yên Phụ, Tây Hồ, Hà Nội",Honda,Hà Nội
Honda Ôtô Thái Bình - Hoàng Diệu,Hotline 1800 8001,"Đường Võ Nguyên Giáp, Phường Hoàng Diệu, Tp. Thái Bình",Honda,Thái Bình
Honda Ôtô Thái Nguyên,Hotline 1800 8001,"Đường CMT8, Tổ 3, Phường Cam Giá, Tp. Thái Nguyên",Honda,Thái Nguyên
Honda Ôtô Vĩnh Phúc - Vĩnh Yên,Hotline 1800 8001,"Khu Dộc Đồng, Đường đầu cầu vượt quốc lộ 2A, Khai Quang, Vĩnh Yên, Vĩnh Phúc",Honda,Vĩnh Phúc
KIA Bắc Giang,Hotline 1900 54 55 91,"Quốc lộ 1A, Thôn Riễu, Xã Dĩnh Trì, Tp. Bắc Giang",Kia,Bắc Giang
KIA Bắc Kạn,Hotline 1900 54 55 91,"Thôn Nam Đội Thân, Tp. Bắc Kạn",Kia,Bắc Kạn
KIA Bắc Ninh,Hotline 1900 54 55 91,"Số 9 Đường Lê Thái Tổ, Phường Võ Cường, Tp. Bắc Ninh",Kia,Bắc Ninh
KIA Bạch Đằng,Hotline 1900 54 55 91,"Số 315 Nguyễn Khoái, Quận Hai Bà Trưng, Hà Nội",Kia,Hà Nội
KIA Cẩm Phả,Hotline 1900 54 55 91,"923 Đặng Châu Tuệ, Km 14, Phường Quang Hanh, Tp. Cẩm Phả, Quảng Ninh",Kia,Quảng Ninh
KIA Cao Bằng,Hotline 1900 54 55 91,"Km5, Phường Đề Thám, Tp. Cao Bằng, Tỉnh Cao Bằng",Kia,Cao Bằng
KIA Cầu Diễn,Hotline 1900 54 55 91,"Km 10.5, QL 32, Đường Cầu Diễn, Phúc Diễn, Bắc Từ Liêm, Hà Nội",Kia,Hà Nội
KIA Chí Linh - Hải Dương,Hotline 1900 54 55 91,"Khu Bình Giang - Quốc Lộ 18, Phường Phả Lại, Tp. Chí Linh, Hải Dương",Kia,Hải Dương
KIA Giải Phóng,Hotline 1900 54 55 91,"Số 207 Ngọc Hồi, Huyện Thanh Trì, Hà Nội",Kia,Hà Nội
KIA Hà Giang,Hotline 1900 54 55 91,"Thôn Lâm Đồng, Xã Phương Thiện, Thành phố Hà Giang",Kia,Hà Giang
KIA Hà Nam,Hotline 1900 54 55 91,"QL1A, Khu TMDV4, Phường Thanh Châu, Tp. Phủ Lý, Hà Nam",Kia,Hà Nam
KIA Hải Dương,Hotline 1900 54 55 91,"Số 289 Nguyễn Lương Bằng, Phường Thanh Bình, Tp. Hải Dương",Kia,Hải Dương
KIA Hải Phòng - Hồng Bàng,Hotline 1900 54 55 91,"Số 336 Đường Hà Nội, Phường Sở Dầu, Quận Hồng Bàng, Tp. Hải Phòng",Kia,Hải Phòng
KIA Hải Phòng - Lê Hồng Phong,Hotline 1900 54 55 91,"Lô 7/10B Lê Hồng Phong, Quận Hải An, Tp. Hải Phòng",Kia,Hải Phòng
KIA Hòa Bình,Hotline 1900 54 55 91,"Km 3.5 QL6, Phố Ngọc, Trung Minh, Tp. Hòa Bình",Kia,Hòa Bình
KIA Hưng Yên,Hotline 1900 54 55 91,"Đường Lê Văn Lương, Phường An Tảo, Tp. Hưng Yên",Kia,Hưng Yên
KIA Lai Châu,Hotline 1900 54 55 91,"Đường Điện Biên Phủ, Tổ 8, Phường Tân Phong, Tp. Lai Châu",Kia,Lai Châu
KIA Lạng Sơn,Hotline 1900 54 55 91,"KĐT Phía Đông, QL1A, Phường Đông Kinh, Tp. Lạng Sơn",Kia,Lạng Sơn
KIA Lào Cai,Hotline 1900 54 55 91,"01 Võ Nguyên Giáp, Phường Bắc Cường, Tp. Lào Cai",Kia,Lào Cai
KIA Long Biên,Hotline 1900 54 55 91,"105A Lý Sơn, Ngọc Thụy, Long Biên, Hà Nội",Kia,Hà Nội
KIA Móng Cái,Hotline 1900 54 55 91,"Km 4, Hải Yên, Móng Cái, Quảng Ninh",Kia,Quảng Ninh
KIA Mỹ Đình,Hotline 0829 541 555,"Đường Trịnh Văn Bô,  Phương Canh, Nam Từ Liêm, Hà Nội",Kia,Hà Nội
KIA Nam Định,Hotline 1900 54 55 91,"KM 93 Đại Lộ Thiên Trường, Phường Lộc Hòa, Tp. Nam Định",Kia,Nam Định
KIA Ninh Bình,Hotline 1900 54 55 91,"63 Lê Đại Hành, Phường Thanh Bình, Tp. Ninh Bình",Kia,Ninh Bình
KIA Phạm Văn Đồng,Hotline 1900 54 55 91,"Lô CC2, Khu đô thị TP. Giao Lưu, Bắc Từ Liêm, Hà Nội",Kia,Hà Nội
KIA Phố Nối,Hotline 1900 54 55 91,"Ngã tư Phố Nối A, Đường Quốc lộ 5, Trưng Trắc, Văn Lâm, Hưng Yên",Kia,Hưng Yên
KIA Phú Thọ - Thụy Vân,Hotline 1900 54 55 91,"Ngã tư giao lộ Đường Trường Chinh - QL32C, Xã Thụy Vân, Tp. Việt Trì, Tỉnh Phú Thọ",Kia,Phú Thọ
KIA Phú Thọ - Việt Trì,Hotline 1900 54 55 91,"Tổ 52, Khu 12 Nguyễn Tất Thành, Phường Thành Miếu, Tp. Việt Trì, Phú Thọ",Kia,Phú Thọ
KIA Phúc Yên,Hotline 1900 54 55 91,"Khu 5, Phường Tiền Châu, Thành Phố Phúc Yên, Vĩnh Phúc",Kia,Vĩnh Phúc
KIA Quảng Ninh,Hotline 08 569 88 569,"Km 103, Quốc lộ 18A, Hà Khẩu, Hạ Long, Quảng Ninh",Kia,Quảng Ninh
KIA Sơn La,Hotline 1900 54 55 91,"Km 11, Phường Chiềng Sinh, Tp. Sơn La, Tỉnh Sơn La",Kia,Sơn La
KIA Sông Công,Hotline 1900 54 55 91,"KCN Nguyên Gon, Phường Cải Đan, Tp. Sông Công, Thái Nguyên",Kia,Thái Nguyên
KIA Thái Bình,Hotline 1900 54 55 91,"Km3 + 500 Đường Hùng Vương, Phường Phú Khánh, Tp. Thái Bình",Kia,Thái Bình
KIA Thái Nguyên,Hotline 1900 54 55 91,"Khu dân cư 3 + 4 - Phan Đình Phùng, Đồng Quang, Thái Nguyên",Kia,Thái Nguyên
KIA Từ Sơn,Hotline 1900 54 55 91,"578 Trần Phú, Phường Đình Bảng, Tp. Từ Sơn, Bắc Ninh",Kia,Bắc Ninh
KIA Tuyên Quang,Hotline 1900 54 55 91,"Km 5 Đường Tuyên Quang - Hà Nội, Xã Lưỡng Vượng, Tp. Tuyên Quang",Kia,Tuyên Quang
KIA Vĩnh Yên,Hotline 1900 54 55 91,"Xóm Phổ, Xã Quất Lưu, Huyện Bình Xuyên, Vĩnh Phúc",Kia,Vĩnh Phúc
KIA Yên Bái,Hotline 1900 54 55 91,"Đường Âu Cơ, Thôn Thanh Hùng, Xã Tân Thịnh, Tp. Yên Bái",Kia,Yên Bái
KIA Yên Lạc,Hotline 1900 54 55 91,"Quốc lộ 2A, Thôn Vật Cách, Xã Đồng Cương, Yên Lạc, Vĩnh Phúc",Kia,Vĩnh Phúc
KIA Yên Nghĩa,Hotline 1900 54 55 91,"889 Tổ 9, Phú Lãm, Hà Đông, Hà Nội",Kia,Hà Nội
KIA Điện Biên,Hotline 1900 54 55 91,"446 Nguyễn Hữu Thọ, Tổ dân phố 7, Thanh Bình, Điện Biên Phủ, Điện Biên",Kia,Điện Biên
KIA Đống Đa ,Hotline 1900 54 55 91,"Số 568 Đường Láng, Phường Láng Hạ, Quận Đống Đa, Hà Nội",Kia,Hà Nội
Mazda Bắc Giang ,Hotline 1900 54 55 91,"Quốc lộ 1A, Thôn Riễu, Xã Dĩnh Trì, Tp. Bắc Giang",Mazda,Bắc Giang
Mazda Bắc Kạn,Hotline 1900 54 55 91,"Thôn Nam Đội Thân, Tp. Bắc Kạn",Mazda,Bắc Kạn
Mazda Bắc Ninh ,Hotline 1900 54 55 91,"Cụm công nghiệp Võ Cường, Phường Võ Cường, Tp. Bắc Ninh, Tỉnh Bắc Ninh",Mazda,Bắc Ninh
Mazda Cẩm Phả,Hotline 1900 54 55 91,"923 Đặng Châu Tuệ, Km 14, Quang Hanh, Cẩm Phả, Quảng Ninh",Mazda,Quảng Ninh
Mazda Cao Bằng,Hotline 1900 54 55 91,"Km5, Phường Đề Thám, Tp. Cao Bằng, Cao Bằng",Mazda,Cao Bằng
Mazda Chí Linh - Hải Dương,Hotline 1900 54 55 91,"Khu Bình Giang - Quốc Lộ 18, Phường Phả Lại, Tp. Chí Linh, Hải Dương",Mazda,Hải Dương
Mazda Giải Phóng,Hotline 1900 54 55 91,"Số 207 Ngọc Hồi, Huyện Thanh Trì, Hà Nội",Mazda,Hà Nội
Mazda Hà Giang,Hotline 1900 54 55 91,"Thôn Lâm Đồng, Xã Phương Thiện, Thành phố Hà Giang",Mazda,Hà Giang
Mazda Hà Nam,Hotline 1900 54 55 91,"QL1A, Khu TMDV4, Thanh Châu, Phủ Lý, Hà Nam",Mazda,Hà Nam
Mazda Hà Đông,Hotline 1900 54 55 91,"TTTM The K-Park, KĐT Văn Phú, Phú La, Hà Đông, Hà Nội",Mazda,Hà Nội
Mazda Hải Dương,Hotline 1900 54 55 91,"Km1, Nguyễn Lương Bằng, Phường Phạm Ngũ Lão, Tp. Hải Dương",Mazda,Hải Dương
Mazda Hải Phòng,Hotline 1900 54 55 91,"Số 336 đường Hà Nội, Phường Sở Dầu, Quận Hồng Bàng, Tp. Hải Phòng",Mazda,Hải Phòng
Mazda Hải Phòng - Lê Hồng Phong,Hotline 1900 54 55 91,"Lô 7/10B Lê Hồng Phong, Quận Hải An, Tp. Hải Phòng",Mazda,Hải Phòng
Mazda Hòa Bình,Hotline 1900 54 55 91,"Km 3.5 QL6, Phố Ngọc, Trung Minh, Tp. Hòa Bình",Mazda,Hòa Bình
Mazda Hưng Yên,Hotline 1900 54 55 91,"Đường Lê Văn Lương, Phường An Tảo, Tp. Hưng Yên",Mazda,Hưng Yên
Mazda Lai Châu,Hotline 1900 54 55 91,"Đường Điện Biên Phủ, Tổ 8, Phường Tân Phong, Tp. Lai Châu",Mazda,Lai Châu
Mazda Láng Hạ,Hotline 1900 54 55 91,"103 Láng Hạ, Quận Đống Đa, Hà Nội",Mazda,Hà Nội
Mazda Lạng Sơn,Hotline 1900 54 55 91,"KĐT Phía Đông, QL1A, Phường Đông Kinh, Tp. Lạng Sơn",Mazda,Lạng Sơn
Mazda Lào Cai,Hotline 1900 54 55 91,"001 Võ Nguyên Giáp, Phường Bắc Cường, Tp. Lào Cai",Mazda,Lào Cai
Mazda Lê Văn Lương,Hotline 1900 54 55 91,"Số 68 Lê Văn Lương, Phường Nhân Chính, Quận Thanh Xuân, Hà Nội",Mazda,Hà Nội
Mazda Long Biên ,Hotline 1900 54 55 91,"Số 105A Lý Sơn, Phường Ngọc Thụy, Quận Long Biên, Hà Nội",Mazda,Hà Nội
Mazda Móng Cái,Hotline 1900 54 55 91,"Km 4, Phường Hải Yên, Tp. Móng Cái, Quảng Ninh",Mazda,Quảng Ninh
Mazda Mỹ Đình,Hotline 1900 54 55 91,"Đường Trịnh Văn Bô,  Phường Phương Canh, Quận Nam Từ Liêm, Hà Nội",Mazda,Hà Nội
Mazda Nam Định,Hotline 1900 54 55 91,"KM 93 Đại Lộ Thiên Trường, Phường Lộc Hòa, Tp. Nam Định",Mazda,Nam Định
Mazda Ninh Bình,Hotline 1900 54 55 91,"Số 63, Lê Đại Hành, Phường Thanh Bình, Tp. Ninh Bình",Mazda,Ninh Bình
Mazda Phạm Văn Đồng,Hotline 1900 54 55 91,"Lô đất CC2, khu đô thị Thành phố Giao Lưu,  Cổ Nhuế 1, Bắc Từ Liêm, Hà Nội",Mazda,Hà Nội
Mazda Phố Nối,Hotline 1900 54 55 91,"Ngã tư Phố Nối A, Đường Quốc lộ 5, Trưng Trắc, Văn Lâm, Hưng Yên",Mazda,Hưng Yên
Mazda Phú Thọ - Thụy Vân,Hotline 098 111 6697,"Ngã tư giao lộ Đường Trường Chinh - QL32C, Xã Thụy Vân, Tp. Việt Trì, Phú Thọ",Mazda,Phú Thọ
Mazda Phú Thọ - Việt Trì,Hotline 1900 54 55 91,"Tổ 52, Khu 12 Nguyễn Tất Thành, Phường Thành Miếu, Tp. Việt Trì, Phú Thọ ",Mazda,Phú Thọ
Mazda Phúc Yên,Hotline 1900 54 55 91,"Khu 5, Phường Tiền Châu, Thành Phố Phúc Yên, Vĩnh Phúc",Mazda,Vĩnh Phúc
Mazda Quảng Ninh,Hotline 1900 54 55 91,"Km 103, Quốc lộ 18A, Phường Hà Khẩu, Tp. Hạ Long, Quảng Ninh",Mazda,Quảng Ninh
Mazda Sơn La,Hotline 1900 54 55 91,"Km 11, Phường Chiềng Sinh, Tp. Sơn La, Tỉnh Sơn La",Mazda,Sơn La
Mazda Sông Công,Hotline 1900 54 55 91,"KCN Nguyên Gon, Phường Cải Đan, Thành Phố Sông Công, Tỉnh Thái Nguyên",Mazda,Thái Nguyên
Mazda Thái Bình,Hotline 1900 54 55 91,"Km3 + 500 Đường Hùng Vương, Phường Phú Khánh, Tp. Thái Bình",Mazda,Thái Bình
Mazda Thái Nguyên,Hotline 1900 54 55 91,"Khu quy hoạch dân cư 3+4  - Đường Phan Đình Phùng, Đồng Quang , Thái Nguyên",Mazda,Thái Nguyên
Mazda Trần Khát Chân,Hotline 1900 54 55 91,"63 Trần Khát Chân, Phường Bạch Đằng, Quận Hai Bà Trưng, Hà Nội",Mazda,Hà Nội
Mazda Từ Sơn,Hotline 1900 54 55 91,"DT179, Khu đô thị Đền Đô (Cạnh siêu thị Dababo), Đình Bảng, Tp. Từ Sơn, Bắc Ninh",Mazda,Bắc Ninh
Mazda Tuyên Quang ,Hotline 1900 54 55 91,"Km 5 Đường Tuyên Quang - Hà Nội, Xã Lưỡng Vượng, Tp. Tuyên Quang",Mazda,Tuyên Quang
Mazda Vĩnh Yên,Hotline 1900 54 55 91,"Xóm Phổ, Quất Lưu, Bình Xuyên, Vĩnh Phúc",Mazda,Vĩnh Phúc
Mazda Yên Bái,Hotline 1900 54 55 91,"Đường Âu Cơ, Thôn Thanh Hùng, Xã Tân Thịnh, Tp. Yên Bái",Mazda,Yên Bái
Mazda Yên Lạc,Hotline 1900 54 55 91,"Quốc lộ 2A, Vật Cách, Đồng Cương, Yên Lạc, Vĩnh Phúc",Mazda,Vĩnh Phúc
Mazda Yên Nghĩa,Hotline 1900 54 55 91,"Số 948 Quang Trung, Phú Lãm, Hà Đông, Hà Nội",Mazda,Hà Nội
Mazda Điện Biên,Hotline 1900 54 55 91,"446 Nguyễn Hữu Thọ, Tổ dân phố 7, Thanh Bình, Điện Biên Phủ, Điện Biên",Mazda,Điện Biên
An Đô Ford,Hotline 1800 58 88 88,"168 Đường Phạm Văn Đồng, Phường Xuân Đỉnh, Quận Bắc Từ Liêm, Hà Nội",Ford,Hà Nội
Bắc Giang Ford,Hotline 1800 58 88 88,"Thôn Riễu, Xã Dĩnh Trì, Thành Phố Bắc Giang",Ford,Bắc Giang
Cẩm Phả Ford,Hotline 1800 58 88 88,"46 Đường Thanh Niên, Cẩm Thành, Cẩm Phả, Quảng Ninh",Ford,Quảng Ninh
Hà Nội Ford,Hotline 1800 58 88 88,"Số 311-313 Trường Chinh, Khương Mai, Thanh Xuân, Hà Nội",Ford,Hà Nội
Hà Thành Ford,Hotline 1800 58 88 88,"Cụm Công Nghiệp Lai Xá, Xã Kim Chung, Huyện Hoài Đức, Hà Nội",Ford,Hà Nội
Hà Thành Ford - CN Mỹ Đình,Hotline 1800 58 88 88,"Số 2 Tôn Thất Thuyết, Mỹ Đình, Nam Từ Liêm, Hà Nội",Ford,Hà Nội
Hà Thành Ford - CN Tây Hồ,Hotline 1800 58 88 88,"685A Lạc Long Quân, Tây Hồ, Hà Nội",Ford,Hà Nội
Hải Dương Ford,Hotline 1800 58 88 88,"Khu 14, Phường Bình Hàn, Tp. Hải Dương",Ford,Hải Dương
Hải Phòng Ford,Hotline 1800 58 88 88,"Đường 5, Tổ 3, Khu An Trì, Hùng Vương, Hồng Bàng, Hải Phòng",Ford,Hải Phòng
Lào Cai Ford,Hotline 1800 58 88 88,"Km3+800 Trần Hưng Đạo, Nam Cường, Tp Lào Cai",Ford,Lào Cai
Long Biên Ford,Hotline 1800 58 88 88,"Số 3 Đường Nguyễn Văn Linh , Phường Gia Thụy, Quận Long Biên, Hà Nội  ",Ford,Hà Nội
Long Biên Ford - Bắc Ninh,Hotline 1800 58 88 88,"Đường Lê Thái Tổ, Phường Võ Cường, TP. Bắc Ninh",Ford,Bắc Ninh
Mỹ Đình Ford,Hotline 1800 58 88 88,"Số 8 Trịnh Văn Bô, Phường Phương Canh, Quận Nam Từ Liêm, Hà Nội",Ford,Hà Nội
Nam Định Ford,Hotline 1800 58 88 88,"91 Nguyễn Công Trứ, KĐT Hòa Vượng, Tp Nam Định",Ford,Nam Định
Quảng Ninh Ford,Hotline 1800 58 88 88,"Cầu 3, Phường Cao Xanh, Tp. Hạ Long, Quảng Ninh",Ford,Quảng Ninh
Tây Bắc Ford,Hotline 1800 58 88 88,"Số 498 Trần Đăng Ninh, Tổ 3, P. Quyết Tâm, TP Sơn La",Ford,Sơn La
Thái Nguyên Ford,Hotline 1800 58 88 88,"Đường CMT8, Tổ 3, Phường Cam Giá, Tp. Thái Nguyên",Ford,Thái Nguyên
Thăng Long Ford,Hotline 1800 58 88 88,"105 Láng Hạ, Quận Đống Đa, Hà Nội",Ford,Hà Nội
Thăng Long Ford - Tây Mỗ,Hotline 1800 58 88 88,"Tổ dân phố Nhuệ Giang, Tây Mỗ, Nam Từ Liêm, Hà Nội",Ford,Hà Nội
Thanh Xuân Ford,Hotline 1800 58 88 88,"Số 88 Nguyễn Xiển, Hạ Đình, Thanh Xuân, Hà Nội",Ford,Hà Nội
Thủ Đô Ford,Hotline 1800 58 88 88,"Số 5 Ngọc Hồi, Pháp Vân, Hoàng Mai, Hà Nội",Ford,Hà Nội
Việt Trì Ford,Hotline 1800 58 88 88,"Ngã 3 Lê Đồng - Đại lộ Hùng Vương, Vân Cơ, Việt Trì, Phú Thọ",Ford,Phú Thọ
Vĩnh Phúc Ford,Hotline 1800 58 88 88,"779 Nguyễn Tất Thành, Tích Sơn, Vĩnh Yên, Vĩnh Phúc",Ford,Vĩnh Phúc
 Mitsubishi Kim Liên Hà Nội,Hotline 1800 1514,"Số 26 Phạm Văn Đồng, Phường Xuân Đỉnh, Quận Bắc Từ Liêm, Hà Nội",Mitsubishi,Hà Nội
Mitsubishi An Dân,Hotline 1800 1514,"Số 1 Nguyễn Văn Linh, Long Biên, Hà Nội",Mitsubishi,Hà Nội
Mitsubishi An Dân Hưng Yên,Hotline 1800 1514,"47 Đinh Hiền, Hiến Nam, Tp Hưng Yên",Mitsubishi,Hưng Yên
Mitsubishi An Dân Vĩnh Phúc,Hotline 1800 1514,"Km 27, Quốc Lộ 2, Xóm Phổ, Quất Lưu, Bình Xuyên, Vĩnh Phúc",Mitsubishi,Vĩnh Phúc
Mitsubishi Cầu Diễn (Hanoi Auto) ,Hotline 1800 1514,"Tổ 15 Phường Phúc Diễn, Bắc Từ Liêm, Hà Nội",Mitsubishi,Hà Nội
Mitsubishi Hanoi Auto - CN Ninh Bình,Hotline 1800 1514,"Đường Trần Nhân Tông, Thôn Vườn Hòa, Xã Ninh Phúc, Tp. Ninh Bình",Mitsubishi,Ninh Bình
Mitsubishi Hanoi Auto - CN Phú Thọ,Hotline 1800 1514,"Tổ 52, Khu 12 Nguyễn Tất Thành, Phường Thành Miếu, Tp. Việt Trì, Phú Thọ",Mitsubishi,Phú Thọ
Mitsubishi Hòa Bình Minh - CN Bắc Giang,Hotline 1800 1514,"Khu đô thị phía Nam, Tân Tiến, Yên Dũng, Tp. Bắc Giang",Mitsubishi,Bắc Giang
Mitsubishi Hòa Bình Minh - CN Quảng Ninh,Hotline 1800 1514,"Khu đô thị mới Nam ga, Giếng Đáy, Hạ Long, Quảng Ninh ",Mitsubishi,Quảng Ninh
Mitsubishi Hưng Thịnh Phát,Hotline 1800 1514,"140 Quang Trung, Trần Hưng Đạo, Thái Bình",Mitsubishi,Thái Bình
Mitsubishi Lào Cai,Hotline 0976 195 764,"Km 2+900, Đại lộ Trần Hưng Đạo, Phường Bắc Cường, Tp. Lào Cai",Mitsubishi,Lào Cai
Mitsubishi Nam Định,Hotline 1800 1514,"Đại Lộ Thiên Trường, Xã Mỹ Hưng, Huyện Mỹ Lộc, Tỉnh Nam Định",Mitsubishi,Nam Định
Mitsubishi Ô Tô Bắc Ninh,Hotline 1800 1514,"9 Lê Thái Tổ, Võ Cường, Thành Phố Bắc Ninh",Mitsubishi,Bắc Ninh
Mitsubishi Ô tô Quốc Tế,Hotline 1800 1514,"Số 02 Lô 11A Lê Hồng Phong, Phường Đằng Hải, Quận Hải An, Tp. Hải Phòng",Mitsubishi,Hải Phòng
Mitsubishi T&T Hải Dương,Hotline 1800 1514,"Lô 90.2 Trường Chinh, Khu đô thị phía Tây, Phường Tân Bình, TP. Hải Dương",Mitsubishi,Hải Dương
Mitsubishi Thái Nguyên,Hotline 1800 1514,"706-708 Dương Tự Minh, Phường Quan Triều, Tp. Thái Nguyên",Mitsubishi,Thái Nguyên
Mitsubishi Tôn Thất Tùng,Hotline 1800 1514,"Tầng 1 Tòa nhà Coninco, Số 4 Tôn Thất Tùng, Trung Tự, Đống Đa, Hà Nội",Mitsubishi,Hà Nội
Mitsubishi Trung Thượng,Hotline 1800 1514,"Km6, Đại lộ Thăng Long, Hoài Đức, Hà Nội",Mitsubishi,Hà Nội
Mitsubishi Tuyên Quang,Hotline 1800 1514,"Ngã 5 Tỉnh đội, Phường Tân Hà, Tp. Tuyên Quang",Mitsubishi,Tuyên Quang
Mitsubishi Việt Hồng,Hotline 1800 1514,"Hải Phong Building, 19 Trần Thủ Độ, Hoàng Liệt, Hoàng Mai, Hà Nội",Mitsubishi,Hà Nội
Mitsubishi Việt Hùng,Hotline 1800 1514,"Km 14+500 Quốc lộ 6, Phường Yên Nghĩa, Quận Hà Đông, Hà Nội",Mitsubishi,Hà Nội
VinFast Âu Lạc,Hotline 1900 23 23 89,"Số 1248 Nguyễn Bỉnh Khiêm, Phường Đông Hải 2, Quận Hải An, Tp. Hải Phòng",Vinfast,Hải Phòng
VinFast Bình Bảo Minh,Hotline 1900 23 23 89,"Số 311+312 Đường Ngô Quyền, Phường Cẩm Thượng, Tp. Hải Dương",Vinfast,Hải Dương
VinFast Cẩm Phả,Hotline 1900 23 23 89,"Tổ 5, Khu Diêm Thủy, Phường Cẩm Bình, Tp. Cẩm Phả, Quảng Ninh",Vinfast,Quảng Ninh
VinFast Cao Bằng,Hotline 1900 23 23 89,"Đường Pắc Bó, Tổ 7, Phường Ngọc Xuân, Thành phố Cao Bằng",Vinfast,Cao Bằng
VinFast Hạ Long,Hotline 1900 23 23 89,"TTTM Vincom Plaza Hạ Long - Khu Cột Đồng Hồ, Bạch Đằng, Tp. Hạ Long, Quảng Ninh",Vinfast,Quảng Ninh
VinFast Hà Nội,Hotline 1900 23 23 89,"Số 948 Đường Quang Trung kéo dài, Do Lộ, Phường Yên Nghĩa, Quận Hà Đông, Hà Nội",Vinfast,Hà Nội
VinFast Hòa Bình,Hotline 1900 23 23 89,"TTTM và Nhà phố thương mại Shophose Hòa Bình - Cù Chính Lan, Đồng Tiến, Hòa Bình",Vinfast,Hòa Bình
VinFast Imperia Hải Phòng,Hotline 1900 23 23 89,"Số 1 Bạch Đằng, Phường Thượng Lý, Quận Hồng Bàng, Hải Phòng",Vinfast,Hải Phòng
VinFast Lai Châu,Hotline 1900 23 23 89,"Tổ 18 Phường Tân Phong, Tp. Lai Châu, Tỉnh Lai Châu",Vinfast,Lai Châu
VinFast Lạng Sơn,Hotline 1900 23 23 89,"Tầng 1, TTTM Vincom Plaza Lạng Sơn, Phía Nam Cầu Kỳ Lừa, Chi Lăng, Tp. Lạng Sơn",Vinfast,Lạng Sơn
VinFast Long Biên,Hotline 1900 23 23 89,"TTTM Vincom Plaza Long Biên - Khu đô thị Vinhomes Riverside, Phúc Lợi, Long Biên, Hà Nội",Vinfast,Hà Nội
VinFast Lý Thái Tổ,Hotline 1900 23 23 89,"Tầng 1 TTTM Vincom Plaza Lý Thái Tổ - Ngã 6 Tp. Bắc Ninh, mặt đường Lý Thái Tổ và Trần Hưng Đạo, Bắc Ninh",Vinfast,Bắc Ninh
VinFast Móng Cái,Hotline 1900 23 23 89,"TTTM Vincom Plaza Móng Cái, Trần Phú, Móng Cái, Quảng Ninh",Vinfast,Quảng Ninh
VinFast Newway,Hotline 1900 23 23 89,"183 Phố Yên Lãng, Phường Thịnh Quang, Quận Đống Đa, Hà Nội",Vinfast,Hà Nội
VinFast Nguyễn Văn Linh,Hotline 1900 23 23 89," Số 1 Nguyễn Văn Linh, Gia Thụy, Long Biên, Hà Nội",Vinfast,Hà Nội
VinFast Ô Tô Hoàng Hải - Lào Cai,Hotline 1900 23 23 89,"B4, Đại lộ Trần Hưng Đạo, Phường Nam Cường, Tp. Lào Cai",Vinfast,Lào Cai
VinFast Ô Tô Lợi Mận,Hotline 1900 23 23 89,"Số 88 Đường Phạm Bạch Hổ, Phường Lam Sơn, Thành phố Hưng Yên",Vinfast,Hưng Yên
VinFast Ô Tô Minh Đạo ,Hotline 1900 23 23 89,"Tổ 4 Đường CMT8, Phường Cam Giá, Tp. Thái Nguyên",Vinfast,Thái Nguyên
VinFast Ô tô Mỹ Đình,Hotline 1900 23 23 89," Số 8 Phạm Hùng, Phường Mai Dịch, Quận Cầu Giấy, Hà Nội",Vinfast,Hà Nội
VinFast Ocean Park,Hotline 1900 23 23 89,"Tầng 1, TTTM Vincom Ocean Park, Khu đô thị Vinhomes Ocean Park, Kiêu Kỵ, Gia Lâm, Hà Nội",Vinfast,Hà Nội
VinFast Phạm Văn Đồng,Hotline 1900 23 23 89,"166 Phạm Văn Đồng, Xuân Đỉnh, Bắc Từ Liêm, Hà Nội",Vinfast,Hà Nội
VinFast Phủ Lý - Hà Nam,Hotline 1900 23 23 89,"Tổ hợp Thương mại - Dịch vụ Tổng hợp Hà Nam, Minh Khai, Tp. Phủ Lý, Hà Nam",Vinfast,Hà Nam
VinFast Quốc Oai,Hotline 1900 23 23 89,"Km 18 Đại lộ Thăng Long, Khu công nghiệp Thạch Thất - Quốc Oai, Thị Trấn Quốc Oai, Huyện Quốc Oai, Hà Nội",Vinfast,Hà Nội
VinFast Royal City,Hotline 1900 23 23 89,"Tầng B2, TTTM Vincom Mega Mall Royal City - 72A Nguyễn Trãi, Thượng Đình, Thanh Xuân, Hà Nội",Vinfast,Hà Nội
VinFast Smart City,Hotline 1900 23 23 89,"Tầng 1 Vincom Megamall, Khu đô thị Vinhomes Smart City, Tây Mỗ - Đại Mỗ, Nam Từ Liêm, Hà Nội",Vinfast,Hà Nội
VinFast Sơn La,Hotline 1900 23 23 89,"TTTM Vincom Plaza Sơn La, Đường Trường Chinh, Quyết Thắng, Sơn La",Vinfast,Sơn La
VinFast Thái Nguyên,Hotline 1900 23 23 89,"TTTM Vincom Plaza Thái Nguyên, 286 Lương Ngọc Quyến, Quang Trung, Tp. Thái Nguyên",Vinfast,Thái Nguyên
VinFast Thăng Long,Hotline 1900 23 23 89,"68 Trịnh Văn Bô, Phường Phương Canh, Quận Nam Từ Liêm, Hà Nội",Vinfast,Hà Nội
VinFast Thăng Long Dragon Auto,Hotline 1900 23 23 89,"Đại Lộ Kỳ Đồng, Khu đô thị Kỳ đồng, Phú Xuân, Tp. Thái Bình",Vinfast,Thái Bình
VinFast Thành Thành Phát - Nam Định,Hotline 1900 23 23 89,"Đại Lộ Thiên Trường, Lộc Hòa, Nam Định",Vinfast,Nam Định
VinFast Thành Thành Phát - Phú Thọ,Hotline 1900 23 23 89,"Khu 4, Đường Hùng Vương, Phường Vân Phú, Tp. Việt Trì, Phú Thọ",Vinfast,Phú Thọ
VinFast Times City ,Hotline 1900 23 23 89,"Tầng B1, TTTM Vincom Mega Mall Times City - 458 Minh Khai, Vĩnh Tuy, Hai Bà Trưng, Hà Nội",Vinfast,Hà Nội
VinFast Trần Duy Hưng,Hotline 1900 23 23 89,"TTTM Vincom - 119 Trần Duy Hưng, Láng Thượng, Cầu Giấy, Hà Nội",Vinfast,Hà Nội
VinFast Trường Chinh,Hotline 1900 23 23 89,"162 Phố Trường Chinh, Quận Đống Đa, Hà Nội",Vinfast,Hà Nội
VinFast Tuyên Quang,Hotline 1900 23 23 89,"TTTM Vincom Plaza Tuyên Quang - 260 Quang Trung, Phường Phan Thiết, Tp. Tuyên Quang",Vinfast,Tuyên Quang
VinFast Việt Trì,Hotline 1900 23 23 89,"TTTM Vincom Plaza Việt Trì - Số 2 Đại lộ Hùng Vương, Việt Trì, Phú Thọ",Vinfast,Phú Thọ
VinFast Vĩnh Phúc,Hotline 1900 23 23 89,"Đường Nguyễn Tất Thành, Định Trung, Tp. Vĩnh Yên, Vĩnh Phúc",Vinfast,Vĩnh Phúc
VinFast Yên Bái,Hotline 1900 23 23 89,"TTTM Vincom Plaza, Công viên Yên Hòa, Tô Hiến Thành, Tp. Yên Bái",Vinfast,Yên Bái
VinFast Đào Dương Bắc Giang,Hotline 1900 23 23 89,"Lô ATM 2 Khu đô thị phía Nam, Thôn Xuân, Xã Tân Tiến, Tp. Bắc Giang",Vinfast,Bắc Giang
Suzuki An Việt - CN Lào Cai,Hotline 1800 6950,"Số 002, Đại lộ Trần Hưng Đạo, Phường Bắc Cường, Tp. Lào Cai",Suzuki,Lào Cai
Suzuki An Việt - Hà Nội,Hotline 1800 6950,"Km12+300, QL1A, Vĩnh Quỳnh, Huyện Thanh Trì, Hà Nội",Suzuki,Hà Nội
Suzuki Cầu Giấy,Hotline 1800 6950,"Số 171 Xuân Thủy, Phường Dịch Vọng Hậu, Quận Cầu Giấy, Hà Nội ",Suzuki,Hà Nội
Suzuki Hà Thành,Hotline 1800 6950,"Số 315A Nguyễn Khoái, Phường Thanh Lương, Quận Hai Bà Trưng, Hà Nội ",Suzuki,Hà Nội
Suzuki Hòa Bình,Hotline 1800 6950,"Km 3 phố Ngọc, Trung Minh, Thành phố Hòa Bình",Suzuki,Hòa Bình
Suzuki Hoàng Hiền,Hotline 1800 6950,"Số 285 Phạm Bạch Hổ, Phường Nguyễn Trãi, Hưng Yên",Suzuki,Hưng Yên
Suzuki Hùng Phượng	,Hotline 1800 6950,"Cụm CN Dĩnh Kế, Thôn Riễu, Xã Dĩnh Trì, Tp. Bắc Giang",Suzuki,Bắc Giang
Suzuki Huy Phương,Hotline 1800 6950,"Khu Thương mại Võ Nguyên Giáp, Phường Hoàng Diệu, Tp. Thái Bình",Suzuki,Thái Bình
Suzuki NISU - Hưng Yên,Hotline 1800 6950,"Tổ dân phố Đọ, P. Bạch Sam, TX. Mỹ Hào, Hưng Yên",Suzuki,Hưng Yên
Suzuki NISU - Long Biên,Hotline 1800 6950,"449 Nguyễn Văn Linh, Phúc Đồng, Long Biên, Hà Nội",Suzuki,Hà Nội
Suzuki Quảng Ninh,Hotline 1800 6950,"393 Trần Phú, P. Cao Xanh, Tp. Hạ Long, Quảng Ninh",Suzuki,Quảng Ninh
Suzuki Quý Hạnh,Hotline 1800 6950,"QL3, Phủ Lỗ, Sóc Sơn, Hà Nội",Suzuki,Hà Nội
Suzuki Trọng Thiện - CN Quảng Ninh,Hotline 1800 6950,"Số 431 Bạch Đằng, Nam Tân, Nam Khê, Tp. Uông Bí, Quảng Ninh",Suzuki,Quảng Ninh
Suzuki Trọng Thiện - Hải Phòng,Hotline 1800 6950,"Khu Đô Thị Mới Sở Dầu, Phường Sở Dầu, Hồng Bàng, Hải Phòng",Suzuki,Hải Phòng
Suzuki Vân Đạo - Hà Nội,Hotline 1800 6950,"Đường 32, KCN Lai Xá, Phường Kim Chung, Huyện Hoài Đức, Hà Nội",Suzuki,Hà Nội
Suzuki Vân Đạo - Lạng Sơn,Hotline 1800 6950,"Quốc lộ 1A, Ngã tư Phai Trần, Hoàng Tân, Hoàng Đồng, Tp. Lạng Sơn",Suzuki,Lạng Sơn
Suzuki Vân Đạo - Thái Nguyên,Hotline 1800 6950,"Km5, Đường CMT8, Tp. Thái Nguyên",Suzuki,Thái Nguyên
Suzuki Vân Đạo - Thái Nguyên 1S,Hotline 1800 6950,"Cầu Gia Bảy, Số 351 Bắc Kạn, Tp. Thái Nguyên",Suzuki,Thái Nguyên
Suzuki Việt Anh,Hotline 1800 6950,"Km 14+600, Quốc lộ 6, Phường Yên Nghĩa, Quận Hà Đông, Hà Nội",Suzuki,Hà Nội
Suzuki Việt Đức,Hotline 1800 6950,"Km50+500, QL5A, An Định, P. Cẩm Thượng, Tp. Hải Dương",Suzuki,Hải Dương
Nissan Bắc Ninh,Hotline 1900 1189,"152 Nguyễn Văn Cừ, Phường Võ Cường, Tp. Bắc Ninh",Nissan,Bắc Ninh
Nissan Giải Phóng,Hotline 1900 1189,"Km12 Quốc Lộ 1A Ngọc Hồi, Tứ Hiệp, Thanh Trì, Hà Nội",Nissan,Hà Nội
Nissan Hà Đông,Hotline 1900 1189,"Km 14+600, Quốc Lộ 6, Phường Yên Nghĩa, Quận Hà Đông, Hà Nội",Nissan,Hà Nội
Nissan Hải Dương,Hotline 1900 1189,"175 An Định, Phường Bình Hàn, Tp Hải Dương",Nissan,Hải Dương
Nissan Hải Phòng,Hotline 1900 1189,"189 Hùng Vương, Sở Dầu, Hồng Bàng, Hải Phòng",Nissan,Hải Phòng
Nissan Hưng Yên,Hotline 1900 1189,"226-228 Phạm Bạch Hổ, Phường Lam Sơn, Tp Hưng Yên",Nissan,Hưng Yên
Nissan Lào Cai,Hotline 1900 1189,"Số 111 Đường Nhạc Sơn, Phường Cốc Lếu, Tp. Lào Cai",Nissan,Lào Cai
Nissan Nam Định,Hotline 1900 1189,"Đại lộ Thiên Trường, Mỹ Hưng, Mỹ Lộc, Nam Định",Nissan,Nam Định
Nissan Ninh Bình,Hotline 1900 1189,"382 Đường 30/06 (QL1A), Phường Nam Thành, Tp. Ninh Bình",Nissan,Ninh Bình
Nissan Phạm Văn Đồng,Hotline 1900 1189,"Số 26 Phạm Văn Đồng, Xuân Đỉnh, Bắc Từ Liêm, Hà Nội",Nissan,Hà Nội
Nissan Sơn La,Hotline 1900 1189,"Đường Lê Duẩn, Tổ 5, Phường Chiềng Sinh, Thành phố Sơn La",Nissan,Sơn La
Nissan Tây Hồ,Hotline 1900 1189,"189 Nghi Tàm, Yên Phụ, Tây Hồ, Hà Nội",Nissan,Hà Nội
Nissan Thái Bình,Hotline 1900 1189,"292 Trần Thái Tông, Phường Tiền Phong, Tp. Thái Bình",Nissan,Thái Bình
Nissan Thái Nguyên,Hotline 1900 1189,"Đường CMT8, Tổ 3, Phường Cam Giá, Tp. Thái Nguyên",Nissan,Thái Nguyên
Nissan Thăng Long,Hotline 1900 1189,"Km 12, Đường 32, Phường Phú Diễn, Quận Bắc Từ Liêm, Hà Nội",Nissan,Hà Nội
Volkswagen Autohaus Phạm Văn Đồng,Hotline 1900 29 29 98,"Tầng 1, Toà Nhà CT3 - Phạm Văn Đồng, Xuân Đỉnh, Bắc Từ Liêm, Hà Nội",Volkswagen,Hà Nội
Volkswagen Hải Dương,Hotline 1900 29 29 98,"446 Nguyễn Lương Bằng, Phường Thanh Bình, Thành phố Hải Dương",Volkswagen,Hải Dương
Volkswagen Hải Phòng,Hotline 0903 29 33 91,"722 Nguyễn Văn Linh, P. Vĩnh Niệm, Q. Lê Chân, Tp. Hải Phòng",Volkswagen,Hải Phòng
Volkswagen I.D Auto,Hotline 1900 29 29 98,"18 Phạm Hùng, Phường Mai Dịch, Quận Cầu Giấy, Hà Nội",Volkswagen,Hà Nội
Volkswagen Long Biên,Hotline 1900 29 29 98,"Số 03, Lô 3+5, Nguyễn Văn Linh, Phường Gia Thụy, Quận Long Biên, Hà Nội",Volkswagen,Hà Nội
Volkswagen Quảng Ninh,Hotline 1900 29 29 98,"291A Trần Nhân Tông, Phường Yên Thanh, Tp. Uông Bí, Quảng Ninh",Volkswagen,Quảng Ninh
PEUGEOT Bắc Giang,Hotline 1900 1101,"Quốc lộ 1A, Thôn Riễu, Xã Dĩnh Trì, Tp. Bắc Giang",Peugeot,Bắc Giang
PEUGEOT Bắc Kạn,Hotline 1900 1101,"Thôn Nam Đội Thân, Tp. Bắc Kạn",Peugeot,Bắc Kạn
PEUGEOT Bắc Ninh ,Hotline 1900 1101,"Số 1, Đường Lê Thái Tổ (Vòng Xuyến Hòa Đình), Phường Võ Cường, Tp. Bắc Ninh",Peugeot,Bắc Ninh
PEUGEOT Cao Bằng,Hotline 1900 1101,"Km5, Phường Đề Thám, Tp. Cao Bằng, Tỉnh Cao Bằng",Peugeot,Cao Bằng
PEUGEOT Chí Linh,Hotline 1900 1101,"Quốc lộ 18, Phường Phả Lại, Tp. Chí Linh, Hải Dương (đối diện ga Cổ Thành)",Peugeot,Hà Nội
PEUGEOT Giải Phóng,Hotline 1900 1101,"Số 209 Km 10, Đường Ngọc Hồi, Tứ Hiệp, Thanh Trì, Hà Nội",Peugeot,Hà Nội
PEUGEOT Hà Nam,Hotline 1900 1101,"QL1A, Khu TMDV4, Phường Thanh Châu, Tp. Phủ Lý, Hà Nam",Peugeot,Hà Nam
PEUGEOT Hải Dương,Hotline 1900 1101,"Số 419 Nguyễn Lương Bằng, Phường Thanh Bình, Tp. Hải Dương",Peugeot,Hải Dương
PEUGEOT Hải Phòng,Hotline 1900 1101,"Số 8 Nguyễn Trãi, Phường Máy Tơ, Quận Ngô Quyền, Tp. Hải Phòng",Peugeot,Hải Phòng
PEUGEOT Hòa Bình,Hotline 1900 1101,"Km 3.5 QL6, Phố Ngọc, Trung Minh, Tp. Hòa Bình",Peugeot,Hòa Bình
PEUGEOT Hưng Yên,Hotline 1900 1101,"Đường Lê Văn Lương, Phường An Tảo, Thành phố Hưng Yên",Peugeot,Hưng Yên
PEUGEOT Lai Châu,Hotline 1900 1101,"Đường Điện Biên Phủ, Tổ 8, Phường Tân Phong, Tp. Lai Châu",Peugeot,Lai Châu
PEUGEOT Lạng Sơn,Hotline 1900 1101,"KĐT Phía Đông, QL1A, Phường Đông Kinh, Tp. Lạng Sơn",Peugeot,Lạng Sơn
PEUGEOT Lào Cai,Hotline 1900 1101,"Lô số DV 25, Đường Trần Hưng Đạo, Tp. Lào Cai ",Peugeot,Lào Cai
PEUGEOT Long Biên,Hotline 1900 1101,"541 Nguyễn Văn Cừ, Gia Thụy, Long Biên, Hà Nội",Peugeot,Hà Nội
PEUGEOT Móng Cái,Hotline 1900 1101,"Km 4, Phường Hải Yên, Tp. Móng Cái, Quảng Ninh",Peugeot,Quảng Ninh
PEUGEOT Nam Định,Hotline 1900 1101,"KM 93 Đại Lộ Thiên Trường, Phường Lộc Hòa, Tp. Nam Định",Peugeot,Nam Định
PEUGEOT Ninh Bình,Hotline 1900 1101,"Số 486 Đường 30/6, Nam Thành, Ninh Bình",Peugeot,Ninh Bình
PEUGEOT Phạm Văn Đồng,Hotline 1900 1101,"Tòa nhà LEADVISORS, Số 643 Phạm Văn Đồng,  Cổ Nhuế 1,  Bắc Từ Liêm, Hà Nội",Peugeot,Hà Nội
PEUGEOT Phố Nối,Hotline 1900 1101,"Ngã tư Phố Nối A, Đường Quốc lộ 5, Trưng Trắc, Văn Lâm, Hưng Yên",Peugeot,Hưng Yên
PEUGEOT Phú Thọ,Hotline 1900 1101,"Tổ 52, Khu 12, Đường Nguyễn Tất Thành, Thanh Miếu, Việt Trì, Phú Thọ ",Peugeot,Phú Thọ
PEUGEOT Phú Thọ - Thụy Vân,Hotline 1900 1101,"Ngã tư giao lộ Đường Trường Chinh - QL32C, Xã Thụy Vân, Tp. Việt Trì, Tỉnh Phú Thọ",Peugeot,Phú Thọ
PEUGEOT Quảng Ninh,Hotline 1900 1101,"Km 103, Quốc lộ 18A, Phường Hà Khẩu, Tp. Hạ Long, Quảng Ninh",Peugeot,Quảng Ninh
PEUGEOT Sơn La,Hotline 1900 1101,"Km 11, Phường Chiềng Sinh, Tp. Sơn La, Tỉnh Sơn La",Peugeot,Sơn La
PEUGEOT Sông Công,Hotline 1900 1101,"KCN Nguyên Gon, Phường Cải Đan, Tp. Sông Công, tỉnh Thái Nguyên",Peugeot,Thái Nguyên
PEUGEOT Thái Bình,Hotline 097 197 3008,"QL10 Thôn Huyền Sỹ, Xã Minh Quang, Huyện Vũ Thư, Thái Bình",Peugeot,Thái Bình
PEUGEOT Thái Nguyên,Hotline 1900 1101," Khu quy hoạch dân cư 3+4, Phan Đình Phùng, Đồng Quang, Thái Nguyên",Peugeot,Thái Nguyên
PEUGEOT Thanh Xuân,Hotline 1900 1101,"Số 12 Khuất Duy Tiến, Phường Thanh Xuân Trung, Quận Thanh Xuân, Hà Nội ",Peugeot,Hà Nội
PEUGEOT Trường Chinh Hà Nội,Hotline 1900 1101,"162 Trường Chinh, Khương Thượng, Đống Đa, Hà Nội",Peugeot,Hà Nội
PEUGEOT Từ Sơn,Hotline 1900 1101,"DT179, Khu đô thị Đền Đô (Cạnh siêu thị Dababo), Đình Bảng, Tp. Từ Sơn, Bắc Ninh",Peugeot,Bắc Ninh
PEUGEOT Vĩnh Yên,Hotline 1900 1101,"Xóm Phổ, Xã Quất Lưu, Huyện Bình Xuyên, Vĩnh Phúc",Peugeot,Vĩnh Phúc
PEUGEOT Yên Bái,Hotline 1900 1101,"Đường Âu Cơ, Thôn Thanh Hùng, Xã Tân Thịnh, Tp. Yên Bái",Peugeot,Yên Bái
PEUGEOT Yên Lạc,Hotline 1900 1101,"Quốc lộ 2A, thôn Vật Cách, xã Đồng Cương, huyện Yên Lạc, Vĩnh Phúc",Peugeot,Vĩnh Phúc
PEUGEOT Điện Biên,Hotline 1900 1101,"446 Nguyễn Hữu Thọ, Tổ dân phố 7, Thanh Bình, Điện Biên Phủ, Điện Biên",Peugeot,Điện Biên
MG Cầu Giấy,Hotline 1800 3366,"Số 171 Xuân Thủy, Dịch Vọng Hậu, Cầu Giấy, Hà Nội",MG,Hà Nội
MG Hải Phòng,Hotline 1800 3366,"Tổ dân phố Trung Hành 8, Đằng Lâm, Hải An, Hải Phòng",MG,Hải Phòng
MG Lào Cai,Hotline 1800 3366,"113 Đường Nhạc Sơn, Phường Cốc Lếu, Tp. Lào Cai",MG,Lào Cai
MG Lê Văn Lương,Hotline 1800 3366,"Khu TMDV 02, Tầng 1, Toà CT01, Khuất Duy Tiến, Thanh Xuân, Hà Nội",MG,Hà Nội
MG Long Biên,Hotline 1800 3366,"Số 3-5 Nguyễn Văn Linh, Gia Thụy, Long Biên, Hà Nội",MG,Hà Nội
MG Mỹ Đình,Hotline 1800 3366,"CT5 - Toà nhà MHDI Lê Đức Thọ, Phường Mỹ Đình 2, Nam Từ Liêm, Hà Nội",MG,Hà Nội
MG Mỹ Đình - CN Hải Dương,Hotline 1800 3366,"262 Ngô Quyền, Tân Bình, TP Hải Dương",MG,Hải Dương
MG Phú Thọ,Hotline 0913 511 686,"547 Đại lộ Hùng Vương, Phường Bến Gót, Tp. Việt Trì, Phú Thọ",MG,Phú Thọ
MG Quảng Ninh,Hotline 1800 3366,"Ô đất số 83 QH khu định cư Đông Ga, P. Giếng Đáy, Hạ Long, Quảng Ninh",MG,Quảng Ninh
MG Thái Bình,Hotline 1800 3366,"Số 318 Phố Lý Bôn, Phường Tiền Phong, Tp. Thái Bình",MG,Thái Bình
MG Thái Nguyên,Hotline 1800 3366,"Số 68A Cách Mạng Tháng Tám, Phường Cam Giá, Tp Thái Nguyên",MG,Thái Nguyên
MG Trần Khát Chân,Hotline 1800 3366,"Số 434 Trần Khát Chân, Phố Huế, Hai Bà Trưng, Hà Nội",MG,Hà Nội
MG Vĩnh Phúc,Hotline 1800 3366,"Km 27, Quốc lộ 2, Quất Lưu, Bình Xuyên, Vĩnh Phúc",MG,Vĩnh Phúc
MG Yên Bái,Hotline 1800 3366,"Km3+250 xã Tân Thịnh, Tp Yên Bái",MG,Yên Bái
BMW Bắc Giang,Hotline 1900 1101,"Quốc lộ 1A, Thôn Riễu, Xã Dĩnh Trì, Tp. Bắc Giang",BMW,Bắc Giang
BMW Bắc Ninh,Hotline 1900 1101,"Số 1, Đường Lê Thái Tổ (Vòng Xuyến Hòa Đình), Phường Võ Cường, Tp. Bắc Ninh",BMW,Bắc Ninh
BMW Giải Phóng,Hotline 1900 1101,"Số 5 Ngọc Hồi, Quận Hoàng Mai, Hà Nội",BMW,Hà Nội
BMW Hải Phòng,Hotline 1900 1101,"Số 08 Nguyễn Trãi, Phường Máy Tơ, Quận Ngô Quyền, Tp. Hải Phòng",BMW,Hải Phòng
BMW Lào Cai,Hotline 1900 1101,"Lô số DV 25, Đường Trần Hưng Đạo, Phường Bắc Cường, Tp. Lào Cai",BMW,Lào Cai
BMW Lê Duẩn,Hotline 1900 1101,"132 Lê Duẩn, Quận Hai Bà Trưng, Hà Nội",BMW,Hà Nội
BMW Lê Văn Lương,Hotline 1900 1101,"68 Lê Văn Lương, Quận Thanh Xuân, Hà Nội",BMW,Hà Nội
BMW Long Biên,Hotline 1900 1101,"Số 1 Ngô Gia Tự, Quận Long Biên, Hà Nội",BMW,Hà Nội
BMW Phú Thọ,Hotline 1900 1101,"Tổ 52, Khu 12, Đường Nguyễn Tất Thành, Thanh Miếu, Việt Trì, Phú Thọ",BMW,Phú Thọ
BMW Quảng Ninh,Hotline 1900 1101,"Km 103, QL18A, Hà Khẩu, Hạ Long, Quảng Ninh",BMW,Quảng Ninh
BMW Thái Bình,Hotline 1900 1101,"QL10 Thôn Huyền Sỹ, Xã Minh Quang, Huyện Vũ Thư, Thái Bình",BMW,Thái Bình
BMW Vĩnh Phúc,Hotline 1900 1101,"Xóm Phổ, Quất Lưu, Bình Xuyên, Vĩnh Phúc",BMW,Vĩnh Phúc
Mercedes-Benz Andu Hải Phòng,Hotline 1800 400 110,"Số 12 Đường Hà Nội, Quán Toan, Hồng Bàng, Hải Phòng",Mercedes Benz,Hải Phòng
Mercedes-Benz Andu Phạm Hùng,Hotline 1800 400 110,"Số 11 Đường Phạm Hùng, Phường Mỹ Đình 2, Quận Nam Từ Liêm, Hà Nội ",Mercedes Benz,Hà Nội
Mercedes-Benz Andu Quảng Ninh,Hotline 1800 400 110,"Đường Trần Phú, Phường Hà Khánh, Tp. Hạ Long, Quảng Ninh",Mercedes Benz,Quảng Ninh
Mercedes-Benz Haxaco Kim Giang,Hotline 1800 400 110,"256 Kim Giang, Phường Đại Kim, Quận Hoàng Mai, Hà Nội",Mercedes Benz,Hà Nội
Mercedes-Benz Haxaco Láng Hạ,Hotline 1800 400 110,"46 Láng Hạ, Phường Láng Hạ, Quận Đống Đa, Hà Nội",Mercedes Benz,Hà Nội
Mercedes-Benz Thái Nguyên,Hotline 1800 400 110,"Đường CMT8, Tổ 3, Phường Cam Giá, Tp. Thái Nguyên",Mercedes Benz,Thái Nguyên
Mercedes-Benz Vietnam Star Hoàn Kiếm,Hotline 1800 400 110,"Số 5 Lê Thánh Tông, Phan Chu Trinh, Hoàn Kiếm, Hà Nội",Mercedes Benz,Hà Nội
Mercedes-Benz Vietnam Star Ngô Quyền,Hotline 1800 400 110,"Số 2 Ngô Quyền, Phường Lý Thái Tổ, Quận Hoàn Kiếm, Hà Nội",Mercedes Benz,Hà Nội
Mercedes-Benz Vietnam Star Đài Tư,Hotline 1800 400 110,"Lô D5-1, KCN Hà Nội - Đài Tư, Phường Phúc Lợi, Quận Long Biên, Hà Nội",Mercedes Benz,Hà Nội
Subaru Giải Phóng,Hotline 1800 64 68 15,"Số 805 Giải Phóng, Phường Giáp Bát, Quận Hoàng Mai, Hà Nội",Subaru,Hà Nội
Subaru Hà Nội,Hotline 1800 64 68 15,"Số 1 Mạc Thái Tông, Trung Hòa, Cầu Giấy, Hà Nội",Subaru,Hà Nội
Subaru Long Biên,Hotline 1800 64 68 15,"Số 03-05 Nguyễn Văn Linh, Lô số 9, Gia Thụy, Long Biên, Hà Nội",Subaru,Hà Nội
Subaru Thăng Long,Hotline 1800 64 68 15,"Số 26 Phạm Văn Đồng, Phường Xuân Đỉnh, Bắc Từ Liêm, Hà Nội",Subaru,Hà Nội
Subaru Velas Hải Phòng,Hotline 1800 64 68 15,"Số 75 Đường 5, Sở Dầu, Hồng Bàng, Hải Phòng",Subaru,Hải Phòng
MINI Bắc Giang,Hotline 1900 1101,"Quốc lộ 1A, Thôn Riễu, Xã Dĩnh Trì, Tp. Bắc Giang",MINI Cooper,Bắc Giang
MINI Bắc Ninh,Hotline 1900 1101,"01 Lê Thái Tổ, Hòa Đình, Phường Võ Cường, TP. Bắc Ninh",MINI Cooper,Bắc Ninh
MINI Hải Phòng,Hotline 1900 1101,"08 Nguyễn Trãi, Máy Tơ, Ngô Quyền, Hải Phòng",MINI Cooper,Hải Phòng
MINI Lê Duẩn,Hotline 1900 1101,"Tầng 2, số 132 Lê Duẩn, Nguyễn Du, Hai Bà Trưng, Hà Nội",MINI Cooper,Hà Nội
MINI Lê Văn Lương,Hotline 1900 1101,"68 Lê Văn Lương, Quận Thanh Xuân, Hà Nội",MINI Cooper,Hà Nội
MINI Long Biên ,Hotline 1900 1101,"Số 01 Ngô Gia Tự, Quận Long Biên, Hà Nội",MINI Cooper,Hà Nội
MINI Quảng Ninh,Hotline 1900 1101,"Km 103, QL18A, Hà Khẩu, Hạ Long, Quảng Ninh",MINI Cooper,Quảng Ninh
Lexus Thăng Long,Hotline 1800 588 886,"Ngã tư Phạm Hùng và Dương Đình Nghệ, Mỹ Đình 1, Nam Từ Liêm, Hà Nội",Lexus,Hà Nội
Audi Hà Nội,Hotline 1800 888 861,"Số 8 Phạm Hùng, Mễ Trì, Nam Từ Liêm, Hà Nội",Audi,Hà Nội
Skoda Bắc Giang,Hotline 1900 599 868,"Bắc Giang, Việt Nam",Skoda,Hà Nội
Skoda Bắc Ninh,Hotline 1900 599 868,"Bắc Ninh, Việt Nam",Skoda,Hà Nội
Skoda Hải Dương,Hotline 1900 599 868,"Hải Dương, Việt Nam",Skoda,Hà Nội
Skoda Hải Phòng,Hotline 1900 599 868,"Hải Phòng, Việt Nam",Skoda,Hà Nội
Skoda Hưng Yên,Hotline 1900 599 868,"Hưng Yên, Việt Nam",Skoda,Hà Nội
Skoda Lạng Sơn,Hotline 1900 599 868,"Lạng Sơn, Việt Nam",Skoda,Hà Nội
Skoda Lào Cai,Hotline 1900 599 868,"Lào Cai, Việt Nam",Skoda,Hà Nội
Skoda Nam Định,Hotline 1900 599 868,"Nam Định, Việt Nam",Skoda,Hà Nội
Skoda Phú Thọ,Hotline 1900 599 868,"Phú Thọ, Việt Nam",Skoda,Hà Nội
Skoda Quảng Ninh,Hotline 1900 599 868,"Quảng Ninh, Việt Nam",Skoda,Hà Nội
Skoda Thái Bình,Hotline 1900 599 868,"Thái Bình, Việt Nam",Skoda,Hà Nội
Skoda Thái Nguyên,Hotline 1900 599 868,"Thái Nguyên, Việt Nam",Skoda,Hà Nội
Skoda Thăng Long,Hotline 1900 599 868,"Số 19 Lê Văn Lương, Trung Hòa, Cầu Giấy, Hà Nội",Skoda,Hà Nội
Land Rover Hà Nội,Hotline 0981 211 919,"166 Khuất Duy Tiến, Phường Nhân Chính, Quận Thanh Xuân, Hà Nội",Land Rover,Hà Nội
Volvo Car Hà Nội,Hotline 1800 58 58 34,"7-9 Nguyễn Văn Linh, Long Biên, Hà Nội",Volvo,Hà Nội
Jaguar Hà Nội,Hotline 0981 211 919,"166 Khuất Duy Tiến, Phường Nhân Chính, Quận Thanh Xuân, Hà Nội",Jaguar,Hà Nội
Bentley Hà Nội ,Hotline 0369 38 8888,"Số 3-5 Nguyễn Văn Linh, Phường Gia Thụy, Quận Long Biên, Hà Nội",Bentley,Hà Nội
Porsche Hà Nội,Hotline 024 62888 911,"562 Nguyễn Văn Cừ, Gia Thụy, Long Biên, Hà Nội",Porsche,Hà Nội
Porsche Studio Hà Nội,Hotline 024 3 2239 911,"Tầng 1, Tháp 1, Capital Place, 29 Liễu Giai, Ba Đình, Hà Nội",Porsche,Hà Nội
GWM Hòa Bình,Hotline 0906.222.346,"Hòa Bình, Việt Nam",Great Wall Motor,Hà Nội
GWM Long Biên,Hotline 0906.222.346,"262 Cổ Linh, Thạch Bàn, Long Biên, Hà Nội",Great Wall Motor,Hà Nội
GWM Quảng Ninh,Hotline 0906.222.346,"Quảng Ninh, Việt Nam",Great Wall Motor,Hà Nội
GWM Sóc Sơn,Hotline 0906.222.346,"Tổ 8 , Thị Trấn Sóc Sơn, Sóc Sơn, Hà Nội",Great Wall Motor,Hà Nội
GWM Võ Chí Công,Hotline 0906.222.346,"212 Võ Chí Công, Xuân La, Tây Hồ, Hà Nội",Great Wall Motor,Hà Nội
Hongqi Hà Nội,Hotline 0837.668.668,"378 Ngô Gia Tự, Long Biên, Hà Nội",Hongqi (Hồng Kỳ),Hà Nội
Hongqi Hải Phòng,Hotline 0837.668.668,"68 Phạm Văn Đồng, Dương Kinh, Hải Phòng",Hongqi (Hồng Kỳ),Hải Phòng
Aston Martin Hà Nội,Hotline 0969 58 7070,"Số 3 & 5 Đường Nguyễn Văn Linh, Gia Thụy, Long Biên, Hà Nội",Aston Martin,Hà Nội
Maserati Hà Nội,Hotline 098 155 22 55,"18 Lê Phụng Hiểu, Hoàn Kiếm, Hà Nội",Maserati,Hà Nội
Haima Hà Nội,Hotline 0826.292.299,"85 Vũ Trọng Phụng, Thanh Xuân Trung, Thanh Xuân, Hà Nội",Haima,Hà Nội
Haima Hải Dương,Hotline 0826.292.299,"Quốc Lộ 5, KCN Lai Cách, Cẩm Giàng, Hải Dương",Haima,Hải Dương
Isuzu An ViệtTruck & Bus,Hotline 0283 895 9203,"Km 10 Quốc lộ 1A, Xã Vĩnh Quỳnh, Huyện Thanh Trì, Hà Nội",Isuzu,Hà Nội
Isuzu BNN,Hotline 0283 895 9203,"Km29+500 Đại Lộ Thăng Long, Xã Thạch Hòa, Huyện Thạch Thất, Hà Nội",Isuzu,Hà Nội
Isuzu Hùng PhượngTruck & Bus,Hotline 0283 895 9203,"Thôn Riễu, Xã Dĩnh Trì, Thành Phố Bắc Giang",Isuzu,Bắc Giang
Isuzu NisuTruck & Bus,Hotline 0283 895 9203,"Số 449 Nguyễn Văn Linh, Phúc Đồng, Long Biên, Hà Nội",Isuzu,Hà Nội
Isuzu Nisu - Hưng YênTruck & Bus,Hotline 0283 895 9203,"Km7, Quốc Lộ 39A, Trung Hưng, Yên Mỹ, Hưng Yên",Isuzu,Hưng Yên
Isuzu Thăng LongTruck & Bus,Hotline 0283 895 9203,"Km 6 Đường Võ Văn Kiệt, Nam Hồng, Đông Anh, Hà Nội",Isuzu,Hà Nội
Isuzu Việt Hải,Hotline 0283 895 9203,"938 Quang Trung, Phường Yên Nghĩa, Quận Hà Đông, Hà Nội",Isuzu,Hà Nội
Isuzu Việt PhátTruck & Bus,Hotline 0283 895 9203,"Số 8 Quốc lộ 5, Hùng Vương, Hồng Bàng, Hải Phòng",Isuzu,Hải Phòng
TMT Hà ĐôngTruck & Bus,Hotline 1900 5454 62,"Số 1105, Do Lộ Yên Nghĩa, Quận Hà Đông, Hà Nội",TMT,Hà Nội
TMT HBC Bình MinhTruck & Bus,Hotline 1900 5454 62,"Khu 4, Xã Phù Ninh, Huyện Phù Ninh, Tỉnh Phú Thọ",TMT,Phú Thọ
TMT HBM Hùng Vương - CN Hà GiangTruck & Bus,Hotline 1900 5454 62,"Thôn Cầu Mè, Phường Phương Thiện, TP Hà Giang, Tỉnh Hà Giang",TMT,Hà Giang
TMT HBM Hùng Vương - CN Lai ChâuTruck & Bus,Hotline 1900 5454 62,"Tổ 1, Phường Tân Long, Tp. Lai Châu, Tỉnh Lai Châu",TMT,Lai Châu
TMT HBM Hùng Vương - CN Tuyên QuangTruck & Bus,Hotline 1900 5454 62,"Km9, Thôn Tân Hải Thành, Xã Thái Long, TP Tuyên Quang, Tỉnh Tuyên Quang",TMT,Tuyên Quang
TMT Hiền TuyếtTruck & Bus,Hotline 1900 5454 62,"Km 14+260 QL 1A, Tp Lạng Sơn, Tỉnh Lạng Sơn ",TMT,Lạng Sơn
TMT Hoàng HàTruck & Bus,Hotline 1900 5454 62,"368 Lý Bôn, Tiền Phong, Tp Thái Bình",TMT,Thái Bình
TMT Hưng YênTruck & Bus,Hotline 1900 5454 62,"Số 58 Nguyễn Văn Linh, Phường An Tảo, Tp. Hưng Yên",TMT,Hưng Yên
TMT Hưng Yên - CN Văn LâmTruck & Bus,Hotline 1900 5454 62,"Thôn Tuấn Dị, Xã Trưng Trắc, Huyện Văn Lâm, Tỉnh Hưng Yên",TMT,Hưng Yên
TMT Hữu NghịTruck & Bus,Hotline 1900 5454 62,"Tổ 6, Thị trấn Yên Bình, Huyện Yên Bình, Tỉnh Yên Bái",TMT,Yên Bái
TMT KMT Quảng NinhTruck & Bus,Hotline 1900 5454 62,"Khu Nam Ga Hạ Long, Giếng Đáy, Hạ Long, Quảng Ninh",TMT,Quảng Ninh
TMT Long BiênTruck & Bus,Hotline 1900 5454 62,"Số 55 Nguyễn Văn Linh, Phúc Đồng, Long Biên, Hà Nội",TMT,Hà Nội
TMT Ninh BìnhTruck & Bus,Hotline 1900 5454 62,"SN 568 Thiên Quang, Tân Bình, Tam Điệp, Ninh Bình",TMT,Ninh Bình
TMT Phú NghĩaTruck & Bus,Hotline 1900 5454 62,"Km24, quốc lộ 6a, khu công nghiệp Phú Nghĩa, Chương Mỹ, Hà Nội",TMT,Hà Nội
TMT Phương KhángTruck & Bus,Hotline 1900 5454 62,"Tổ 3, Cách mạng tháng 8, Cam Giá, Tp Thái Nguyên",TMT,Thái Nguyên
TMT Quang TuấnTruck & Bus,Hotline 1900 5454 62,"Khu D3, cụm CN Dĩnh Kế, Tp Bắc Giang",TMT,Bắc Giang
TMT Quang VinhTruck & Bus,Hotline 1900 5454 62,"Đường Nguyễn Tất Thành, Phường Tích Sơn, Tp Vĩnh Yên, Tỉnh Vĩnh Phúc",TMT,Vĩnh Phúc
TMT Sơn Hưng TrungTruck & Bus,Hotline 1900 5454 62,"Km 9, Quốc lộ 6 Sơn La - Hà Nội, Lê Duẩn, Chiềng Sinh, Tp Sơn La",TMT,Sơn La
TMT Tây ĐôTruck & Bus,Hotline 1900 5454 62,"KM46+300 quốc lộ 5, TP Hải Dương (đối diện khu công nghiệp Đại An)",TMT,Hà Nội
TMT TMP Hải PhòngTruck & Bus,Hotline 1900 5454 62,"Số 242A, Đường 5 mới, Khu quỳnh Cư, Hùng Vương, Hồng Bàng, Hải Phòng",TMT,Hải Phòng
TMT Trường HảiTruck & Bus,Hotline 1900 5454 62,"B4B Đại lộ Trần Hưng Đạo, Nam Cường, Tp. Lào Cai",TMT,Lào Cai
TMT Tuấn PhươngTruck & Bus,Hotline 1900 5454 62,"Mao Dộc, Phương Mao, Quế Võ, Bắc Ninh",TMT,Bắc Ninh
TMT Điên Biên PhủTruck & Bus,Hotline 1900 5454 62,"C17, Đội 5, Thanh Xương, Huyện Điện Biên, Điện Biên",TMT,Điện Biên
Wuling Bắc Giang,Hotline 1900 5454 62,"Số 1035 cụm Công nghiệp Bắc Giang, Dĩnh Kế, Bắc Giang",Wuling,Bắc Giang
Wuling Bắc Ninh,Hotline 1900 5454 62,"Số 54/9 Cụm công nghiệp Võ Cường, Phường Võ Cường, Tp. Bắc Ninh",Wuling,Bắc Ninh
Wuling Hà Nội,Hotline 1900 5454 62,"4 Tôn Thất Tùng, Trung Tự, Đống Đa, Hà Nội",Wuling,Hà Nội
Wuling Hải Dương,Hotline 1900 5454 62,"Số 51 Ngô Quyền, Phường Cẩm Thượng, Thành phố Hải Dương",Wuling,Hải Dương
Wuling Hải Phòng,Hotline 1900 5454 62,"Đường vòng Cầu Niệm, Lê Chân, Hải Phòng",Wuling,Hải Phòng
Wuling Hưng Yên,Hotline 1900 5454 62,"Số 58 Nguyễn Văn Linh, Phường An Tảo, Tp. Hưng Yên",Wuling,Hưng Yên
Wuling Long Biên,Hotline 1900 5454 62,"Nguyễn Văn Cừ, Long Biên, Hà Nội",Wuling,Hà Nội
Wuling Phú Thọ,Hotline 1900 5454 62,"Đường Trường Chinh, Phượng Lâu, Việt Trì, Phú Thọ",Wuling,Phú Thọ
Wuling Sơn La,Hotline 1900 5454 62,"Số 217 Trường Chinh, Phường Quyết Thắng, Thành Phố Sơn La",Wuling,Sơn La
Wuling Thái PhongTruck & Bus,Hotline 1800 9018," Số 79 Vườn Cam, Mễ Trì, Nam Từ Liêm, Hà Nội",Wuling,Hà Nội
Wuling Tuyên Quang,Hotline 1900 5454 62,"Tổ 15, phường Tân Hà, thành phố Tuyên Quang, Tuyên Quang",Wuling,Tuyên Quang
Thaco Bắc Giang,Hotline 0933 806 035,"Cụm Công nghiệp Dĩnh Kế, Phường Dĩnh Kế, Tp. Bắc Giang",Thaco,Bắc Giang
Thaco Bắc Kạn,Hotline 0933 806 035,"Thôn Nam Đội Thân, Xã Nông Thượng, Tp. Bắc Kạn",Thaco,Bắc Kạn
Thaco Bắc Ninh,Hotline 0933 806 035,"Đường Lê Thái Tổ, Phường Võ Cường, Tp. Bắc Ninh",Thaco,Bắc Ninh
Thaco Cao Bằng,Hotline 0933 806 035,"Xóm 3, Thôn Nam Phong, Xã Hưng Đạo, Tp. Cao Bằng",Thaco,Cao Bằng
Thaco Chí Linh,Hotline 0933 806 035,"Quốc Lộ 18, Khu Bình Giang, Phả Lại, Chí Linh, Hải Dương",Thaco,Hải Dương
Thaco Hà Nam,Hotline 0933 806 035,"Km4 QL1A, Thôn Đại Cầu, Xã Tiên Tân, Tp. Phủ Lý, Hà Nam",Thaco,Hà Nam
Thaco Hòa Bình,Hotline 0933 806 035,"Km3 Quốc lộ 6, Phố Ngọc, Xã Trung Minh, Tp. Hòa Bình",Thaco,Hòa Bình
Thaco Hưng Yên,Hotline 0933 806 035,"Ngã tư Phố Nối A, Quốc lộ 5, Xã Trưng Trắc, Huyện Văn Lâm, Hưng Yên",Thaco,Hưng Yên
Thaco Huy Long - Lào Cai,Hotline 0933 806 035,"Nút Ná Méo, Tổ 19, Phường Bình Minh, Tp. Lào Cai",Thaco,Lào Cai
Thaco Lạng Sơn,Hotline 0933 806 035,"KĐT Phía Đông, QL1A, Phường Đông Kinh, Tp. Lạng Sơn",Thaco,Lạng Sơn
Thaco Nam Định,Hotline 0933 806 035,"KM 93 Đại Lộ Thiên Trường, Phường Lộc Hòa, Tp. Nam Định",Thaco,Nam Định
Thaco Nhật Tân - Tuyên Quang,Hotline 0933 806 035,"Km9, Thôn Tân Thành 2, Xã Thái Long, Tp. Tuyên Quang",Thaco,Tuyên Quang
Thaco Phú Thọ,Hotline 0933 806 035,"Khu Đồng Đồi, Xã Thụy Vân, Tp. Việt Trì, Phú Thọ",Thaco,Phú Thọ
Thaco Phương Thuận Phát - Hà Giang,Hotline 0933 806 035,"Thôn Lâm Đồng, Xã Phương Thiện, Thành Phố Hà Giang",Thaco,Hà Giang
Thaco Quảng Ninh,Hotline 0933 806 035,"Khu đô thị Nam ga Hạ Long, Giếng Đáy, Tp. Hạ Long, Quảng Ninh",Thaco,Quảng Ninh
Thaco Sao Đỏ - Hải Dương,Hotline 0933 806 035,"Km39 Quốc Lộ 18, Phường Cộng Hoà, Tp. Chí Linh, Hải Dương",Thaco,Hải Dương
Thaco Sơn La,Hotline 0933 806 035,"Khu CN Chiềng Sinh, Xã Chiềng Sinh, Tp. Sơn La",Thaco,Sơn La
Thaco Tân Thành Thái - Thái Bình,Hotline 0933 806 035,"QL10, Xã Minh Quang, Huyện Vũ Thư, Thái Bình",Thaco,Thái Bình
Thaco Tây Nam Hà Nội - Giải Phóng,Hotline 0933 806 035,"Km10 Đường Giải Phóng, Xã Tứ Hiệp, Huyện Thanh Trì, Hà Nội",Thaco,Hà Nội
Thaco Tây Nam Hà Nội - Hà Đông,Hotline 0933 806 035,"Thôn Yên Phúc, Phường Biên Giang, Quận Hà Đông, Hà Nội",Thaco,Hà Nội
Thaco Thái Nguyên,Hotline 0933 806 035,"KCN Nguyên Gon, Phường Cải Đan, Tp. Sông Công, Thái Nguyên",Thaco,Thái Nguyên
Thaco Thái Nguyên - CN Tân Long,Hotline 0933 806 035,"Km7, Xã Sơn Cẩm, Tp. Thái Nguyên (gần đường tròn Tân Long)",Thaco,Hà Nội
Thaco Trí Lực,Hotline 0933 806 035,"Km4, Quốc Lộ 18, Hải Yên, Móng Cái, Quảng Ninh",Thaco,Quảng Ninh
Thaco Trọng Thiện,Hotline 0933 806 035,"Km27, Quốc lộ 10, Thôn 6, Bắc Sơn, An Dương, Tp. Hải Phòng",Thaco,Hải Phòng
Thaco Vina Hòa Bình - Lai Châu,Hotline 0933 806 035,"Đường Điện Biên Phủ, Tổ 8, Phường Tân Phong, Tp. Lai Châu",Thaco,Lai Châu
Thaco Vina Hòa Bình - Yên Bái,Hotline 0933 806 035,"Thị trấn Yên Bình, Huyện Yên Bình, Yên Bái",Thaco,Yên Bái
Thaco Vĩnh Phúc,Hotline 0933 806 035,"Quốc Lộ 2A, Thôn Vật Cách, Xã Đồng Cương, Huyện Yên Lạc, Vĩnh Phúc",Thaco,Vĩnh Phúc
Thaco Đại Phát - Ninh Bình,Hotline 0933 806 035,"Cụm công nghiệp Mai Sơn, Xã Mai Sơn, Huyện Yên Mô, Ninh Bình",Thaco,Ninh Bình
Thaco Đông Bắc Hà Nội - Long Biên,Hotline 0933 806 035,"Lô D6, KCN Hà Nội - Đài Tư, Số 386 Nguyễn Văn Linh, Sài Đồng, Long Biên, Hà Nội",Thaco,Hà Nội
Thaco Đông Bắc Hà Nội - Phúc Đồng,Hotline 0933 806 035,"Số 39 Nguyễn Văn Linh, Phường Phúc Đồng, Quận Long Biên, Hà Nội",Thaco,Hà Nội
Thaco Đông Bắc Hà Nội - Sóc Sơn,Hotline 0933 806 035,"Km8+800, Quốc Lộ 2, Thôn Thạch Lỗi, Xã Thanh Xuân, Sóc Sơn, Hà Nội",Thaco,Hà Nội
Thaco Đông Đô - Hải Dương,Hotline 0933 806 035,"Km46+800 Quốc lộ 5, Phường Tứ Minh, Tp. Hải Dương",Thaco,Hải Dương
Gaz Bắc Việt,Hotline 0982.469.139,"467 Nguyễn Văn Linh, Phúc Đồng, Long Biên, Hà Nội",Gaz,Hà Nội
Gaz Bạch Dương,Hotline 0982.469.139,"Số 9 Trần Nguyên Đán, KĐT Hòa Vượng, Lộc Hòa, Nam Định",Gaz,Nam Định
Gaz Hải Dương,Hotline 0982.469.139,"Km 52 + 400 Quốc Lộ 5A, khu 11, Phường Bình Hàn, Tp. Hải Dương",Gaz,Hải Dương
Gaz Ngọc Minh,Hotline 0236 363 9179,"1248 Nguyễn Bỉnh Khiêm, Đông Hải 2, Hải An, Hải Phòng",Gaz,Hải Phòng
Gaz Rusauto,Hotline 0982.469.139,"Gác 2, Bến xe Gia Lâm, 9 Ngô Gia Khảm, Gia Thụy, Long Biên, Hà Nội",Gaz,Hà Nội
Gaz Tây Đô,Hotline 0982.469.139,"883 Quang Trung, Hà Đông, Hà Nội (gần bến xe Yên Nghĩa)",Gaz,Hà Nội
Teraco Bắc Á,Hotline 0902 409 909,"Km 21, Thị trấn Đông Anh, Đông Anh, Hà Nội",Teraco,Hà Nội
Teraco Bắc Giang,Hotline 0902 409 909,"Cụm CN Dĩnh Kế, Phường Dĩnh Kế, Thành phố Bắc Giang",Teraco,Bắc Giang
Teraco Hải Dương,Hotline 0902 409 909,"Km 52 + 400 Quốc Lộ 5A, khu 11, Phường Bình Hàn, TP. Hải Dương, Hải Dương",Teraco,Hải Dương
Teraco Hải Nam,Hotline 0902 409 909,"Lô C2-4, Khu Công Nghiệp Hòa Xá, xã Lộc Hòa, TP. Nam Định, Nam Định ",Teraco,Nam Định
Teraco Hiền Nhung,Hotline 0902 409 909,"Số 2A, Đường Nguyễn Du, P. Nông Trang, TP. Việt Trì, Phú Thọ",Teraco,Phú Thọ
Teraco Hoàng Hải,Hotline 0902 409 909,"Tổ 11, Phường Tân Thịnh, TP. Thái Nguyên, Thái Nguyên",Teraco,Thái Nguyên
Teraco Huy Khánh,Hotline 0902 409 909,"Km9 + 600 Quốc lộ 2 (gần cầu Kim Anh), thôn Đồi Cốc, Thanh Xuân, Sóc Sơn, Hà Nội",Teraco,Hà Nội
Teraco Mỹ An,Hotline 0902 409 909,"Số 1 Trần Hưng Đạo, Lam Sơn, Thành Phố Hưng Yên",Teraco,Hưng Yên
Teraco Ngọc Minh,Hotline 0902 409 909,"Số 1248 Nguyễn Bỉnh Khiêm, Phường Đông Hải, Hải An, Hải Phòng",Teraco,Hải Phòng
Teraco Nhật Dương,Hotline 0902 409 909,"Quốc lộ 18, Cầu Ngà, Chu Mẫu, Phường Vân Dương, TP. Bắc Ninh, Bắc Ninh",Teraco,Bắc Ninh
Teraco Quang Minh - Hải Dương,Hotline 0902 409 909,"Km 46 + 500 Thôn Trụ, Lai Cách, Cẩm Giàng, Hải Dương",Teraco,Hải Dương
Teraco Quang Minh - Hải Phòng,Hotline 0902 409 909,"Số 1 Phạm Văn Đồng, Phường Anh Dũng, Quận Dương Kinh, Hải Phòng",Teraco,Hải Phòng
Teraco Tân Thái Bình,Hotline 0902 409 909,"24/18 Trần Bình Trọng, Tổ 26, Khu đô thị 1, Phường Trần Hưng Đạo, Tp. Thái Bình, Thái Bình",Teraco,Thái Bình
Teraco Tây Đô,Hotline 0902 409 909,"883 Quang Trung, Phú Lãm, Hà Đông, Hà Nội",Teraco,Hà Nội
Teraco Thái Bảo,Hotline 0902 409 909,"Đại Sơn, Hợp Thành, Cao Lộc, Lạng Sơn",Teraco,Lạng Sơn
Teraco Thái Phong,Hotline 0902 409 909,"Số 3 Lê Quang Đạo, Mỹ Đình, Nam Từ Liêm, Hà Nội",Teraco,Hà Nội
Teraco Thiên Trường,Hotline 0902 409 909,"Khu phố II, Đường Hoàng Văn Thái, Xã Vũ Chính, Tp. Thái Bình",Teraco,Thái Bình
Teraco Toàn Gia Phát,Hotline 0902 409 909,"Tổ dân phố Sài Phi, Phường Minh Đức, Thị xã Mỹ Hào, Tỉnh Hưng Yên, Hưng Yên",Teraco,Hưng Yên
Teraco Việt Hàn Bắc Giang,Hotline 0902 409 909,"Đầu cầu Xương Giang, Đồng Sơn, TP. Bắc Giang, Bắc Giang",Teraco,Bắc Giang
Teraco Việt Thăng Long,Hotline 0902 409 909,"Lô 3, KCN Lai Xá, Km14, QL32, Kim Chung, Hoài Đức, Hà Nội",Teraco,Hà Nội
Teraco Việt Thăng Long - CN Nam Định,Hotline 0902 409 909,"Khu phố Gôi, KCN Hòa Xá, Mỹ Xá, Tp Nam Định",Teraco,Nam Định
Teraco Đại An,Hotline 0902 409 909,"Lô số 14, đường A4 và KN2, khu công nghiệp Bắc Duyên Hải, Phường Duyên Hải, TP. Lào Cai, Lào Cai",Teraco,Lào Cai
Hino Hà Thư,Hotline 0931 612 999,"Km13, Quang Hanh, Cẩm Phả, Quảng Ninh",Hino,Quảng Ninh
Hino Lexim,Hotline 0931 612 999,"Lô 18-A2, Khu CN Đài Tư, 386 Nguyễn Văn Linh, Quận Long Biên, Hà Nội",Hino,Hà Nội
Hino Sao Bắc - CN Hưng Yên,Hotline 0931 612 999,"Km16 + 500, Quốc lộ 5, Như Quỳnh, Văn Lâm, Hưng Yên",Hino,Hưng Yên
Hino Việt Nhật,Hotline 0931 612 999,"319 Hùng Vương, Phường Quán Toan, Quận Hồng Bàng, Tp. Hải Phòng",Hino,Hải Phòng
Hino Việt Đăng,Hotline 0931 612 999,"Km số 3 Đường Phan Trọng Tuệ, Tam hiệp, Thanh Trì, Hà Nội",Hino,Hà Nội
Hino Việt Đăng - CN Sóc Sơn,Hotline 0931 612 999,"Km 9 + 400, Quốc lộ 2, Thanh Xuân, Sóc Sơn, Hà Nội",Hino,Hà Nội
Daewoo Hải Dương,Hotline 0962 752 686,"Km 34+200, KCN Hưng Thịnh, Bình Giang, Hải Dương",Daewoo,Hải Dương
Daewoo Hoàng Mai,Hotline 0962 752 686,"Km 92, QL5, Khu An Trì, Hùng Vương, Hồng Bàng, Hải Phòng",Daewoo,Hải Phòng
Daewoo Đông Nam - Chương Mỹ,Hotline 0962 752 686,"KCN Phú Nghĩa, Chương Mỹ, Hà Nội",Daewoo,Hà Nội
Daewoo Đông Nam - Mê Linh,Hotline 0962 752 686,"Km9, Đường Võ Văn Kiệt, Thị trấn Quang Minh, Mê Linh, Hà Nội",Daewoo,Hà Nội
UD Trucks Nam Hàn - Hà Nội,Hotline 0908726728," 55 Nguyễn Văn Linh, Phúc Đồng, Long Biên, Hà Nội",UD Trucks,Hà Nội
Chenglong Hải Âu,Hotline 0905 199 992,"72 Trần Đăng Ninh, Dịch Vọng, Cầu Giấy, Hà Nội",Chenglong,Hà Nội
Chenglong Hải Âu - Hưng Yên,Hotline 0905 199 992,"Quốc lộ 5, Trưng Trắc, Văn Lâm, Hưng Yên",Chenglong,Hưng Yên
Chenglong Hải Âu - Lạng Sơn,Hotline 0905 199 992,"Gần nhà máy xi măng Lạng Sơn, Phai Ruốc, Mai Pha, Lạng Sơn",Chenglong,Lạng Sơn
Chenglong Hải Âu - Thái Nguyên,Hotline 0905 199 992,"Tân Sơn, Lương Sơn, Sông Công, Thái Nguyên",Chenglong,Thái Nguyên
Chenglong Hải Âu - Vĩnh Phúc,Hotline 0905 199 992,"Cụm kinh tế Hợp Thịnh, Hợp Thịnh, Tam Đường, Vĩnh Phúc",Chenglong,Vĩnh Phúc
JAC Bắc Hải Nam,Hotline 18001711,"Số 1/92 Lê Thánh Tông, Máy Chai, Ngô Quyền, Hải Phòng",JAC,Hải Phòng
JAC Phát Đại Lâm,Hotline 18001711,"Số 22 Tân Xuân, Phường Đông Ngạc, Bắc Từ Liêm, Hà Nội",JAC,Hà Nội
JAC Quang Phát,Hotline 18001711,"QL18, Thôn Từ Phong, Xã Cách Bi, Quế Võ, Bắc Ninh",JAC,Bắc Ninh
JAC Sunquang Việt Nam,Hotline 18001711,"761 Nguyễn Văn Linh, Long Biên, Hà Nội",JAC,Hà Nội
JAC VTruck Bắc Giang,Hotline 18001711,"QL1, Thôn Riễu, Xã Dĩnh Trì, Tp Bắc Giang",JAC,Bắc Giang
JAC VTruck Hà Nam,Hotline 18001711,"Thôn La Mát , TT. Kiện Khê, H. Thanh Liêm, Hà Nam",JAC,Hà Nam
JAC VTruck Hải Phòng,Hotline 18001711,"Bãi Traco Đình Vũ, Đường 365, P. Đông Hải 2, Q. Hải An, Hải Phòng",JAC,Hải Phòng
JAC VTruck Hà Nội,Hotline 18001711,"LK38-N01, Khu A đất dịch vụ Yên Nghĩa, Yên Nghĩa, Hà Đông, Hà Nội",JAC,Hà Nội
JAC VTruck Phú Thọ,Hotline 18001711,"Khu 4, Xã Phù Ninh, Huyện Phù Ninh, Phú Thọ",JAC,Phú Thọ
JAC VTruck Sơn La,Hotline 18001711,"Đường Lê Duẩn, Bản Cang, Phường Chiềng Sinh, Tp. Sơn La",JAC,Sơn La
JAC VTruck Tây Hà Nội,Hotline 18001711,"Km23+500, Quốc Lộ 6, Khu công nghiệp Phú Nghĩa, Tiên Phương, Chương Mỹ, Hà Nội",JAC,Hà Nội
JAC VTruck Thái Nguyên,Hotline 18001711,"Xóm Đồng Xe, Xã Sơn Cẩm, Tp. Thái Nguyên",JAC,Thái Nguyên
JAC VTruck Đông Hà Nội,Hotline 18001711,"Tổ 9, Ngõ 649, Đường Lĩnh Nam, Hoàng Mai, Hà Nội",JAC,Hà Nội
Thaco Bắc Giang,Hotline 0933 806 035,"Cụm Công nghiệp Dĩnh Kế, Phường Dĩnh Kế, Tp. Bắc Giang",Fuso,Bắc Giang
Thaco Bắc Kạn,Hotline 0933 806 035,"Thôn Nam Đội Thân, Xã Nông Thượng, Tp. Bắc Kạn",Fuso,Bắc Kạn
Thaco Bắc Ninh,Hotline 0933 806 035,"Đường Lê Thái Tổ, Phường Võ Cường, Tp. Bắc Ninh",Fuso,Bắc Ninh
Thaco Cao Bằng,Hotline 0933 806 035,"Xóm 3, Thôn Nam Phong, Xã Hưng Đạo, Tp. Cao Bằng",Fuso,Cao Bằng
Thaco Chí Linh,Hotline 0933 806 035,"Quốc Lộ 18, Khu Bình Giang, Phả Lại, Chí Linh, Hải Dương",Fuso,Hải Dương
Thaco Hà Nam,Hotline 0933 806 035,"Km4 QL1A, Thôn Đại Cầu, Xã Tiên Tân, Tp. Phủ Lý, Hà Nam",Fuso,Hà Nam
Thaco Hòa Bình,Hotline 0933 806 035,"Km3 Quốc lộ 6, Phố Ngọc, Xã Trung Minh, Tp. Hòa Bình",Fuso,Hòa Bình
Thaco Hưng Yên,Hotline 0933 806 035,"Ngã tư Phố Nối A, Quốc lộ 5, Xã Trưng Trắc, Huyện Văn Lâm, Hưng Yên",Fuso,Hưng Yên
Thaco Huy Long - Lào Cai,Hotline 0933 806 035,"Nút Ná Méo, Tổ 19, Phường Bình Minh, Tp. Lào Cai",Fuso,Lào Cai
Thaco Lạng Sơn,Hotline 0933 806 035,"KĐT Phía Đông, QL1A, Phường Đông Kinh, Tp. Lạng Sơn",Fuso,Lạng Sơn
Thaco Nam Định,Hotline 0933 806 035,"KM 93 Đại Lộ Thiên Trường, Phường Lộc Hòa, Tp. Nam Định",Fuso,Nam Định
Thaco Nhật Tân - Tuyên Quang,Hotline 0933 806 035,"Km9, Thôn Tân Thành 2, Xã Thái Long, Tp. Tuyên Quang",Fuso,Tuyên Quang
Thaco Phú Thọ,Hotline 0933 806 035,"Khu Đồng Đồi, Xã Thụy Vân, Tp. Việt Trì, Phú Thọ",Fuso,Phú Thọ
Thaco Phương Thuận Phát - Hà Giang,Hotline 0933 806 035,"Thôn Lâm Đồng, Xã Phương Thiện, Thành Phố Hà Giang",Fuso,Hà Giang
Thaco Quảng Ninh,Hotline 0933 806 035,"Khu đô thị Nam ga Hạ Long, Giếng Đáy, Tp. Hạ Long, Quảng Ninh",Fuso,Quảng Ninh
Thaco Sao Đỏ - Hải Dương,Hotline 0933 806 035,"Km39 Quốc Lộ 18, Phường Cộng Hoà, Tp. Chí Linh, Hải Dương",Fuso,Hải Dương
Thaco Sơn La,Hotline 0933 806 035,"Khu CN Chiềng Sinh, Xã Chiềng Sinh, Tp. Sơn La",Fuso,Sơn La
Thaco Tân Thành Thái - Thái Bình,Hotline 0933 806 035,"QL10, Xã Minh Quang, Huyện Vũ Thư, Thái Bình",Fuso,Thái Bình
Thaco Tây Nam Hà Nội - Giải Phóng,Hotline 0933 806 035,"Km10 Đường Giải Phóng, Xã Tứ Hiệp, Huyện Thanh Trì, Hà Nội",Fuso,Hà Nội
Thaco Tây Nam Hà Nội - Hà Đông,Hotline 0933 806 035,"Thôn Yên Phúc, Phường Biên Giang, Quận Hà Đông, Hà Nội",Fuso,Hà Nội
Thaco Thái Nguyên,Hotline 0933 806 035,"KCN Nguyên Gon, Phường Cải Đan, Tp. Sông Công, Thái Nguyên",Fuso,Thái Nguyên
Thaco Thái Nguyên - CN Tân Long,Hotline 0933 806 035,"Km7, Xã Sơn Cẩm, Tp. Thái Nguyên (gần đường tròn Tân Long)",Fuso,Hà Nội
Thaco Trí Lực,Hotline 0933 806 035,"Km4, Quốc Lộ 18, Hải Yên, Móng Cái, Quảng Ninh",Fuso,Quảng Ninh
Thaco Trọng Thiện,Hotline 0933 806 035,"Km27, Quốc lộ 10, Thôn 6, Bắc Sơn, An Dương, Tp. Hải Phòng",Fuso,Hải Phòng
Thaco Vina Hòa Bình - Lai Châu,Hotline 0933 806 035,"Đường Điện Biên Phủ, Tổ 8, Phường Tân Phong, Tp. Lai Châu",Fuso,Lai Châu
Thaco Vina Hòa Bình - Yên Bái,Hotline 0933 806 035,"Thị trấn Yên Bình, Huyện Yên Bình, Yên Bái",Fuso,Yên Bái
Thaco Vĩnh Phúc,Hotline 0933 806 035,"Quốc Lộ 2A, Thôn Vật Cách, Xã Đồng Cương, Huyện Yên Lạc, Vĩnh Phúc",Fuso,Vĩnh Phúc
Thaco Đại Phát - Ninh Bình,Hotline 0933 806 035,"Cụm công nghiệp Mai Sơn, Xã Mai Sơn, Huyện Yên Mô, Ninh Bình",Fuso,Ninh Bình
Thaco Đông Bắc Hà Nội - Long Biên,Hotline 0933 806 035,"Lô D6, KCN Hà Nội - Đài Tư, Số 386 Nguyễn Văn Linh, Sài Đồng, Long Biên, Hà Nội",Fuso,Hà Nội
Thaco Đông Bắc Hà Nội - Phúc Đồng,Hotline 0933 806 035,"Số 39 Nguyễn Văn Linh, Phường Phúc Đồng, Quận Long Biên, Hà Nội",Fuso,Hà Nội
Thaco Đông Bắc Hà Nội - Sóc Sơn,Hotline 0933 806 035,"Km8+800, Quốc Lộ 2, Thôn Thạch Lỗi, Xã Thanh Xuân, Sóc Sơn, Hà Nội",Fuso,Hà Nội
Thaco Đông Đô - Hải Dương,Hotline 0933 806 035,"Km46+800 Quốc lộ 5, Phường Tứ Minh, Tp. Hải Dương",Fuso,Hải Dương
Thaco Bắc Giang,Hotline 0933 806 035,"Cụm Công nghiệp Dĩnh Kế, Phường Dĩnh Kế, Tp. Bắc Giang",Foton,Bắc Giang
Thaco Bắc Kạn,Hotline 0933 806 035,"Thôn Nam Đội Thân, Xã Nông Thượng, Tp. Bắc Kạn",Foton,Bắc Kạn
Thaco Bắc Ninh,Hotline 0933 806 035,"Đường Lê Thái Tổ, Phường Võ Cường, Tp. Bắc Ninh",Foton,Bắc Ninh
Thaco Cao Bằng,Hotline 0933 806 035,"Xóm 3, Thôn Nam Phong, Xã Hưng Đạo, Tp. Cao Bằng",Foton,Cao Bằng
Thaco Chí Linh,Hotline 0933 806 035,"Quốc Lộ 18, Khu Bình Giang, Phả Lại, Chí Linh, Hải Dương",Foton,Hải Dương
Thaco Hà Nam,Hotline 0933 806 035,"Km4 QL1A, Thôn Đại Cầu, Xã Tiên Tân, Tp. Phủ Lý, Hà Nam",Foton,Hà Nam
Thaco Hòa Bình,Hotline 0933 806 035,"Km3 Quốc lộ 6, Phố Ngọc, Xã Trung Minh, Tp. Hòa Bình",Foton,Hòa Bình
Thaco Hưng Yên,Hotline 0933 806 035,"Ngã tư Phố Nối A, Quốc lộ 5, Xã Trưng Trắc, Huyện Văn Lâm, Hưng Yên",Foton,Hưng Yên
Thaco Huy Long - Lào Cai,Hotline 0933 806 035,"Nút Ná Méo, Tổ 19, Phường Bình Minh, Tp. Lào Cai",Foton,Lào Cai
Thaco Lạng Sơn,Hotline 0933 806 035,"KĐT Phía Đông, QL1A, Phường Đông Kinh, Tp. Lạng Sơn",Foton,Lạng Sơn
Thaco Nam Định,Hotline 0933 806 035,"KM 93 Đại Lộ Thiên Trường, Phường Lộc Hòa, Tp. Nam Định",Foton,Nam Định
Thaco Nhật Tân - Tuyên Quang,Hotline 0933 806 035,"Km9, Thôn Tân Thành 2, Xã Thái Long, Tp. Tuyên Quang",Foton,Tuyên Quang
Thaco Phú Thọ,Hotline 0933 806 035,"Khu Đồng Đồi, Xã Thụy Vân, Tp. Việt Trì, Phú Thọ",Foton,Phú Thọ
Thaco Phương Thuận Phát - Hà Giang,Hotline 0933 806 035,"Thôn Lâm Đồng, Xã Phương Thiện, Thành Phố Hà Giang",Foton,Hà Giang
Thaco Quảng Ninh,Hotline 0933 806 035,"Khu đô thị Nam ga Hạ Long, Giếng Đáy, Tp. Hạ Long, Quảng Ninh",Foton,Quảng Ninh
Thaco Sao Đỏ - Hải Dương,Hotline 0933 806 035,"Km39 Quốc Lộ 18, Phường Cộng Hoà, Tp. Chí Linh, Hải Dương",Foton,Hải Dương
Thaco Sơn La,Hotline 0933 806 035,"Khu CN Chiềng Sinh, Xã Chiềng Sinh, Tp. Sơn La",Foton,Sơn La
Thaco Tân Thành Thái - Thái Bình,Hotline 0933 806 035,"QL10, Xã Minh Quang, Huyện Vũ Thư, Thái Bình",Foton,Thái Bình
Thaco Tây Nam Hà Nội - Giải Phóng,Hotline 0933 806 035,"Km10 Đường Giải Phóng, Xã Tứ Hiệp, Huyện Thanh Trì, Hà Nội",Foton,Hà Nội
Thaco Tây Nam Hà Nội - Hà Đông,Hotline 0933 806 035,"Thôn Yên Phúc, Phường Biên Giang, Quận Hà Đông, Hà Nội",Foton,Hà Nội
Thaco Thái Nguyên,Hotline 0933 806 035,"KCN Nguyên Gon, Phường Cải Đan, Tp. Sông Công, Thái Nguyên",Foton,Thái Nguyên
Thaco Thái Nguyên - CN Tân Long,Hotline 0933 806 035,"Km7, Xã Sơn Cẩm, Tp. Thái Nguyên (gần đường tròn Tân Long)",Foton,Hà Nội
Thaco Trí Lực,Hotline 0933 806 035,"Km4, Quốc Lộ 18, Hải Yên, Móng Cái, Quảng Ninh",Foton,Quảng Ninh
Thaco Trọng Thiện,Hotline 0933 806 035,"Km27, Quốc lộ 10, Thôn 6, Bắc Sơn, An Dương, Tp. Hải Phòng",Foton,Hải Phòng
Thaco Vina Hòa Bình - Lai Châu,Hotline 0933 806 035,"Đường Điện Biên Phủ, Tổ 8, Phường Tân Phong, Tp. Lai Châu",Foton,Lai Châu
Thaco Vina Hòa Bình - Yên Bái,Hotline 0933 806 035,"Thị trấn Yên Bình, Huyện Yên Bình, Yên Bái",Foton,Yên Bái
Thaco Vĩnh Phúc,Hotline 0933 806 035,"Quốc Lộ 2A, Thôn Vật Cách, Xã Đồng Cương, Huyện Yên Lạc, Vĩnh Phúc",Foton,Vĩnh Phúc
Thaco Đại Phát - Ninh Bình,Hotline 0933 806 035,"Cụm công nghiệp Mai Sơn, Xã Mai Sơn, Huyện Yên Mô, Ninh Bình",Foton,Ninh Bình
Thaco Đông Bắc Hà Nội - Long Biên,Hotline 0933 806 035,"Lô D6, KCN Hà Nội - Đài Tư, Số 386 Nguyễn Văn Linh, Sài Đồng, Long Biên, Hà Nội",Foton,Hà Nội
Thaco Đông Bắc Hà Nội - Phúc Đồng,Hotline 0933 806 035,"Số 39 Nguyễn Văn Linh, Phường Phúc Đồng, Quận Long Biên, Hà Nội",Foton,Hà Nội
Thaco Đông Bắc Hà Nội - Sóc Sơn,Hotline 0933 806 035,"Km8+800, Quốc Lộ 2, Thôn Thạch Lỗi, Xã Thanh Xuân, Sóc Sơn, Hà Nội",Foton,Hà Nội
Thaco Đông Đô - Hải Dương,Hotline 0933 806 035,"Km46+800 Quốc lộ 5, Phường Tứ Minh, Tp. Hải Dương",Foton,Hải Dương
Thaco Bắc Giang,Hotline 0933 806 035,"Cụm Công nghiệp Dĩnh Kế, Phường Dĩnh Kế, Tp. Bắc Giang",Iveco,Bắc Giang
Thaco Bắc Kạn,Hotline 0933 806 035,"Thôn Nam Đội Thân, Xã Nông Thượng, Tp. Bắc Kạn",Iveco,Bắc Kạn
Thaco Bắc Ninh,Hotline 0933 806 035,"Đường Lê Thái Tổ, Phường Võ Cường, Tp. Bắc Ninh",Iveco,Bắc Ninh
Thaco Cao Bằng,Hotline 0933 806 035,"Xóm 3, Thôn Nam Phong, Xã Hưng Đạo, Tp. Cao Bằng",Iveco,Cao Bằng
Thaco Chí Linh,Hotline 0933 806 035,"Quốc Lộ 18, Khu Bình Giang, Phả Lại, Chí Linh, Hải Dương",Iveco,Hải Dương
Thaco Hà Nam,Hotline 0933 806 035,"Km4 QL1A, Thôn Đại Cầu, Xã Tiên Tân, Tp. Phủ Lý, Hà Nam",Iveco,Hà Nam
Thaco Hòa Bình,Hotline 0933 806 035,"Km3 Quốc lộ 6, Phố Ngọc, Xã Trung Minh, Tp. Hòa Bình",Iveco,Hòa Bình
Thaco Hưng Yên,Hotline 0933 806 035,"Ngã tư Phố Nối A, Quốc lộ 5, Xã Trưng Trắc, Huyện Văn Lâm, Hưng Yên",Iveco,Hưng Yên
Thaco Huy Long - Lào Cai,Hotline 0933 806 035,"Nút Ná Méo, Tổ 19, Phường Bình Minh, Tp. Lào Cai",Iveco,Lào Cai
Thaco Lạng Sơn,Hotline 0933 806 035,"KĐT Phía Đông, QL1A, Phường Đông Kinh, Tp. Lạng Sơn",Iveco,Lạng Sơn
Thaco Nam Định,Hotline 0933 806 035,"KM 93 Đại Lộ Thiên Trường, Phường Lộc Hòa, Tp. Nam Định",Iveco,Nam Định
Thaco Nhật Tân - Tuyên Quang,Hotline 0933 806 035,"Km9, Thôn Tân Thành 2, Xã Thái Long, Tp. Tuyên Quang",Iveco,Tuyên Quang
Thaco Phú Thọ,Hotline 0933 806 035,"Khu Đồng Đồi, Xã Thụy Vân, Tp. Việt Trì, Phú Thọ",Iveco,Phú Thọ
Thaco Phương Thuận Phát - Hà Giang,Hotline 0933 806 035,"Thôn Lâm Đồng, Xã Phương Thiện, Thành Phố Hà Giang",Iveco,Hà Giang
Thaco Quảng Ninh,Hotline 0933 806 035,"Khu đô thị Nam ga Hạ Long, Giếng Đáy, Tp. Hạ Long, Quảng Ninh",Iveco,Quảng Ninh
Thaco Sao Đỏ - Hải Dương,Hotline 0933 806 035,"Km39 Quốc Lộ 18, Phường Cộng Hoà, Tp. Chí Linh, Hải Dương",Iveco,Hải Dương
Thaco Sơn La,Hotline 0933 806 035,"Khu CN Chiềng Sinh, Xã Chiềng Sinh, Tp. Sơn La",Iveco,Sơn La
Thaco Tân Thành Thái - Thái Bình,Hotline 0933 806 035,"QL10, Xã Minh Quang, Huyện Vũ Thư, Thái Bình",Iveco,Thái Bình
Thaco Tây Nam Hà Nội - Giải Phóng,Hotline 0933 806 035,"Km10 Đường Giải Phóng, Xã Tứ Hiệp, Huyện Thanh Trì, Hà Nội",Iveco,Hà Nội
Thaco Tây Nam Hà Nội - Hà Đông,Hotline 0933 806 035,"Thôn Yên Phúc, Phường Biên Giang, Quận Hà Đông, Hà Nội",Iveco,Hà Nội
Thaco Thái Nguyên,Hotline 0933 806 035,"KCN Nguyên Gon, Phường Cải Đan, Tp. Sông Công, Thái Nguyên",Iveco,Thái Nguyên
Thaco Thái Nguyên - CN Tân Long,Hotline 0933 806 035,"Km7, Xã Sơn Cẩm, Tp. Thái Nguyên (gần đường tròn Tân Long)",Iveco,Hà Nội
Thaco Trí Lực,Hotline 0933 806 035,"Km4, Quốc Lộ 18, Hải Yên, Móng Cái, Quảng Ninh",Iveco,Quảng Ninh
Thaco Trọng Thiện,Hotline 0933 806 035,"Km27, Quốc lộ 10, Thôn 6, Bắc Sơn, An Dương, Tp. Hải Phòng",Iveco,Hải Phòng
Thaco Vina Hòa Bình - Lai Châu,Hotline 0933 806 035,"Đường Điện Biên Phủ, Tổ 8, Phường Tân Phong, Tp. Lai Châu",Iveco,Lai Châu
Thaco Vina Hòa Bình - Yên Bái,Hotline 0933 806 035,"Thị trấn Yên Bình, Huyện Yên Bình, Yên Bái",Iveco,Yên Bái
Thaco Vĩnh Phúc,Hotline 0933 806 035,"Quốc Lộ 2A, Thôn Vật Cách, Xã Đồng Cương, Huyện Yên Lạc, Vĩnh Phúc",Iveco,Vĩnh Phúc
Thaco Đại Phát - Ninh Bình,Hotline 0933 806 035,"Cụm công nghiệp Mai Sơn, Xã Mai Sơn, Huyện Yên Mô, Ninh Bình",Iveco,Ninh Bình
Thaco Đông Bắc Hà Nội - Long Biên,Hotline 0933 806 035,"Lô D6, KCN Hà Nội - Đài Tư, Số 386 Nguyễn Văn Linh, Sài Đồng, Long Biên, Hà Nội",Iveco,Hà Nội
Thaco Đông Bắc Hà Nội - Phúc Đồng,Hotline 0933 806 035,"Số 39 Nguyễn Văn Linh, Phường Phúc Đồng, Quận Long Biên, Hà Nội",Iveco,Hà Nội
Thaco Đông Bắc Hà Nội - Sóc Sơn,Hotline 0933 806 035,"Km8+800, Quốc Lộ 2, Thôn Thạch Lỗi, Xã Thanh Xuân, Sóc Sơn, Hà Nội",Iveco,Hà Nội
Thaco Đông Đô - Hải Dương,Hotline 0933 806 035,"Km46+800 Quốc lộ 5, Phường Tứ Minh, Tp. Hải Dương",Iveco,Hải Dương
TMT Hà ĐôngTruck & Bus,Hotline 1900 5454 62,"Số 1105, Do Lộ Yên Nghĩa, Quận Hà Đông, Hà Nội",Tata,Hà Nội
TMT HBC Bình MinhTruck & Bus,Hotline 1900 5454 62,"Khu 4, Xã Phù Ninh, Huyện Phù Ninh, Tỉnh Phú Thọ",Tata,Phú Thọ
TMT HBM Hùng Vương - CN Hà GiangTruck & Bus,Hotline 1900 5454 62,"Thôn Cầu Mè, Phường Phương Thiện, TP Hà Giang, Tỉnh Hà Giang",Tata,Hà Giang
TMT HBM Hùng Vương - CN Lai ChâuTruck & Bus,Hotline 1900 5454 62,"Tổ 1, Phường Tân Long, Tp. Lai Châu, Tỉnh Lai Châu",Tata,Lai Châu
TMT HBM Hùng Vương - CN Tuyên QuangTruck & Bus,Hotline 1900 5454 62,"Km9, Thôn Tân Hải Thành, Xã Thái Long, TP Tuyên Quang, Tỉnh Tuyên Quang",Tata,Tuyên Quang
TMT Hiền TuyếtTruck & Bus,Hotline 1900 5454 62,"Km 14+260 QL 1A, Tp Lạng Sơn, Tỉnh Lạng Sơn ",Tata,Lạng Sơn
TMT Hoàng HàTruck & Bus,Hotline 1900 5454 62,"368 Lý Bôn, Tiền Phong, Tp Thái Bình",Tata,Thái Bình
TMT Hưng YênTruck & Bus,Hotline 1900 5454 62,"Số 58 Nguyễn Văn Linh, Phường An Tảo, Tp. Hưng Yên",Tata,Hưng Yên
TMT Hưng Yên - CN Văn LâmTruck & Bus,Hotline 1900 5454 62,"Thôn Tuấn Dị, Xã Trưng Trắc, Huyện Văn Lâm, Tỉnh Hưng Yên",Tata,Hưng Yên
TMT Hữu NghịTruck & Bus,Hotline 1900 5454 62,"Tổ 6, Thị trấn Yên Bình, Huyện Yên Bình, Tỉnh Yên Bái",Tata,Yên Bái
TMT KMT Quảng NinhTruck & Bus,Hotline 1900 5454 62,"Khu Nam Ga Hạ Long, Giếng Đáy, Hạ Long, Quảng Ninh",Tata,Quảng Ninh
TMT Long BiênTruck & Bus,Hotline 1900 5454 62,"Số 55 Nguyễn Văn Linh, Phúc Đồng, Long Biên, Hà Nội",Tata,Hà Nội
TMT Ninh BìnhTruck & Bus,Hotline 1900 5454 62,"SN 568 Thiên Quang, Tân Bình, Tam Điệp, Ninh Bình",Tata,Ninh Bình
TMT Phú NghĩaTruck & Bus,Hotline 1900 5454 62,"Km24, quốc lộ 6a, khu công nghiệp Phú Nghĩa, Chương Mỹ, Hà Nội",Tata,Hà Nội
TMT Phương KhángTruck & Bus,Hotline 1900 5454 62,"Tổ 3, Cách mạng tháng 8, Cam Giá, Tp Thái Nguyên",Tata,Thái Nguyên
TMT Quang TuấnTruck & Bus,Hotline 1900 5454 62,"Khu D3, cụm CN Dĩnh Kế, Tp Bắc Giang",Tata,Bắc Giang
TMT Quang VinhTruck & Bus,Hotline 1900 5454 62,"Đường Nguyễn Tất Thành, Phường Tích Sơn, Tp Vĩnh Yên, Tỉnh Vĩnh Phúc",Tata,Vĩnh Phúc
TMT Sơn Hưng TrungTruck & Bus,Hotline 1900 5454 62,"Km 9, Quốc lộ 6 Sơn La - Hà Nội, Lê Duẩn, Chiềng Sinh, Tp Sơn La",Tata,Sơn La
TMT Tây ĐôTruck & Bus,Hotline 1900 5454 62,"KM46+300 quốc lộ 5, TP Hải Dương (đối diện khu công nghiệp Đại An)",Tata,Hà Nội
TMT TMP Hải PhòngTruck & Bus,Hotline 1900 5454 62,"Số 242A, Đường 5 mới, Khu quỳnh Cư, Hùng Vương, Hồng Bàng, Hải Phòng",Tata,Hải Phòng
TMT Trường HảiTruck & Bus,Hotline 1900 5454 62,"B4B Đại lộ Trần Hưng Đạo, Nam Cường, Tp. Lào Cai",Tata,Lào Cai
TMT Tuấn PhươngTruck & Bus,Hotline 1900 5454 62,"Mao Dộc, Phương Mao, Quế Võ, Bắc Ninh",Tata,Bắc Ninh
TMT Điên Biên PhủTruck & Bus,Hotline 1900 5454 62,"C17, Đội 5, Thanh Xương, Huyện Điện Biên, Điện Biên",Tata,Điện Biên
Howo Vimid Bắc Giang,Hotline 1900 1089,"QL1, Thôn Riễu, Xã Dĩnh Trì, Tp Bắc Giang",Sinotruk,Bắc Giang
Howo Vimid Hà Nam,Hotline 1900 1089,"Thôn La Mát , TT. Kiện Khê, Thanh Liêm, Hà Nam",Sinotruk,Hà Nam
Howo Vimid Hải Phòng,Hotline 1900 1089,"Bãi Traco, Đường 356, Đình Vũ, Hải An, Hải Phòng",Sinotruk,Hải Phòng
Howo Vimid Phú Thọ,Hotline 1900 1089,"Khu 4, Xã Phù Ninh, Phù Ninh, Phú Thọ",Sinotruk,Phú Thọ
Howo Vimid Sơn La,Hotline 1900 1089,"Đường Lê Duẩn, Bản Cang, Phường Chiềng Sinh, Tp Sơn La",Sinotruk,Sơn La
Howo Vimid Tây Hà Nội,Hotline 1900 1089,"Km23+500, Quốc Lộ 6, Khu công nghiệp Phú Nghĩa, Tiên Phương, Chương Mỹ, Hà Nội",Sinotruk,Hà Nội
Howo Vimid Thái Nguyên,Hotline 1900 1089,"Xóm Đồng Xe, Xã Sơn Cẩm, Tp Thái Nguyên",Sinotruk,Thái Nguyên
Howo Vimid Đông Hà Nội,Hotline 1900 1089,"Tổ 9, Ngõ 649, Đường Lĩnh Nam, Quận Hoàng Mai, Hà Nội",Sinotruk,Hà Nội
Đô Thành Bắc Việt,Hotline 0962 752 686,"Lô D3-D4-D5, KCN Đài Tư, Phường Phúc Lợi , Quận Long Biên, Hà Nội",Đô Thành,Hà Nội
Đô Thành Hải Dương,Hotline 0962 752 686,"Km 34+200, KCN Hưng Thịnh, Bình Giang, Hải Dương",Đô Thành,Hải Dương
Đô Thành Hải Nam,Hotline 0962 752 686,"Lô C2-4, Khu công nghiệp Hòa Xá, Xã Lộc Hòa, Nam Định",Đô Thành,Nam Định
Đô Thành Khánh Chi Sơn La,Hotline 0962 752 686,"Tổ 7, Phường Chiềng Sinh, Tp Sơn La",Đô Thành,Sơn La
Đô Thành Đông Nam,Hotline 0962 752 686,"Km số 9, Đường Võ Văn Kiệt, KCN Quang Minh, TT. Quang Minh, Mê Linh, Hà Nội",Đô Thành,Hà Nội
Kamaz Quảng Ninh,Hotline 028 3873 3486,"370 Trần Quốc Tảng, Cẩm Thịnh, Cẩm Phả, Quảng Ninh",Kamaz,Quảng Ninh
VEAM - Ô tô Bảo Tiến,Hotline 1900886816,"Thôn 8, X. Sóc Đăng, Đoan Hùng, Phú Thọ",VEAM,Phú Thọ
VEAM - Ô tô Khánh Chi Sơn La,Hotline 1900886816,"Tổ 4, Phường Chiềng Sinh, TP Sơn La",VEAM,Sơn La
VEAM - Ô tô Kinh Bắc,Hotline 1900886816,"Khu nhà ở Sỹ quan - Nhân Mỹ, Mỹ Đình 1, Nam Từ Liêm, Hà Nội",VEAM,Hà Nội
VEAM - Ô tô Minh Phương,Hotline 1900886816,"Xóm 7, Xã Thanh Xuân, Thanh Hà, Hải Dương",VEAM,Hải Dương
VEAM - Ô tô Phát Đại Lâm,Hotline 1900886816,"Số 22 Tân Xuân, Phường Đông Ngạc, Bắc Từ Liêm, Hà Nội",VEAM,Hà Nội
VEAM - Ô tô Toàn Gia Phát,Hotline 1900886816,"Tổ dân phố Sài Phi, Minh Đức, Mỹ Hào, Hưng Yên",VEAM,Hưng Yên
VEAM - Ô tô VAM,Hotline 1900886816,"Số 21, ngõ 32/20, An Dương, Yên Phụ, Tây Hồ, Hà Nội",VEAM,Hà Nội
VEAM - Ô tô Đông Hải,Hotline 1900886816,"261 Đường Giải Phóng, Phương Mai, Đống Đa, Hà Nội",VEAM,Hà Nội
VEAM - Ô tô Đức Nam,Hotline 1900886816,"Km 6+500, Quốc lộ 10, Vũ Thư, Vũ Thư, Thái Bình",VEAM,Thái Bình
Samco Hà Nội,Hotline 028 3875 2033,"158 Phan Trọng Tuệ, Thanh Liệt, Thanh Trì, Hà Nội",SAMCO,Hà Nội
Samco Thăng Long,Hotline 028 3875 2033,"467 Nguyễn Văn Linh, Phúc Đồng, Long Biên, Hà Nội",SAMCO,Hà Nội
Samco Đại Lợi,Hotline 028 3875 2033,"Lô 05, quốc lộ 10, Tp. Nam Định",SAMCO,Nam Định
Shineray Minh Anh,Hotline 0886 893 355,"Băng 1 đường Nguyễn Du, P. Dữu Lâu, Tp. Việt Trì, Phú Thọ",Shineray,Phú Thọ
Shineray Nhật Dương - Bắc Giang,Hotline 0886 893 355,"Cụm Công nghiệp Dĩnh Kế, Phường Vĩnh Kế, Thành phố Bắc Giang",Shineray,Bắc Giang
Shineray Nhật Dương - Bắc Ninh ,Hotline 0886 893 355,"Quốc lộ 18, Cầu Ngà , Chu Mẫu, Phường Vân Dương, Tp Bắc Ninh",Shineray,Bắc Ninh
Shineray Nhật Dương - Võ Cường,Hotline 0886 893 355,"KCN VÕ CƯỜNG , Phường Võ Cường, Tp Bắc Ninh",Shineray,Bắc Ninh
Shineray Tây Đô Hà Đông,Hotline 0886 893 355,"883 Quang Trung, Hà Đông, Hà Nội",Shineray,Hà Nội
Shineray Thái Bảo,Hotline 0886 893 355,"KM 13. QL 1A Xã Hoàng Đồng, Tp Lạng Sơn",Shineray,Lạng Sơn
Shineray Thái Phong - Long Biên,Hotline 0886 893 355,"Km 0 Đ. Trường Sa (Chân cầu Đông Trù), Long Biên, Hà Nội",Shineray,Hà Nội
Shineray Thái Phong - Mỹ Đình,Hotline 0886 893 355,"Số 79 Đường Vườn Cam, Phú Đô (Gần Sân Vận Động Mỹ Đình)",Shineray,Hà Nội
King Long Hà Nội,Hotline 1800 282 818,"Tòa nhà Nam Hải, Hoàng Văn Thụ, Hai Bà Trưng, Hà Nội",King Long,Hà Nội
King Long Hà Nội - Cầu Giấy,Hotline 1800 282 818,"Tòa PVI, Số 1 Phạm Văn Bạch, Cầu Giấy, Hà Nội",King Long,Hà Nội
Isuzu VM Vĩnh Phát,Hotline 0898.673.333,"Trung Văn, Nam Từ Liêm, Hà Nội",Isuzu VM,Hà Nội
Hongyan Trường Thịnh,Hotline 1800 6522,"Nhà vườn 23 - KĐT Trung Văn, Tố Hữu, Trung Văn, Nam Từ Liêm, Hà Nội",Iveco-Hongyan,Hà Nội
Thaco Bắc Giang,Hotline 0933 806 035,"Cụm Công nghiệp Dĩnh Kế, Phường Dĩnh Kế, Tp. Bắc Giang",Forland,Bắc Giang
Thaco Bắc Kạn,Hotline 0933 806 035,"Thôn Nam Đội Thân, Xã Nông Thượng, Tp. Bắc Kạn",Forland,Bắc Kạn
Thaco Bắc Ninh,Hotline 0933 806 035,"Đường Lê Thái Tổ, Phường Võ Cường, Tp. Bắc Ninh",Forland,Bắc Ninh
Thaco Cao Bằng,Hotline 0933 806 035,"Xóm 3, Thôn Nam Phong, Xã Hưng Đạo, Tp. Cao Bằng",Forland,Cao Bằng
Thaco Chí Linh,Hotline 0933 806 035,"Quốc Lộ 18, Khu Bình Giang, Phả Lại, Chí Linh, Hải Dương",Forland,Hải Dương
Thaco Hà Nam,Hotline 0933 806 035,"Km4 QL1A, Thôn Đại Cầu, Xã Tiên Tân, Tp. Phủ Lý, Hà Nam",Forland,Hà Nam
Thaco Hòa Bình,Hotline 0933 806 035,"Km3 Quốc lộ 6, Phố Ngọc, Xã Trung Minh, Tp. Hòa Bình",Forland,Hòa Bình
Thaco Hưng Yên,Hotline 0933 806 035,"Ngã tư Phố Nối A, Quốc lộ 5, Xã Trưng Trắc, Huyện Văn Lâm, Hưng Yên",Forland,Hưng Yên
Thaco Huy Long - Lào Cai,Hotline 0933 806 035,"Nút Ná Méo, Tổ 19, Phường Bình Minh, Tp. Lào Cai",Forland,Lào Cai
Thaco Lạng Sơn,Hotline 0933 806 035,"KĐT Phía Đông, QL1A, Phường Đông Kinh, Tp. Lạng Sơn",Forland,Lạng Sơn
Thaco Nam Định,Hotline 0933 806 035,"KM 93 Đại Lộ Thiên Trường, Phường Lộc Hòa, Tp. Nam Định",Forland,Nam Định
Thaco Nhật Tân - Tuyên Quang,Hotline 0933 806 035,"Km9, Thôn Tân Thành 2, Xã Thái Long, Tp. Tuyên Quang",Forland,Tuyên Quang
Thaco Phú Thọ,Hotline 0933 806 035,"Khu Đồng Đồi, Xã Thụy Vân, Tp. Việt Trì, Phú Thọ",Forland,Phú Thọ
Thaco Phương Thuận Phát - Hà Giang,Hotline 0933 806 035,"Thôn Lâm Đồng, Xã Phương Thiện, Thành Phố Hà Giang",Forland,Hà Giang
Thaco Quảng Ninh,Hotline 0933 806 035,"Khu đô thị Nam ga Hạ Long, Giếng Đáy, Tp. Hạ Long, Quảng Ninh",Forland,Quảng Ninh
Thaco Sao Đỏ - Hải Dương,Hotline 0933 806 035,"Km39 Quốc Lộ 18, Phường Cộng Hoà, Tp. Chí Linh, Hải Dương",Forland,Hải Dương
Thaco Sơn La,Hotline 0933 806 035,"Khu CN Chiềng Sinh, Xã Chiềng Sinh, Tp. Sơn La",Forland,Sơn La
Thaco Tân Thành Thái - Thái Bình,Hotline 0933 806 035,"QL10, Xã Minh Quang, Huyện Vũ Thư, Thái Bình",Forland,Thái Bình
Thaco Tây Nam Hà Nội - Giải Phóng,Hotline 0933 806 035,"Km10 Đường Giải Phóng, Xã Tứ Hiệp, Huyện Thanh Trì, Hà Nội",Forland,Hà Nội
Thaco Tây Nam Hà Nội - Hà Đông,Hotline 0933 806 035,"Thôn Yên Phúc, Phường Biên Giang, Quận Hà Đông, Hà Nội",Forland,Hà Nội
Thaco Thái Nguyên,Hotline 0933 806 035,"KCN Nguyên Gon, Phường Cải Đan, Tp. Sông Công, Thái Nguyên",Forland,Thái Nguyên
Thaco Thái Nguyên - CN Tân Long,Hotline 0933 806 035,"Km7, Xã Sơn Cẩm, Tp. Thái Nguyên (gần đường tròn Tân Long)",Forland,Hà Nội
Thaco Trí Lực,Hotline 0933 806 035,"Km4, Quốc Lộ 18, Hải Yên, Móng Cái, Quảng Ninh",Forland,Quảng Ninh
Thaco Trọng Thiện,Hotline 0933 806 035,"Km27, Quốc lộ 10, Thôn 6, Bắc Sơn, An Dương, Tp. Hải Phòng",Forland,Hải Phòng
Thaco Vina Hòa Bình - Lai Châu,Hotline 0933 806 035,"Đường Điện Biên Phủ, Tổ 8, Phường Tân Phong, Tp. Lai Châu",Forland,Lai Châu
Thaco Vina Hòa Bình - Yên Bái,Hotline 0933 806 035,"Thị trấn Yên Bình, Huyện Yên Bình, Yên Bái",Forland,Yên Bái
Thaco Vĩnh Phúc,Hotline 0933 806 035,"Quốc Lộ 2A, Thôn Vật Cách, Xã Đồng Cương, Huyện Yên Lạc, Vĩnh Phúc",Forland,Vĩnh Phúc
Thaco Đại Phát - Ninh Bình,Hotline 0933 806 035,"Cụm công nghiệp Mai Sơn, Xã Mai Sơn, Huyện Yên Mô, Ninh Bình",Forland,Ninh Bình
Thaco Đông Bắc Hà Nội - Long Biên,Hotline 0933 806 035,"Lô D6, KCN Hà Nội - Đài Tư, Số 386 Nguyễn Văn Linh, Sài Đồng, Long Biên, Hà Nội",Forland,Hà Nội
Thaco Đông Bắc Hà Nội - Phúc Đồng,Hotline 0933 806 035,"Số 39 Nguyễn Văn Linh, Phường Phúc Đồng, Quận Long Biên, Hà Nội",Forland,Hà Nội
Thaco Đông Bắc Hà Nội - Sóc Sơn,Hotline 0933 806 035,"Km8+800, Quốc Lộ 2, Thôn Thạch Lỗi, Xã Thanh Xuân, Sóc Sơn, Hà Nội",Forland,Hà Nội
Thaco Đông Đô - Hải Dương,Hotline 0933 806 035,"Km46+800 Quốc lộ 5, Phường Tứ Minh, Tp. Hải Dương",Forland,Hải Dương
TCE Miền Bắc,Hotline 1900 3113,"Khu công nghiệp Khai Quang, thành phố Vĩnh Yên, tỉnh Vĩnh Phúc",SANY,Vĩnh Phúc
