Name,Address,Phone,Province,Service
Phụ Tùng Ô Tô Mạnh Tùng - Công Ty Cổ Phần Thương Mại Và Dịch Vụ Mạnh Tùng,"Số 2, Ngách 331/4, Đường Trần Khát Chân, Phường Thanh Nhàn, Quận Hai Bà Trưng, Hà Nội","(024) 66565395, 0912 563 567, 0902 229 895    ",Hà Nội,"Phụ Tùng Ô Tô, Phụ Tùng Xe Hơi"
Phụ Tùng Ô Tô Bố Thắng Ngũ Thành - Cửa Hàng Bố Thắng Ngũ Thành,"158/C24 25 Phan Anh, P. Tân Thới Hoà, Q. Tân Phú, Tp. Hồ Chí Minh (TPHCM)",0903746952                              ,Tp Hcm,"Phụ Tùng Ô Tô, Phụ Tùng Xe Hơi"
Phụ Tùng Ô Tô Vũ Phương - Công Ty TNHH Thương Mại Vũ Phương,"Số 12 Đường Số 7 (Số cũ 818/47 Nguyễn Kiệm), P. 3, Q. Gò Vấp, Tp. Hồ Chí Minh (TPHCM)","(028) 39859889, 0938082338                    ",Tp Hcm,"Phụ Tùng Ô Tô, Phụ Tùng Xe Hơi"
Trung Tâm Phụ Tùng Điều Hòa Ô Tô Hà Nội,"Số 4 ngách 1, Ngõ 84 Thị Sáu, Q. Hai Bà Trưng, Hà Nội","0965 405 040, 0967 149 409              ",Hà Nội,"Phụ Tùng Ô Tô, Phụ Tùng Xe Hơi"
Tổng Đại Lý Phụ Tùng Ô Tô Tải Trung Quốc Lan Thưởng,"Số 121-123 Phố Lạc Nghiệp, P. Thanh Nhàn, Q. Hai Bà Trưng, Hà Nội",0372 172 302 - 0968 622 768             ,Hà Nội,"Phụ Tùng Ô Tô, Phụ Tùng Xe Hơi"
Công Ty Cổ Phần GDC Việt Nam,"CX4, Cụm CN Nguyên Khê, X. Nguyên Khê, Đông Anh, Hà Nội","094.886.1981, 0972 585 888              ",Hà Nội,"Phụ Tùng Ô Tô, Phụ Tùng Xe Hơi"
Ô Tô Phú Khang - Công Ty TNHH Thương Mại Và Dịch Vụ Phú Khang,"Số 2699 Trần Hưng Đạo, P. Mỹ Thạnh, Tp. Long Xuyên, An Giang","(0296) 3933337, 0913 777 717                   ",An Giang,"Phụ Tùng Ô Tô, Phụ Tùng Xe Hơi"
Trung Tâm Điện Lạnh Ô Tô Gia Huy,"Trần Khát Trân, Q. Hai Bà Trưng, Hà Nội",0904 858 544                            ,Hà Nội,"Phụ Tùng Ô Tô, Phụ Tùng Xe Hơi"
EMTC - Công Ty CP Dụng Cụ Cơ Khí Xuất Khẩu,"Lô 15A, Khu Công Nghiệp Quang Minh, Thị Trấn Quang Minh, Huyện Mê Linh, Hà Nội",(024) 3586 0394                               ,Hà Nội,"Phụ Tùng Ô Tô, Phụ Tùng Xe Hơi"
Phụ Tùng Ô Tô Phạm Gia - Công Ty TNHH Đầu Tư Và Phát Triển Thương Mại Phạm Gia,"Số 76-78, Phố Lạc Nghiệp, Đường Trần Khát Chân, Phường Thanh Nhàn, Q. Hai Bà Trưng, Hà Nội","0865 856 585, 0985 281 269              ",Hà Nội,"Phụ Tùng Ô Tô, Phụ Tùng Xe Hơi"
Nhíp Ô Tô Miền Bắc,"Số 11B Thôn Chúc Lý, X. Ngọc Hòa, H. Chương Mỹ, Hà Nội",0976820219                              ,Hà Nội,"Phụ Tùng Ô Tô, Phụ Tùng Xe Hơi"
Phụ Tùng Ô Tô Khởi Phát Việt - Công Ty TNHH Thương Mại Và Đầu Tư Khởi Phát Việt,"Số 35 An Xuân, P. An Khê, Q. Thanh Khê, Tp. Đà Nẵng",0972 000 234                            ,Đà Nẵng,"Phụ Tùng Ô Tô, Phụ Tùng Xe Hơi"
Nhíp Ô Tô Miền Bắc,"Số 11B Thôn Chúc Lý, X. Ngọc Hòa, H. Chương Mỹ, Hà Nội",0976820219                              ,Hà Nội,"Phụ Tùng Ô Tô, Phụ Tùng Xe Hơi"
Phụ Tùng Ô Tô Bình Triệu - Công Ty TNHH Phụ Tùng Ô Tô Bình Triệu,"9/2 Đường Số 8, P. Hiệp Bình Chánh, TP. Thủ Đức, Tp. Hồ Chí Minh (TPHCM)",0917 914 917                            ,Tp Hcm,"Phụ Tùng Ô Tô, Phụ Tùng Xe Hơi"
Phụ Tùng Ô Tô Sinh Tân - Công Ty TNHH Thương Mại Dịch Vụ Sinh Tân,"124-126 Lê Hoàng Phái, P. 17, Q. Gò Vấp, Tp. Hồ Chí Minh (TPHCM)","(028) 38942133, 090.999.2830                  ",Tp Hcm,"Phụ Tùng Ô Tô, Phụ Tùng Xe Hơi"
Phụ Tùng Ô Tô Xuân Bảo - Công Ty TNHH Phụ Tùng Ô Tô Xuân Bảo,"495 Kinh Dương Vương, P. An Lạc, Q. Bình Tân, Tp. Hồ Chí Minh (TPHCM)",0909 689 663                            ,Tp Hcm,"Phụ Tùng Ô Tô, Phụ Tùng Xe Hơi"
Điện Tử Hoa Việt - Công Ty TNHH SX Và TM XNK Công Nghệ Điện Tử Hoa Việt,"Thôn Đỗ Hạ, X. Quang Vinh, H. Ân Thi, Hưng Yên","0375 996 348 , 0344 350 883 ( Mr Cao )  ",Hưng Yên,"Phụ Tùng Ô Tô, Phụ Tùng Xe Hơi"
Lốp Xe Phi Long - Công Ty Ô Tô Phi Long,"1692 Mỹ Phước Tân Vạn, TP. Thủ Dầu Một, Bình Dương",0975 76 77 77 – 0975 76 77 78           ,Bình Dương,"Phụ Tùng Ô Tô, Phụ Tùng Xe Hơi"
Chubu Engineering Việt Nam - Công Ty TNHH Chubu Engineering Việt Nam,"Đường Số 6 - KCN Nhơn Trạch III - Giai Đoạn 2, TT. Hiệp Phước, H. Nhơn Trạch, Đồng Nai","(0251) 3686072, 0785 170 787                   ",Đồng Nai,"Phụ Tùng Ô Tô, Phụ Tùng Xe Hơi"
Cơ Khí An Việt - Doanh Nghiệp Tư Nhân Sản Xuất Thương Mại An Việt,"Số 15 Tập Thể Xây Lắp Điện, P. Phú Lương, Q. Hà Đông, Tp. Hà Nội","(024) (024)62946855, 0913 383 189             ",Hà Nội,"Phụ Tùng Ô Tô, Phụ Tùng Xe Hơi"
Khuôn Dập Đồng Nai - Công Ty TNHH Cơ Khí Chính Xác HDP,"Số 3979, Tổ 5, KP Tân Cang, Phừơng Phước Tân, Thành phố Biên Hoà, Đồng Nai","0909 902 715, 0908 232 965              ",Đồng Nai,"Phụ Tùng Ô Tô, Phụ Tùng Xe Hơi"
Garage Ô Tô Sáu Thanh - Công Ty TNHH MTV Thương Mại Dịch Vụ Ô Tô Sáu Thanh,"Số 20A, Tổ 1, KP. Khánh Long, P. Tân Phước Khánh, TX. Tân Uyên, Bình Dương","(0274) 652 0528, 0934 771 255                  ",Bình Dương,"Phụ Tùng Ô Tô, Phụ Tùng Xe Hơi"
Xe Chuyên Dụng Cao Thanh Đạt - Công Ty Cổ Phần Thiết Bị Môi Trường Cao Thanh Đạt,"Khu Công Nghiệp Tân Quang, Xã Tân Quang, Huyện Văn Lâm, Hưng Yên","(024) 63293734, 0985 452 109                  ",Hưng Yên,"Phụ Tùng Ô Tô, Phụ Tùng Xe Hơi"
Thiết Bị Định Vị Sông Bé Auto - Hợp Tác Xã Dịch Vụ Vận Tải Sông Bé,"273 KP. Đông Tư, P. Lái Thiêu, TP. Thuận An, Bình Dương",0901 423 638                            ,Bình Dương,"Phụ Tùng Ô Tô, Phụ Tùng Xe Hơi"
Toyota Long Biên - Công Ty TNHH Toyota Long Biên,"Số 7-9 Đường Nguyễn Văn Linh, Tổ 17, P. Gia Thụy, Q. Long Biên, Hà Nội",098 722 3379                            ,Hà Nội,"Phụ Tùng Ô Tô, Phụ Tùng Xe Hơi"
Anh Thi Auto - Hộ Kinh Doanh Anh Thi,"401 An Dương Vương, P. 3, Q. 5, Tp. Hồ Chí Minh (TPHCM)",0903 863 082                            ,Tp Hcm,"Phụ Tùng Ô Tô, Phụ Tùng Xe Hơi"
Cải Tạo Thiết Kế Đóng Mới Thùng Tải - Công Ty TNHH Hồng Khải Nguyễn,"195 Lê Hồng Phong, P. Phú Lợi, TP. Thủ Dầu Một, Bình Dương","(0274) 3636936, Hotline: 0906 37 54 55         ",Bình Dương,"Phụ Tùng Ô Tô, Phụ Tùng Xe Hơi"
Phụ Tùng Ô Tô Xe Máy Luyện Luân Hưng - Công Ty Trách Nhiệm Hữu Hạn Luyện Luân Hưng,"CCN Thanh Oai, H. Thanh Oai, Hà Nội",(024) 3972391                                 ,Hà Nội,"Phụ Tùng Ô Tô, Phụ Tùng Xe Hơi"
Phụ Tùng Ô Tô Nguyễn Hoàng - Công Ty TNHH Thương Mại Dịch Vụ Ô Tô Nguyễn Hoàng,"52/8A Đường HT31, Tổ 07, KP. 01, P. Hiệp Thành, Q. 12, Tp. Hồ Chí Minh (TPHCM)","(028) 66827649, Hotline: 0938.700.858         ",Tp Hcm,"Phụ Tùng Ô Tô, Phụ Tùng Xe Hơi"
Chi Nhánh Công Ty TNHH SXTM Phương Nam,"28 Giáp Hải 1, Xương Giang, TP. Bắc Giang, Bắc Giang",Hotline: 0982 577 565                   ,Bắc Giang,"Phụ Tùng Ô Tô, Phụ Tùng Xe Hơi"
Phụ Tùng Ô Tô ý Tất Đạt - Công Ty TNHH Thương Mại Linh Phụ Kiện Ô Tô & Ô Tô ý Tất Đạt,"Quốc Lộ 3, Phố Lộc Hà, Mai Lâm, Đông Anh, Hà Nội",(024) 2216.1638                               ,Hà Nội,"Phụ Tùng Ô Tô, Phụ Tùng Xe Hơi"
Phụ Kiện Xe Hơi SKYAUTO - Công Ty TNHH SKYAUTO Việt Nam,"Số 4, Ngõ 8, Đại Lộ Thăng Long, Mễ Trì Thượng, Nam Từ Liêm, Hà Nội",0988 470 212                            ,Hà Nội,"Phụ Tùng Ô Tô, Phụ Tùng Xe Hơi"
Phụ Tùng Ô Tô Hương Auto Part - Công Ty TNHH MTV Hương Auto Part,"Q. 12, Tp. Hồ Chí Minh (TPHCM)","(0297) 3868 336, 0856 467 727                  ",Tp Hcm,"Phụ Tùng Ô Tô, Phụ Tùng Xe Hơi"
Phụ Tùng Ô Tô Minh Thành - Công Ty TNHH Đầu Tư Thương Mại Phát Triển Minh Thành,"155 Văn Cao, Ngô Quyền, Tp. Hải Phòng",096 200 5555 - 098 902 5881             ,Hải Phòng,"Phụ Tùng Ô Tô, Phụ Tùng Xe Hơi"
Phụ Tùng Ô Tô Đắc Yến - Công Ty TNHH Đắc Yến,"Số 403 Tô Ngọc Vân, P. Thạnh Xuân, Q. 12, Tp. Hồ Chí Minh (TPHCM)","(028) 2215 6122, 2215 6121                    ",Tp Hcm,"Phụ Tùng Ô Tô, Phụ Tùng Xe Hơi"
Thiết Bị Ô Tô Hoàn Xa - Công Ty TNHH Hoàn Xa,"Số 3-5, Nguyễn Văn Linh, P. Gia Thụy, Q. Long Biên, Hà Nội",(024) 73036866                                ,Hà Nội,"Phụ Tùng Ô Tô, Phụ Tùng Xe Hơi"
Công Ty TNHH Phụ Tùng Ô Tô á Âu,"928 Quốc Lộ 1A, KP. 4, P. Linh Trung, TP. Thủ Đức, Tp. Hồ Chí Minh (TPHCM)",0902939364                              ,Tp Hcm,"Phụ Tùng Ô Tô, Phụ Tùng Xe Hơi"
Công Ty TNHH LEGE Việt Nam,"Lô G11, KCN Quế Võ, P. Vân Dương, TP. Bắc Ninh, Bắc Ninh",(0222) 363 4246                                ,Bắc Ninh,"Phụ Tùng Ô Tô, Phụ Tùng Xe Hơi"
Công Ty CP SX Phụ Tùng Ô Tô Và Thiết Bị Công Nghiệp JAT,"Lô II, 8.2 Khu Công Nghiệp Quế Võ II, X. Ngọc Xá, H. Quế Võ, Bắc Ninh",(0222) 3623068                                 ,Bắc Ninh,"Phụ Tùng Ô Tô, Phụ Tùng Xe Hơi"
Công ty TNHH Maruei Việt Nam Precision,"Số 9, Đại Lộ Độc Lập, KCN Việt Nam - Singapore, P. Bình Hòa, TP. Thuận An, Bình Dương",(0274) 3782133                                 ,Bình Dương,"Phụ Tùng Ô Tô, Phụ Tùng Xe Hơi"
Công Ty CP Innotek,"Lô II-4.1, KCN Quế Võ 2, X. Ngọc Xá, H. Quế Võ , Bắc Ninh",(0222) 3623318                                 ,Bắc Ninh,"Phụ Tùng Ô Tô, Phụ Tùng Xe Hơi"
Phụ Tùng Xe Máy Mai Văn Đáng - Công Ty TNHH Mai Văn Đáng,"Khu Công Nghiệp Hòa Xá, Phường Mỹ Xá, Thành Phố Nam Định, Nam Định","(0228) 3671811, 0913006915, 0913913956         ",Nam Định,"Phụ Tùng Ô Tô, Phụ Tùng Xe Hơi"
Công Ty Hữu Hạn Công Nghiệp Kaifa Việt Nam,"Khu Công Nghiệp Hố Nai, X. Hố Nai 3, H. Trảng Bom, Đồng Nai",(0251) 3671704                                 ,Đồng Nai,"Phụ Tùng Ô Tô, Phụ Tùng Xe Hơi"
FUTU1 - Công ty cổ phần phụ tùng máy số 1,"Đường 3/2, Tổ 10, P. Mỏ Chè, TP. Sông Công, Thái Nguyên",(0208) 3862205                                 ,Thái Nguyên,"Phụ Tùng Ô Tô, Phụ Tùng Xe Hơi"
Công Ty TNHH APM Springs (Việt Nam),"25 Đại Lộ Tự Do, KCN Việt Nam - Singapore, P. Bình Hòa, TP. Thuận An, Bình Dương",0974353432                              ,Bình Dương,"Phụ Tùng Ô Tô, Phụ Tùng Xe Hơi"
Thiết Bị Ô Tô Hoàn Xa - Công Ty TNHH Hoàn Xa,"Số 3-5, Nguyễn Văn Linh, P. Gia Thụy, Q. Long Biên, Hà Nội",(024) 73036866                                ,Hà Nội,"Phụ Tùng Ô Tô, Phụ Tùng Xe Hơi"
Công Ty TNHH APM Springs (Việt Nam),"25 Đại Lộ Tự Do, KCN Việt Nam - Singapore, P. Bình Hòa, TP. Thuận An, Bình Dương",0974353432                              ,Bình Dương,"Phụ Tùng Ô Tô, Phụ Tùng Xe Hơi"
Công Ty TNHH Một Thành Viên Thương Mại Thiên Tường,"Số 54 Ngõ 381 Nguyễn Khang, P. Yên Hòa, Q. Cầu Giấy, Hà Nội",(024) 66841259                                ,Hà Nội,"Phụ Tùng Ô Tô, Phụ Tùng Xe Hơi"
Công Ty TNHH Việt Nam SUZUKI,"Đường Số 2, KCN Long Bình, P. Long Bình, TP. Biên Hòa, Đồng Nai",(0251) 3838707                                 ,Đồng Nai,"Phụ Tùng Ô Tô, Phụ Tùng Xe Hơi"
Đại Lý Thanh Xuân Ford - Công Ty TNHH MTV Kinh Doanh Ô Tô Thanh Xuân,"Số 88 Nguyễn Xiển, Q. Thanh Xuân, Hà Nội",0935580000                              ,Hà Nội,"Phụ Tùng Ô Tô, Phụ Tùng Xe Hơi"
Công Ty Cổ Phần Ô Tô TTC,"Số 90 Lạc Nghiệp, P. Thanh Nhàn, Q. Hai Bà Trưng, Hà Nội",(024) 39729188                                ,Hà Nội,"Phụ Tùng Ô Tô, Phụ Tùng Xe Hơi"
Công Ty TNHH MTV Gia Khoa,"4B QL 1A, KP. 1, KBT. Thạnh Xuân, P. Thạnh Xuân, Q. 12, Tp. Hồ Chí Minh (TPHCM)",0901189156                              ,Tp Hcm,"Phụ Tùng Ô Tô, Phụ Tùng Xe Hơi"
Công Ty CP Vật Tư Thiết Bị Và Phụ Tùng TDN,"Ngõ 58 Ngách 45, Phố Trần Bình, P. Mai Dịch, Q. Cầu Giấy, Hà Nội",0976389396                              ,Hà Nội,"Phụ Tùng Ô Tô, Phụ Tùng Xe Hơi"
Phụ Tùng Hồng Phát - Công Ty CP Đầu Tư Phát Triển Kỹ Thuật Công Nghệ Và TM Hồng Phát,"Số 6 BT1 KĐT Resco Phạm Văn Đồng, P. Xuân Đỉnh, Q. Bắc Từ Liêm, Hà Nội",(024) 36452704                                ,Hà Nội,"Phụ Tùng Ô Tô, Phụ Tùng Xe Hơi"
Công Ty Cổ Phần Thương Mại Và Kỹ Thuật Giang Vinh,"P604-CT4, KĐT Mỹ Đình II, Lê Đức Thọ, P. Mỹ Đình 2, Q. Nam Từ Liêm, Hà Nội",(024) 22111535                                ,Hà Nội,"Phụ Tùng Ô Tô, Phụ Tùng Xe Hơi"
Công Ty TNHH Du Lịch Và Thương Mại Đặng Gia,"138 Dương Đình Nghệ, Cầu Giấy, Hà Nội",0983092899                              ,Hà Nội,"Phụ Tùng Ô Tô, Phụ Tùng Xe Hơi"
Công Ty TNHH Công Nghiệp Kao Minh,"Đường Số 2, KCN Hố Nai 3, H. Trảng Bom, Đồng Nai",(0251) 6278666                                 ,Đồng Nai,"Phụ Tùng Ô Tô, Phụ Tùng Xe Hơi"
Công Ty Cổ Phần Thiết Bị TEARU Việt Nam,"16/2A, Tân Thới Nhất 8, P. Tân Thới Nhất, Q.12 Tp. Hồ Chí Minh (TPHCM)",0983 690 096                            ,Tp Hcm,"Phụ Tùng Ô Tô, Phụ Tùng Xe Hơi"
Công Ty TNHH MTV Kinh Doanh Ô Tô Thăng Long,"Số 105 Láng Hạ, P. Láng Hạ, Q. Đống Đa, Hà Nội",(024) 35627653                                ,Hà Nội,"Phụ Tùng Ô Tô, Phụ Tùng Xe Hơi"
Công Ty TNHH XNK Quốc Tế Duy Tân,"Số 14 - 279 Trần Khát Chân, Hai Bà Trưng, Hà Nội",(024) 37866666                                ,Hà Nội,"Phụ Tùng Ô Tô, Phụ Tùng Xe Hơi"
Công Ty CP Truyền Thông Dữ Liệu Và Thanh Toán An Du,"Số 11 Phạm Hùng, P. Mỹ Đình 2, Q. Nam Từ Liêm, Hà Nội",(024) 37686762                                ,Hà Nội,"Phụ Tùng Ô Tô, Phụ Tùng Xe Hơi"
Công Ty Cổ Phần Đầu Tư Thương Mại Ford An Đô,"168 Phạm Văn Đồng, Xuân Đỉnh, Bắc Từ Liêm, Hà Nội",0237 505 055                            ,Hà Nội,"Phụ Tùng Ô Tô, Phụ Tùng Xe Hơi"
Công Ty TNHH Xuất Nhập Khẩu Thiết Bị Và Phụ Tùng DC Việt Nam,"Số 2, TDP Nhang, P. Xuân Đỉnh, Q. Bắc Từ Liêm, Hà Nội",(024) 37502743                                ,Hà Nội,"Phụ Tùng Ô Tô, Phụ Tùng Xe Hơi"
Công Ty Cổ Phần Thiết Bị Phụ Tùng & Vận Tải Việt Phong,"762 Đường Trần Hưng Đạo, P. Đông Hải 1, Q. Hải An, Tp. Hải Phòng",(0225) 3262599                                 ,Hải Phòng,"Phụ Tùng Ô Tô, Phụ Tùng Xe Hơi"
Công Ty Cổ Phần Xuất Nhập Khẩu Quốc Tế Nội Bài,"Thôn Mai Nội, X. Mai Đình, H. Sóc Sơn, Hà Nội",0969129158                              ,Hà Nội,"Phụ Tùng Ô Tô, Phụ Tùng Xe Hơi"
Công Ty TNHH Sản Xuất Và Thương Mại Khang Thịnh,"VPGD: Tòa nhà An Huy, Lô 1+2 GD1, KCN Ngọc Hồi, K14 Đường Ngọc Hồi, H. Thanh Trì, Hà Nội","(024) 38235235, 36811428                      ",Hà Nội,"Phụ Tùng Ô Tô, Phụ Tùng Xe Hơi"
Cửa Hàng Phụ Tùng Điện Lạnh Gia Nguyễn,"18 Tam Trinh, Q. Hai Bà Trưng, Hà Nội",0987667665                              ,Hà Nội,"Phụ Tùng Ô Tô, Phụ Tùng Xe Hơi"
Công Ty Cổ Phần Thương Mại ánh Dương,"Số 11 Trần ích Phát, P. Hải Tân, TP Hải Dương, Hải Dương","(0220) 3843557, Hotline : 0963.255.233         ",Hải Dương,"Phụ Tùng Ô Tô, Phụ Tùng Xe Hơi"
Công Ty Cổ Phần TECHNOKOM,"Đường E3, Khu E , KCN Phố Nối A, H. Văn Lâm, Hưng Yên",(0221) 3791750                                 ,Hưng Yên,"Phụ Tùng Ô Tô, Phụ Tùng Xe Hơi"
Công Ty TNHH Công Nghiệp Dezen,"Lô 5, CN 17, KCN Khai Quang, TP. Vĩnh Yên, Vĩnh Phúc",(0211) 3844222                                 ,Vĩnh Phúc,"Phụ Tùng Ô Tô, Phụ Tùng Xe Hơi"
Công Ty TNHH Toyota Hải Dương,"Số 1 Ngô Quyền, P. Cẩm Thượng, TP. Hải Dương, Hải Dương",0909983555                              ,Hải Dương,"Phụ Tùng Ô Tô, Phụ Tùng Xe Hơi"
Công Ty TNHH Thắng Long,"Số 234, Đường ĐT 852, Khóm Tân Hòa, P. An Hòa, TP. Sa Đéc, Đồng Tháp",(0277) 3762890                                 ,Đồng Tháp,"Phụ Tùng Ô Tô, Phụ Tùng Xe Hơi"
Công Ty TNHH Kỹ Thương Hà Thành,"Số 23, Ngõ 62, Trần Bình, Q. Nam Từ Liêm, Hà Nội",(024) 39133888                                ,Hà Nội,"Phụ Tùng Ô Tô, Phụ Tùng Xe Hơi"
Công Ty CP Đầu Tư Và TM Tây Ô Tô - Chi Nhánh Western Ford An Giang,"Số 26/2A Trần Hưng Đạo, P. Mỹ Thới, TP. Long Xuyên, An Giang","(0396) 3933121, 0939085008                     ",An Giang,"Phụ Tùng Ô Tô, Phụ Tùng Xe Hơi"
Phụ Tùng Xe SAV - Công Ty TNHH Đầu Tư Liên Hiệp SAV,"Số 18, Ngách 445/50A Lạc Long Quân, Phường Xuân La, Quận Tây Hồ, Hà Nội","(024) 22828080, 0904481072, 0903898380        ",Hà Nội,"Phụ Tùng Ô Tô, Phụ Tùng Xe Hơi"
Công Ty TNHH ZF Automative Việt Nam,"Nhà xưởng Supplier Park thuộc Tổ hợp sản xuất ô tô Vinfast, khu kinh tế Đình Vũ - Cát Hải, đảo Cái Hải, Thị Trấn Cát Hải, Huyện Cát Hải, Tp. Hải Phòng",(0225) 7300011                                 ,Hải Phòng,"Phụ Tùng Ô Tô, Phụ Tùng Xe Hơi"
Công Ty TNHH Du Lịch Và Thương Mại Đặng Gia,"Km 8+900, Đường Gom Đại Lộ Thăng Long, H. Thạch Thất, Hà Nội",0919958888                              ,Hà Nội,"Phụ Tùng Ô Tô, Phụ Tùng Xe Hơi"
Công Ty TNHH Thương Mại Dịch Vụ Ô Tô Tây Sài Gòn,"63 Võ Văn Kiệt, P. 10, Q. 5, Tp. Hồ Chí Minh (TPHCM)",0901030030                              ,Tp Hcm,"Phụ Tùng Ô Tô, Phụ Tùng Xe Hơi"
Công Ty TNHH Toyota Thanh Xuân,"Số 315 Trường Chinh, P. Khương Mai, Q. Thanh Xuân, Hà Nội",0936088246                              ,Hà Nội,"Phụ Tùng Ô Tô, Phụ Tùng Xe Hơi"
Công Ty TNHH Jaan-E (Thuộc tập đoàn Elig),"KCN Hố Nai 3, Trảng Bom, Đồng Nai",(0251) 6278569                                 ,Đồng Nai,"Phụ Tùng Ô Tô, Phụ Tùng Xe Hơi"
Phụ Tùng Ô Tô EUCARTECH - Công Ty EUCARTECH,"Số 82 Kiên Thành, Xã Trâu Quỳ, Huyện Gia Lâm, Hà Nội","0848076888, 0868713877                  ",Hà Nội,"Phụ Tùng Ô Tô, Phụ Tùng Xe Hơi"
Máy Lạnh Ô Tô Toàn Phát - Công Ty TNHH Đầu Tư Và Phát Triển Thương Mại Dịch Vụ Toàn Phát,"Số 27/785 Trương Định, P. Thịnh Liệt, Q. Hoàng Mai, Hà Nội",(024) 38215773                                ,Hà Nội,"Phụ Tùng Ô Tô, Phụ Tùng Xe Hơi"
Phụ Tùng Ô Tô Auto Đức Phát - Auto Đức Phát,"29/3 KP. 2, P. An Phú, TP. Thuận An, Bình Dương",0967 660 139                            ,Bình Dương,"Phụ Tùng Ô Tô, Phụ Tùng Xe Hơi"
Phụ Tùng Ô Tô Gia Khoa - Công Ty TNHH Gia Khoa,"Số 2A/436 Đường Bạch Đằng, P. Chương Dương, Q. Hoàn Kiếm, Hà Nội",Hotline: 0983 380 969                   ,Hà Nội,"Phụ Tùng Ô Tô, Phụ Tùng Xe Hơi"
Cửa Hàng Long Phát,"16 Cống Quỳnh, P. Nguyễn Cư Trinh, Q. 1, Tp. Hồ Chí Minh (TPHCM)",(028) 38375216                                ,Tp Hcm,"Phụ Tùng Ô Tô, Phụ Tùng Xe Hơi"
Công Ty cổ phần HC-HITECK,"số 46, ngách 3 ngõ 121 Thái Hà, Trung Liệt , Đống &#272a Hà Nội",(024) 37920574                                ,Hà Nội,"Phụ Tùng Ô Tô, Phụ Tùng Xe Hơi"
Công Ty Cổ Phần Thương Mại Dịch Vụ Ngọc An,"327 Quốc Lộ 13, P. Hiệp Bình Phước, Q. Thủ Đức, Tp. Hồ Chí Minh (TPHCM)",(028) 37262639                                ,Tp Hcm,"Phụ Tùng Ô Tô, Phụ Tùng Xe Hơi"
Công Ty Cổ Phần Kent Việt Nam,"Số 779, Tầng 2, Tòa CT3, KĐT Mỹ Đình, Hà Nội",0902162698                              ,Hà Nội,"Phụ Tùng Ô Tô, Phụ Tùng Xe Hơi"
Công Ty TNHH Toyota An Thành Fukushima,"C4/4B, KP. 3, Đường Bùi Thanh Khiết, TT. Tân Túc, Q. Bình Chánh, Tp. Hồ Chí Minh (TPHCM)",(028) 36364040                                ,Tp Hcm,"Phụ Tùng Ô Tô, Phụ Tùng Xe Hơi"
Phụ Tùng Alpha - Công Ty TNHH Công Nghiệp Nặng Alpha,"Số 6A, Ngõ 105/46, Doãn Kế Thiện, P. Mai Dịch, Q. Cầu Giấy, Hà Nội",0913322917                              ,Hà Nội,"Phụ Tùng Ô Tô, Phụ Tùng Xe Hơi"
Công Ty TNHH Công Nghiệp Kao Minh,"Đường Số 2, KCN Hố Nai 3, H. Trảng Bom, Đồng Nai",(0251) 6278666                                 ,Đồng Nai,"Phụ Tùng Ô Tô, Phụ Tùng Xe Hơi"
Kia Giải Phóng - Công Ty Cổ Phần Xây Dựng Và Vật Tư Thiết Bị,"Km 10 Đường Giải Phóng, X. Tứ Hiệp, H.Thanh Trì, Hà Nội",(024) 0915557229                              ,Hà Nội,"Phụ Tùng Ô Tô, Phụ Tùng Xe Hơi"
Công Ty Cổ Phần Thiết Bị Phụ Tùng & Vận Tải Việt Phong,"762 Đường Trần Hưng Đạo, P. Đông Hải 1, Q. Hải An, Tp. Hải Phòng",(0225) 3262599                                 ,Hải Phòng,"Phụ Tùng Ô Tô, Phụ Tùng Xe Hơi"
Công Ty TNHH Xuất Nhập Khẩu Thiết Bị Và Phụ Tùng DC Việt Nam,"Số 2, TDP Nhang, P. Xuân Đỉnh, Q. Bắc Từ Liêm, Hà Nội",(024) 37502743                                ,Hà Nội,"Phụ Tùng Ô Tô, Phụ Tùng Xe Hơi"
Công ty TNHH Sản xuất Phần cứng Cangzhou Xinlida,"Khu phát triển công nghiệp, Huyện Nanpi, Tỉnh Hà Bắc",(+86) 3178566585                              ,Tỉnh Hà Bắc,"Phụ Tùng Ô Tô, Phụ Tùng Xe Hơi"
Ô Tô Việt - Công Ty Cổ Phần Ô Tô Việt,"336 Lê Trọng Tấn, P. Tây Thạnh, Q. Tân Phú, Tp. Hồ Chí Minh (TPHCM)",(028) 38127979                                ,Tp Hcm,"Phụ Tùng Ô Tô, Phụ Tùng Xe Hơi"
Công ty TNHH Thương Mại Xe Tải Hạng Nặng Jinan Huawo,"Số 10, Khu Vực 1, Khu Công Nghiệp Tianqiao, Tế Nam ",+86 15264102339                         ,,"Phụ Tùng Ô Tô, Phụ Tùng Xe Hơi"
MTC AUTO - Công Ty Cổ Phần MTC Auto Việt Nam,"Km 12+300, Quốc lộ 1A, Xã Vĩnh Quỳnh, Huyện Thanh Trì, Hà Nội Hà Nội",(024) 37623963                                ,Hà Nội,"Phụ Tùng Ô Tô, Phụ Tùng Xe Hơi"
Công Ty TNHH TM Và Đầu Tư Đức Hùng,"Đường Quang Trung, TK Diêm Hải, P. Phú Hải, TP. Đồng Hới, Quảng Bình",0943112255                              ,Quảng Bình,"Phụ Tùng Ô Tô, Phụ Tùng Xe Hơi"
Công Ty TNHH Phương Đông Auto,"Lô 2 BT1, Khu Đô Thị Vinaconex 3 Trung Văn (Đối Diện Chợ Dân Sinh Trung Văn) Hà Nội",(024) 85876599                                ,Hà Nội,"Phụ Tùng Ô Tô, Phụ Tùng Xe Hơi"
Công Ty Cổ Phần Đầu Tư TM & XNK Đức Thịnh,"Số 16A, Ngõ 89, Phố Quan Nhân, P. Nhân Chính, Q. Thanh Xuân, Hà Nội",(024) 66881679                                ,Hà Nội,"Phụ Tùng Ô Tô, Phụ Tùng Xe Hơi"
Công Ty TNHH Dịch Vụ Ô Tô Tiến Thành,"50D, Ngõ 2, Phố Lạc Nghiệp, Hai Bà Trưng, Hà Nội",(024) 0912469190                              ,Hà Nội,"Phụ Tùng Ô Tô, Phụ Tùng Xe Hơi"
Cửa Hàng Phụ Tùng Ô Tô Dương Gia,"53 Kinh Dương Vương, P. 12, Q. 6, Tp. Hồ Chí Minh (TPHCM)",(028) 38750187                                ,Tp Hcm,"Phụ Tùng Ô Tô, Phụ Tùng Xe Hơi"
Công Ty TNHH Nguyễn Danh Sài Gòn,"336/50A Phan Văn Trị, P. 11, Q. Bình Thạnh, Tp. Hồ Chí Minh (TPHCM)",(028) 62853193                                ,Tp Hcm,"Phụ Tùng Ô Tô, Phụ Tùng Xe Hơi"
Công Ty TNHH Ô Tô Mitsubishi Việt Nam,"Tầng 6, Tòa Nhà Pearl Plaza, 561A Điện Biên Phủ, Q. Bình Thạnh, Tp. Hồ Chí Minh (TPHCM)",(028) 38962181                                ,Tp Hcm,"Phụ Tùng Ô Tô, Phụ Tùng Xe Hơi"
Công Ty TNHH Kỹ Nghệ Felix,"Thôn Bắc, X. Lưu Kiếm, H. Thủy Nguyên, Tp. Hải Phòng",(0225) 3692194                                 ,Hải Phòng,"Phụ Tùng Ô Tô, Phụ Tùng Xe Hơi"
Công Ty TNHH Thương Mại Và Dịch Vụ Hợp Phát Phú Thọ,"Tổ 11, Khu Núi Trang, TT. Phong Châu, H. Phù Ninh, Phú Thọ",0967737393                              ,Phú Thọ,"Phụ Tùng Ô Tô, Phụ Tùng Xe Hơi"
Elma Việt Nam - Công Ty TNHH Công Nghiệp Elma Việt Nam,"Khu Công Nghiệp Nhơn Trạch 1, H. Nhơn Trạch, Đồng Nai",(0251) 3560088                                 ,Đồng Nai,"Phụ Tùng Ô Tô, Phụ Tùng Xe Hơi"
Xe Hơi Thủ Đức,"642C Quốc Lộ 13, P. Hiệp Bình Phước, Q. Thủ Đức, Tp. Hồ Chí Minh (TPHCM)",0948629720                              ,Tp Hcm,"Phụ Tùng Ô Tô, Phụ Tùng Xe Hơi"
Công Ty Cổ Phần ELEMASTER ELECTRIC Bình An,"Ninh Xá, Ninh Sở, Thường Tín, Hà Nội",(024) 36821431                                ,Hà Nội,"Phụ Tùng Ô Tô, Phụ Tùng Xe Hơi"
Cửa Hàng Phụ Tùng Ô Tô 9 Nghĩa,"402A An Dương Vương, P.4, Q.5, Tp. Hồ Chí Minh (TPHCM)",01234275252                             ,Tp Hcm,"Phụ Tùng Ô Tô, Phụ Tùng Xe Hơi"
Công ty TNHH Dongguan Winfine Group,"Phòng 503, Tầng 5, Tòa nhà Fangzhong, Số 55, Đại lộ Đông Thành, Cộng đồng Xingtang, Phố Guancheng, Thành phố Đông Quan ",+86 13686040421                         ,,"Phụ Tùng Ô Tô, Phụ Tùng Xe Hơi"
Công Ty TNHH Gia An,"16/6, Kp. 8, P. Tân Phong, Tp. Biên Hòa, Đồng Nai",(0251) 8822432                                 ,Đồng Nai,"Phụ Tùng Ô Tô, Phụ Tùng Xe Hơi"
Công Ty TNHH TM Cơ Khí Vận Tải Du Lịch Hoàng Long,"2443 KP 7,Quốc Lộ 1A, P. Đông Hưng Thuận, Q. 12, Tp. Hồ Chí Minh (TPHCM)",(028) 37159597                                ,Tp Hcm,"Phụ Tùng Ô Tô, Phụ Tùng Xe Hơi"
Công Ty CP Vận Tải TM Và ĐT An Việt,"Km 12+300 Quốc Lộ 1A, X. Vĩnh Quỳnh, H. Thanh Trì, Hà Nội","(024) 38615380, 36870004                      ",Hà Nội,"Phụ Tùng Ô Tô, Phụ Tùng Xe Hơi"
Công Ty TNHH XNK Thiên Minh Autosafety,"Số 88 Khúc Thừa Dụ, P. Dịch Vọng, Q. Cầu Giấy, Hà Nội",0828300714                              ,Hà Nội,"Phụ Tùng Ô Tô, Phụ Tùng Xe Hơi"
Công Ty Cổ Phần Thiết Bị Máy Công Trình á Châu,"Lô 2, CN8, Cụm công nghiệp Ngọc Hồi, Xã Ngọc Hồi, Huyện Thanh Trì, Tp. Hồ Chí Minh (TPHCM)",0966661667                              ,Tp Hcm,"Phụ Tùng Ô Tô, Phụ Tùng Xe Hơi"
Đức Lâm Auto - Công Ty Cổ Phần Vật Tư Hạ Long,"378B Đường Lê Thánh Tông, Q. Ngô Quyền, Tp. Hải Phòng",(0225) 3555588                                 ,Hải Phòng,"Phụ Tùng Ô Tô, Phụ Tùng Xe Hơi"
ốc Vít Bulong AnchorFast - Công Ty TNHH Anchor Fasteners Việt Nam,"Lô V3, KCN Mỹ Xuân A2, Lô V3, H. Tân Thành, Bà Rịa-Vũng Tàu",(0254) 3899452                                 ,Bà Rịa-Vũng Tàu,"Phụ Tùng Ô Tô, Phụ Tùng Xe Hơi"
Công Ty TNHH XNK Thiết Bị An Mai,"Tòa nhà Diamond, Số 4, Đường 2D Nối Dài, KDC Nam Hùng Vương, P. An Lạc, Q. Bình Tân, Tp. Hồ Chí Minh (TPHCM)",(028) 6677 5174                               ,Tp Hcm,"Phụ Tùng Ô Tô, Phụ Tùng Xe Hơi"
Công Ty TNHH Phụ Tùng Ô Tô Jiangyin Fangchen,"567 Đường Yungu, Thị trấn Chu Trang, Giang Âm, Giang Tô",(+86) 1855 207 3983                           ,Giang Tô,"Phụ Tùng Ô Tô, Phụ Tùng Xe Hơi"
Công Ty TNHH Kinh Doanh Tổng Hợp Ân Điển,"96 Điện Biên Phủ, Q. Thanh Khê, Tp. Đà Nẵng",(0236) 3712969                                 ,Đà Nẵng,"Phụ Tùng Ô Tô, Phụ Tùng Xe Hơi"
Công Ty TNHH Đầu Tư Thương Mại Minh Long,"Số 724 Đường Hà Huy Tập, Xóm Mới, X. Thạch Bình, TP. Hà Tĩnh, Hà Tĩnh","0915410489, 0916296168                  ",Hà Tĩnh,"Phụ Tùng Ô Tô, Phụ Tùng Xe Hơi"
Công Ty Cổ Phần Lốp Xe Việt,"183 Đồng Văn Cống, P. Thạnh Mỹ Lợi, Q. 2, Tp. Hồ Chí Minh (TPHCM)",(028) 22060606                                ,Tp Hcm,"Phụ Tùng Ô Tô, Phụ Tùng Xe Hơi"
Công Ty TNHH Phụ Tùng Ô Tô Mạnh Hùng,"Kho H7 TTDV Cơ Điện, Ngọc Hồi, Tứ Hiệp, Thanh Trì, Hà Nội",(024) 32006653                                ,Hà Nội,"Phụ Tùng Ô Tô, Phụ Tùng Xe Hơi"
Công Ty TNHH Việt Thái ECO,"Số 7,  Ngõ 214 Nguyễn Xiển, Q. Thanh Xuân, Hà Nội",0911268365                              ,Hà Nội,"Phụ Tùng Ô Tô, Phụ Tùng Xe Hơi"
Công Ty TNHH TM - VT - DL Hoàng Long,"QL 1A, Q. 12, Tp. Hồ Chí Minh (TPHCM)",(028) 38918754                                ,Tp Hcm,"Phụ Tùng Ô Tô, Phụ Tùng Xe Hơi"
Công Ty TNHH Máy Và Dịch Vụ TZ Việt Nam,"Số 1/1 Huỳnh Văn Nghệ, Phường Phúc Đồng, Quận Long Biên, Hà Nội",(024) 37585154                                ,Hà Nội,"Phụ Tùng Ô Tô, Phụ Tùng Xe Hơi"
Công Ty Cổ Phần Công Nghệ Viview Việt Nam,"Tầng 6, Tòa nhà Bưu Điện Đại Kim, Lô 14 Nguyễn Cảnh Dị, P. Đại Kim, Q. Hoàng Mai, Hà Nội",(024) 73043939                                ,Hà Nội,"Phụ Tùng Ô Tô, Phụ Tùng Xe Hơi"
Công Ty Phụ Tùng Ôtô CPA,"Số 14, Ngõ 279 Trần Khát Trân, Hai Bà Trưng Hà Nội",0986829800                              ,Hà Nội,"Phụ Tùng Ô Tô, Phụ Tùng Xe Hơi"
Công Ty TNHH Thiết Bị Công Nghiệp Quyết Thắng,"Số 82, Đường 44 Trường Đình Hội, P. 16, Q. 8, Tp. Hồ Chí Minh (TPHCM)",(028) 38806886                                ,Tp Hcm,"Phụ Tùng Ô Tô, Phụ Tùng Xe Hơi"
Công Ty Cổ Phần ELEMASTER ELECTRIC Bình An,"Ninh Xá, Ninh Sở, Thường Tín, Hà Nội",(024) 36821431  Hotline: 0975.194.969     ,Hà Nội,"Phụ Tùng Ô Tô, Phụ Tùng Xe Hơi"
Công Ty TNHH TOYO USA,"20 Đường 41, P. Tân Phong, Q. 7, Tp. Hồ Chí Minh (TPHCM)",(028) 54332339                                ,Tp Hcm,"Phụ Tùng Ô Tô, Phụ Tùng Xe Hơi"
Công Ty TNHH HTAUTO Việt Nam,"Số 10 Ngõ Huế, Hai Bà Trưng, Hà Nội",(024) 39781304                                ,Hà Nội,"Phụ Tùng Ô Tô, Phụ Tùng Xe Hơi"
Công Ty Cổ Phần Xuất Nhập Khẩu Máy Và Phụ Tùng,"Số 558 Nguyễn Văn Cừ, Q. Long Biên Hà Nội",(024) 38271722                                ,Hà Nội,"Phụ Tùng Ô Tô, Phụ Tùng Xe Hơi"
"VPĐD Dalim Special Vehicle Co., Ltd","203 Lô A, KCN. Tân Bình, Đường C8, P. Tây Thạnh, Q. Tân Phú, Tp. Hồ Chí Minh (TPHCM)",0903740909                              ,Tp Hcm,"Phụ Tùng Ô Tô, Phụ Tùng Xe Hơi"
Showroom Nội Thất Ô Tô Đông Anh,"21 Trương Định, P. Tân Mai. Tp. Biên Hòa, Đồng Nai",0975967989                              ,Đồng Nai,"Phụ Tùng Ô Tô, Phụ Tùng Xe Hơi"
Elma Việt Nam - Công Ty TNHH Công Nghiệp Elma Việt Nam,"Khu Công Nghiệp Nhơn Trạch 1, H. Nhơn Trạch, Đồng Nai",(0251) 3560088                                 ,Đồng Nai,"Phụ Tùng Ô Tô, Phụ Tùng Xe Hơi"
Công Ty TNHH TM Sài Gòn Parts,"23/11 Đường 27, KP 9, P. Hiệp Bình Chánh, Q. Thủ Đức, Tp. Hồ Chí Minh (TPHCM)","(028) 73053789, Hotline: 0971229329           ",Tp Hcm,"Phụ Tùng Ô Tô, Phụ Tùng Xe Hơi"
Đức Lâm Auto - Công Ty Cổ Phần Vật Tư Hạ Long,"378B Đường Lê Thánh Tông, Q. Ngô Quyền, Tp. Hải Phòng",(0225) 3555588                                 ,Hải Phòng,"Phụ Tùng Ô Tô, Phụ Tùng Xe Hơi"
Công ty TNHH Phát Triển Xây Dựng và Thương Mại,"Số 10, Đường 2A, KCN Biên Hoà 2, P. Long Bình Tân, TP. Biên Hoà, Đồng Nai",0967779886                              ,Đồng Nai,"Phụ Tùng Ô Tô, Phụ Tùng Xe Hơi"
ARMAN SANAT FAJR Co.,"Đường Ladan, Quảng trường Sanat, TP. Nazarabad City, Sajbolagh, Alborz",+98 4533 3190 026                       ,Alborz,"Phụ Tùng Ô Tô, Phụ Tùng Xe Hơi"
Cửa Hàng Phụ Tùng Ô Tô Khánh Hiền,"31/4 đường 160, P. Tăng Nhơn Phú A, Q. 9, Tp. Hồ Chí Minh (TPHCM)",0969 515 338                            ,Tp Hcm,"Phụ Tùng Ô Tô, Phụ Tùng Xe Hơi"
Công Ty TNHH Đầu Tư Và TM Việt Thái Meco,"Võ Thị Sáu, Hai Bà Trưng, Hà Nội",0865601326                              ,Hà Nội,"Phụ Tùng Ô Tô, Phụ Tùng Xe Hơi"
Công Ty Cổ Phần ELEMASTER ELECTRIC Bình An,"Ninh Xá, Ninh Sở, Thường Tín, Hà Nội",(024) 36821431                                ,Hà Nội,"Phụ Tùng Ô Tô, Phụ Tùng Xe Hơi"
Chi Nhánh Công Ty CP Lốp Xe Viettire An Phú - Cửa Hàng Viettire An Phú,"E9/33A, Quốc Lộ 1A, Kp. 5, TT. Tân Túc, H. Bình Chánh, Tp. Hồ Chí Minh (TPHCM)",(028) 37607189                                ,Tp Hcm,"Phụ Tùng Ô Tô, Phụ Tùng Xe Hơi"
Cty Yamaha Motor Việt Nam TNHH-Cn Hà Nội,"Tầng 10, Số 127 Lò Đúc, P. Lê Đại Hành, Q. Hai Bà Trưng, Hà Nội",(024) 39714427                                ,Hà Nội,"Phụ Tùng Ô Tô, Phụ Tùng Xe Hơi"
Công ty TNHH MTV TM Và Vận Tải Đỗ Gia,"Số 5 Dãy B11 Đầm Trấu, P. Bạch Đằng, Q. Hai Bà Trưng, Hà Nội",(024) 77789789                                ,Hà Nội,"Phụ Tùng Ô Tô, Phụ Tùng Xe Hơi"
Việt Hàn - Công Ty TNHH Thương Mại & Dịch Vụ Kỹ Thuật Việt Hàn,"Khu Định Cư Định Công, C1 Lô 64,X. Đại Kim, Q. Hoàng Mai, Hà Nội",(024) 22163168                                ,Hà Nội,"Phụ Tùng Ô Tô, Phụ Tùng Xe Hơi"
Công Ty TNHH Ô Tô Và Thiết Bị Chuyên Dùng Sao Bắc,"km16+500, Quốc Lộ 5, TT. Như Quỳnh, H. Văn Lâm, Hưng Yên",0978417667                              ,Hưng Yên,"Phụ Tùng Ô Tô, Phụ Tùng Xe Hơi"
Doanh Nghiệp Tư Nhân Garage Ô Tô Đà Nẵng,"Tổ 6, Khu 2, P. Cửa Ông, Tp. Cẩm Phả, Quảng Ninh",(0203) 3950756                                 ,Quảng Ninh,"Phụ Tùng Ô Tô, Phụ Tùng Xe Hơi"
Nhâm Tuấn - Công Ty TNHH Nhâm Tuấn,"61 Đại La, Q. Hai Bà Trưng, Hà Nội",(024) 38698936                                ,Hà Nội,"Phụ Tùng Ô Tô, Phụ Tùng Xe Hơi"
Công Ty TNHH TM Và Đầu Tư Đức Hùng,"Đường Quang Trung, TK Diêm Hải, P. Phú Hải, TP. Đồng Hới, Quảng Bình",0943112255                              ,Quảng Bình,"Phụ Tùng Ô Tô, Phụ Tùng Xe Hơi"
Sài Gòn Ô Tô Cần Thơ - Công Ty Cổ Phần Đầu Tư Thương Mại Dịch Vụ Sài Gòn Ô Tô Cần Thơ,"Lô 11C, Đường Võ Nguyên Giáp, P. Phú Thứ, Q. Cái Răng, Tp. Cần Thơ",(0292) 3730720                                 ,Tp. Cần Thơ,"Phụ Tùng Ô Tô, Phụ Tùng Xe Hơi"
Công Ty TNHH Bình Minh Auto,"Số 40A, Đường Nam Hòa, P. Phước Long A, Q. 9, Tp. Hồ Chí Minh (TPHCM)",0937833783                              ,Tp Hcm,"Phụ Tùng Ô Tô, Phụ Tùng Xe Hơi"
Công Ty TNHH Thương Mại Xuất Nhập Khẩu T&M Việt Nam,"Số Nhà 54, Tổ 21, TT. Đông Anh, H. Đông Anh, Hà Nội",0948101055                              ,Hà Nội,"Phụ Tùng Ô Tô, Phụ Tùng Xe Hơi"
Công Ty TNHH Thiết Bị Công Nghiệp Quyết Thắng,"Số 82, Đường 44 Trường Đình Hội, P. 16, Q. 8, Tp. Hồ Chí Minh (TPHCM)",(028) 38806886                                ,Tp Hcm,"Phụ Tùng Ô Tô, Phụ Tùng Xe Hơi"
Công Ty CP Toyota Bình Dương,"Lô C13A, Đường Hùng Vương, P. Hòa Phú, TP. Thủ Dầu Một, Bình Dương",1900633697                              ,Bình Dương,"Phụ Tùng Ô Tô, Phụ Tùng Xe Hơi"
Trung tâm phụ tùng ô tô Tú Dzung,"Số 16/343 Trần Khát Chân, Hai Bà Trưng (16 Phố Lạc Nghiệp mới), Hà Nội",(024) 39729347                                ,Hà Nội,"Phụ Tùng Ô Tô, Phụ Tùng Xe Hơi"
Công Ty TNHH Gia An,"16/6, Kp. 8, P. Tân Phong, Tp. Biên Hòa, Đồng Nai",(0251) 8822432                                 ,Đồng Nai,"Phụ Tùng Ô Tô, Phụ Tùng Xe Hơi"
Công Ty Phụ Tùng Ô Tô Hoàng Duy,"Số 15D/130 Nguyễn Khoái, P. Thanh Lương, Q. Hai Bà Trưng, Hà Nội",(024) 39874699                                ,Hà Nội,"Phụ Tùng Ô Tô, Phụ Tùng Xe Hơi"
Công Ty TNHH Thương Mại Dịch Vụ Sản Xuất Hy Thịnh,"100 Trần Đại Nghĩa, P. Tân Tạo A, Q. Bình Tân, Tp. Hồ Chí Minh (TPHCM)",(028) 37562311                                ,Tp Hcm,"Phụ Tùng Ô Tô, Phụ Tùng Xe Hơi"
Cửa Hàng Phụ Tùng Ô Tô Dương Gia,"53 Kinh Dương Vương, P. 12, Q. 6, Tp. Hồ Chí Minh (TPHCM)",(028) 38750187                                ,Tp Hcm,"Phụ Tùng Ô Tô, Phụ Tùng Xe Hơi"
Công Ty TNHH Ô Tô Hoa Tài Thành Nam,"268 Thôn Thái Hòa, X. Hồng Thái, H. Bắc Bình, Bình Thuận",0903363840                              ,Bình Thuận,"Phụ Tùng Ô Tô, Phụ Tùng Xe Hơi"
Công Ty TNHH Sản Xuất - Thương Mại Vi Khang,"989/32/11 Lê Đức Thọ, P.16, Q.Gò Vấp,		 Tp. Hồ Chí Minh (TPHCM)",(028) 37960636                                ,Tp Hcm,"Phụ Tùng Ô Tô, Phụ Tùng Xe Hơi"
Cửa Hàng Phụ Tùng Ô Tô Ngọc Hiếu,"100 Lê Gia Định, P. Đông Nhân, Hai Bà Trưng, Hà Nội",(024) 39766578                                ,Hà Nội,"Phụ Tùng Ô Tô, Phụ Tùng Xe Hơi"
Kính Ô Tô - Công Ty Cổ Phần Hồ Lê,"Số 598 Đường Bưởi, P. Cống Vị, Q. Ba Đình, Hà Nội",(024) 39954480                                ,Hà Nội,"Phụ Tùng Ô Tô, Phụ Tùng Xe Hơi"
Công Ty TNHH Thương Mại Năm Sáng,"158 Lê Hồng Phong, P. 3, Q. 5, Tp. Hồ Chí Minh (TPHCM)","(028) 39235172, 0936555105                    ",Tp Hcm,"Phụ Tùng Ô Tô, Phụ Tùng Xe Hơi"
Phụ Tùng Chevrolet Liên Phương,"Số 20 Ngõ Bệ, P. 13, Q. Tân Bình, Tp. Hồ Chí Minh (TPHCM)",0909907588                              ,Tp Hcm,"Phụ Tùng Ô Tô, Phụ Tùng Xe Hơi"
Công Ty TNHH Phụ Tùng Ô Tô Autolink,"46/3E Nguyễn ảnh Thủ, ấp Hậu Lân, X. Bà Điểm, H. Hóc Môn, Tp. Hồ Chí Minh (TPHCM)",62548905                                ,Tp Hcm,"Phụ Tùng Ô Tô, Phụ Tùng Xe Hơi"
Công Ty TNHH Việt Khánh,"222 Đường Trần Đăng Ninh, Tp. Sơn La, Sơn La",(0212) 3856029                                 ,Sơn La,"Phụ Tùng Ô Tô, Phụ Tùng Xe Hơi"
Công Ty TNHH FIX AUTO Việt Nam,"Số 6, Đội 8, Xóm Lan Đình, Thôn My Thượng, Xã Thanh Mai, Huyện Thanh Oai, Hà Nội",0904775440                              ,Hà Nội,"Phụ Tùng Ô Tô, Phụ Tùng Xe Hơi"
Công Ty Cổ Phần Đầu Tư Thương Mại An Đô,"Số 168 Phạm Văn Đồng, P. Xuân Đỉnh, Q. Bắc Từ Liêm, Hà Nội",0989230230                              ,Hà Nội,"Phụ Tùng Ô Tô, Phụ Tùng Xe Hơi"
Công Ty CP Đầu Tư Huy Trung,"Lô 19B, Số 3 – 5 Nguyễn Văn Linh, Q. Long Biên, Hà Nội","0898835835, 0853532011                  ",Hà Nội,"Phụ Tùng Ô Tô, Phụ Tùng Xe Hơi"
Công Ty Cổ Phần Đầu Tư Thương Mại Dịch Vụ Công Nghiệp TKV,"22/276 Tổ 11, Đại Từ, Đại Kim, Q. Hoàng Mai, Hà Nội",(024) 39942791                                ,Hà Nội,"Phụ Tùng Ô Tô, Phụ Tùng Xe Hơi"
Cửa Hàng Kỹ Thuật ô Tô Đa Lộc,"190/35 Nguyễn Tiểu La, P. 8, Q. 10, Tp. Hồ Chí Minh (TPHCM)",0907116468                              ,Tp Hcm,"Phụ Tùng Ô Tô, Phụ Tùng Xe Hơi"
Công Ty TNHH MTV Thương Mại Dịch Vụ Ô Tô Tuấn,"426 – 428 An Dương Vương, Phường 4, Quận 5, Tp. Hồ Chí Minh (TPHCM)",(028) 62761215                                ,Tp Hcm,"Phụ Tùng Ô Tô, Phụ Tùng Xe Hơi"
Công Ty Cổ Phần Xuất Nhập Khẩu Nghệ An,"Số 15, Đường Quang Trung, P. Quang Trung, TP. Vinh, Nghệ An",(0238) 853113                                  ,Nghệ An,"Phụ Tùng Ô Tô, Phụ Tùng Xe Hơi"
Công Ty Cổ Phần Công Nghệ Viview Việt Nam,"Tầng 6, Tòa nhà Bưu Điện Đại Kim, Lô 14 Nguyễn Cảnh Dị, P. Đại Kim, Q. Hoàng Mai, Hà Nội",(024) 73043939                                ,Hà Nội,"Phụ Tùng Ô Tô, Phụ Tùng Xe Hơi"
LAUNCH TECH Việt Nam - Công Ty TNHH Giải Pháp Ô Tô,"Số 65B ngõ 323/83 Xuân Đỉnh, P. Xuân Đỉnh, Q. Bắc Từ Liêm, Hà Nội","(024) 66599730, 0852205599                    ",Hà Nội,"Phụ Tùng Ô Tô, Phụ Tùng Xe Hơi"
Công Ty TNHH Công Nghiệp Hồng Hà PT,"435 Trần Khát Chân, P. Thanh Nhàn, Q. Hai Bà Trưng, Hà Nội Hà Nội",(024) 66556655                                ,Hà Nội,"Phụ Tùng Ô Tô, Phụ Tùng Xe Hơi"
Công Ty CP Đầu Tư Huy Trung,"Lô 19B, Số 3 – 5 Nguyễn Văn Linh, Q. Long Biên, Hà Nội","0898835835, 0853532011                  ",Hà Nội,"Phụ Tùng Ô Tô, Phụ Tùng Xe Hơi"
"Bueno Optoelectronics Co., Ltd","Số 1-3, Madoukou, Quận Madou, Đài Nam, Đài Loan",+886 6 570 0189                         ,Đài Loan,"Phụ Tùng Ô Tô, Phụ Tùng Xe Hơi"
Xe Hơi Thủ Đức,"642C Quốc Lộ 13, P. Hiệp Bình Phước, Q. Thủ Đức, Tp. Hồ Chí Minh (TPHCM)",0948629720                              ,Tp Hcm,"Phụ Tùng Ô Tô, Phụ Tùng Xe Hơi"
Công Ty TNHH Tony Wheel Sport,"18 Nguyễn Thái Học, P. Cầu Ông Lãng, Q. 1, Tp. Hồ Chí Minh (TPHCM)",0938388830                              ,Tp Hcm,"Phụ Tùng Ô Tô, Phụ Tùng Xe Hơi"
Cường Nga - Công Ty TNHH Thương Mại Xuất Nhập Khẩu Cường Nga,"128 Mã Lò, P. Bình Trị Đông A, Q. Bình Tân, Tp. Hồ Chí Minh (TPHCM)",(028) 38337447                                ,Tp Hcm,"Phụ Tùng Ô Tô, Phụ Tùng Xe Hơi"
Công Ty CP Ô Tô Con Đường Mới,"Số 358 Đường Láng, Phường Thịnh Quang, Q. Đống Đa, Hà Nội",(024) 35627777                                ,Hà Nội,"Phụ Tùng Ô Tô, Phụ Tùng Xe Hơi"
Công Ty TNHH Đầu Tư XNK Nguyễn Quang,"327 Trần Bình Trọng, P.4, Q.5, Tp. Hồ Chí Minh (TPHCM)",(028) 38338977                                ,Tp Hcm,"Phụ Tùng Ô Tô, Phụ Tùng Xe Hơi"
Công Ty TNHH X.E Việt Nam,"Số 10 ngõ 15 Ngọc Hồi, Hoàng Mai, Hà Nội",(024) 36815722                                ,Hà Nội,"Phụ Tùng Ô Tô, Phụ Tùng Xe Hơi"
Công ty TNHH Dongguan Winfine Group,"Phòng 503, Tầng 5, Tòa nhà Fangzhong, Số 55, Đại lộ Đông Thành, Cộng đồng Xingtang, Phố Guancheng, Thành phố Đông Quan ",+86 13686040421                         ,,"Phụ Tùng Ô Tô, Phụ Tùng Xe Hơi"
Công Ty TNHH TM DV Ô Tô Tân Hoàn Cầu,"252 QL 13, P. Hiệp Bình Chánh, Q. Thủ Đức, Tp. Hồ Chí Minh (TPHCM)",19007027                                ,Tp Hcm,"Phụ Tùng Ô Tô, Phụ Tùng Xe Hơi"
Phụ Tùng Ô Tô Chí Thảo,"Số 10, Ngõ 43 Đồng Nhân, Hai Bà Trưng, Hà Nội",(024) 39953303                                ,Hà Nội,"Phụ Tùng Ô Tô, Phụ Tùng Xe Hơi"
Công Ty TNHH Công Nghiệp Phú Kim,"Số 1/1, Đường Huỳnh Văn Nghệ, P. Phúc Đồng, Q. Long Biên, Hà Nội","0976762406, 0902218773                  ",Hà Nội,"Phụ Tùng Ô Tô, Phụ Tùng Xe Hơi"
Công Ty TNHH Tuấn Phong Auto,"409/108/10/20 Đường Huỳnh Thị Hai, P. Tân Chánh Hiệp, Q. 12, Tp. Hồ Chí Minh (TPHCM)",0935239414                              ,Tp Hcm,"Phụ Tùng Ô Tô, Phụ Tùng Xe Hơi"
Showroom Nội Thất Ô Tô Đông Anh,"21 Trương Định, P. Tân Mai. Tp. Biên Hòa, Đồng Nai",0975967989                              ,Đồng Nai,"Phụ Tùng Ô Tô, Phụ Tùng Xe Hơi"
Sài Gòn Ô Tô Cần Thơ - Công Ty Cổ Phần Đầu Tư Thương Mại Dịch Vụ Sài Gòn Ô Tô Cần Thơ,"Lô 11C, Đường Võ Nguyên Giáp, P. Phú Thứ, Q. Cái Răng, Tp. Cần Thơ",(0292) 3730720                                 ,Tp. Cần Thơ,"Phụ Tùng Ô Tô, Phụ Tùng Xe Hơi"
Công Ty TNHH Thiết Bị Công Nghiệp Quyết Thắng,"Số 82, Đường 44 Trường Đình Hội, P. 16, Q. 8, Tp. Hồ Chí Minh (TPHCM)",(028) 38806886                                ,Tp Hcm,"Phụ Tùng Ô Tô, Phụ Tùng Xe Hơi"
Công Ty Cổ Phần Thiết Bị Máy Công Trình á Châu,"Lô 2, CN8, Cụm công nghiệp Ngọc Hồi, Xã Ngọc Hồi, Huyện Thanh Trì, Tp. Hồ Chí Minh (TPHCM)",0966661667                              ,Tp Hcm,"Phụ Tùng Ô Tô, Phụ Tùng Xe Hơi"
Công Ty TNHH Thương Mại Năm Sáng,"158 Lê Hồng Phong, P. 3, Q. 5, Tp. Hồ Chí Minh (TPHCM)","(028) 39235172, 0936555105                    ",Tp Hcm,"Phụ Tùng Ô Tô, Phụ Tùng Xe Hơi"
Công Ty TNHH Thịnh Việt,"Số 49 Đường 31F, KP. 5, P. An Phú, TP. Thủ Đức, Tp. Hồ Chí Minh (TPHCM)",0903999821                              ,Tp Hcm,"Phụ Tùng Ô Tô, Phụ Tùng Xe Hơi"
Công Ty Mercedes-Benz Tại Đà Nẵng,"113 Nguyễn Hữu Thọ, Q. Hải Châu, Tp. Đà Nẵng",0931774444                              ,Đà Nẵng,"Phụ Tùng Ô Tô, Phụ Tùng Xe Hơi"
Công Ty TNHH MTV Thương Mại Dịch Vụ Ô Tô Tuấn,"426 – 428 An Dương Vương, Phường 4, Quận 5, Tp. Hồ Chí Minh (TPHCM)",(028) 62761215                                ,Tp Hcm,"Phụ Tùng Ô Tô, Phụ Tùng Xe Hơi"
Công Ty TNHH Đầu Tư Và TM Việt Thái Meco,"Võ Thị Sáu, Hai Bà Trưng, Hà Nội",0865601326                              ,Hà Nội,"Phụ Tùng Ô Tô, Phụ Tùng Xe Hơi"
Công Ty TNHH Kỹ Nghệ Felix,"Thôn Bắc, X. Lưu Kiếm, H. Thủy Nguyên, Tp. Hải Phòng",(0225) 3692194                                 ,Hải Phòng,"Phụ Tùng Ô Tô, Phụ Tùng Xe Hơi"
Công Ty TNHH Winny Việt Nam,"Đội 7, Hòe Thị, X. Xuân Phương, H. Từ Liêm, Hà Nội",(024) 22107022                                ,Hà Nội,"Phụ Tùng Ô Tô, Phụ Tùng Xe Hơi"
Nhâm Tuấn - Công Ty TNHH Nhâm Tuấn,"61 Đại La, Q. Hai Bà Trưng, Hà Nội",(024) 38698936                                ,Hà Nội,"Phụ Tùng Ô Tô, Phụ Tùng Xe Hơi"
Công Ty TNHH Dịch Vụ Kỹ Thuật Ô Tô Gia Định,"Hẻm 342 ( 201 - 203 số cũ ) Lý Thường Kiệt, P. 6, Q. Tân Bình, Tp. Hồ Chí Minh (TPHCM)",0932746748                              ,Tp Hcm,"Phụ Tùng Ô Tô, Phụ Tùng Xe Hơi"
Công Ty TNHH Việt Khánh,"222 Đường Trần Đăng Ninh, Tp. Sơn La, Sơn La",(0212) 3856029                                 ,Sơn La,"Phụ Tùng Ô Tô, Phụ Tùng Xe Hơi"
Công Ty Cổ Phần Đầu Tư TM & XNK Đức Thịnh,"Số 16A, Ngõ 89, Phố Quan Nhân, P. Nhân Chính, Q. Thanh Xuân, Hà Nội",(024) 66881679                                ,Hà Nội,"Phụ Tùng Ô Tô, Phụ Tùng Xe Hơi"
Công Ty TNHH Xuất Nhập Khẩu TM Và DV Thành Dũng,"Số 10 hẻm 3/2/20 Thái Hà, P. Trung Liệt, Q. Đống Đa Hà Nội",0987823033                              ,Hà Nội,"Phụ Tùng Ô Tô, Phụ Tùng Xe Hơi"
Dầu Nhớt KTC - Công Ty Cổ Phần Dầu Nhớt KTC,"31 B Lê Thánh Tôn, P. Bến Nghé, Q. 1, Tp. Hồ Chí Minh (TPHCM)",0901313168                              ,Tp Hcm,"Phụ Tùng Ô Tô, Phụ Tùng Xe Hơi"
Công Ty TNHH Dịch Vụ Ô Tô Tiến Thành,"50D, Ngõ 2, Phố Lạc Nghiệp, Hai Bà Trưng, Hà Nội",(024) 0912469190                              ,Hà Nội,"Phụ Tùng Ô Tô, Phụ Tùng Xe Hơi"
Cửa Hàng Phụ Tùng Ô Tô Dương Gia,"53 Kinh Dương Vương, P. 12, Q. 6, Tp. Hồ Chí Minh (TPHCM)",(028) 38750187                                ,Tp Hcm,"Phụ Tùng Ô Tô, Phụ Tùng Xe Hơi"
Cửa Hàng Lốp - Lazang - ắc Quy Sơn Sự,"Số 805 Giải Phóng, Q. Hoàng Mai, Hà Nội",0966359055                              ,Hà Nội,"Phụ Tùng Ô Tô, Phụ Tùng Xe Hơi"
Công Ty Cổ Phần Xuất Nhập Khẩu Phụ Tùng Ô Tô Miền Bắc,"Số 16B, Ngõ 4, Đ. 800A, P. Nghĩa Đô, Q. Cầu Giấy, Hà Nội",(024) 62690072                                ,Hà Nội,"Phụ Tùng Ô Tô, Phụ Tùng Xe Hơi"
MTC AUTO - Công Ty Cổ Phần MTC Auto Việt Nam,"Km 12+300, Quốc lộ 1A, Xã Vĩnh Quỳnh, Huyện Thanh Trì, Hà Nội Hà Nội",(024) 37623963                                ,Hà Nội,"Phụ Tùng Ô Tô, Phụ Tùng Xe Hơi"
Công Ty TNHH TM Và Đầu Tư Đức Hùng,"Đường Quang Trung, TK Diêm Hải, P. Phú Hải, TP. Đồng Hới, Quảng Bình",0943112255                              ,Quảng Bình,"Phụ Tùng Ô Tô, Phụ Tùng Xe Hơi"
Cửa Hàng Phụ Tùng Ô Tô Ngọc Hiếu,"100 Lê Gia Định, P. Đông Nhân, Hai Bà Trưng, Hà Nội",(024) 39766578                                ,Hà Nội,"Phụ Tùng Ô Tô, Phụ Tùng Xe Hơi"
Công Ty Phụ Tùng Ô Tô Hoàng Duy,"Số 15D/130 Nguyễn Khoái, P. Thanh Lương, Q. Hai Bà Trưng, Hà Nội",(024) 39874699                                ,Hà Nội,"Phụ Tùng Ô Tô, Phụ Tùng Xe Hơi"
Trung Tâm Trang Trí Đồ Chơi Ô Tô Anh Thi (Phụ Tùng Ô TÔ Anh Thi),"397-399-401 An Dương Vương, P. 3, Q. 5, Tp. Hồ Chí Minh (TPHCM)","(028) 39381016, 0903863982                    ",Tp Hcm,"Phụ Tùng Ô Tô, Phụ Tùng Xe Hơi"
Công Ty TNHH Ô Tô Hoa Tài Thành Nam,"268 Thôn Thái Hòa, X. Hồng Thái, H. Bắc Bình, Bình Thuận",0903363840                              ,Bình Thuận,"Phụ Tùng Ô Tô, Phụ Tùng Xe Hơi"
Phụ Tùng Ô Tô Anh Khôi - Công Ty TNHH Thương Mại Dịch Vụ Kinh Doanh Phụ Tùng Ô Tô Anh Khôi,"678 Trường Chinh, P. 15, Q. Tân Bình, Tp. Hồ Chí Minh (TPHCM)",0909627678                              ,Tp Hcm,"Phụ Tùng Ô Tô, Phụ Tùng Xe Hơi"
Công Ty CP Toyota Bình Dương,"Lô C13A, Đường Hùng Vương, P. Hòa Phú, TP. Thủ Dầu Một, Bình Dương",1900633697                              ,Bình Dương,"Phụ Tùng Ô Tô, Phụ Tùng Xe Hơi"
Doanh Nghiệp Tư Nhân Thương Mại Dịch Vụ Kim Vĩnh Phát,"46 Phan Xích Long, P. 3, Q. Phú Nhuận, Tp. Hồ Chí Minh (TPHCM)",(028) 39900541                                ,Tp Hcm,"Phụ Tùng Ô Tô, Phụ Tùng Xe Hơi"
Công Ty TNHH Nội Ngoại Thất Ô Tô Trường An,"511-513 An Dương Vương, Q. 5, Tp. Hồ Chí Minh (TPHCM)",(028) 39381724                                ,Tp Hcm,"Phụ Tùng Ô Tô, Phụ Tùng Xe Hơi"
Công Ty TNHH Kỹ Nghệ Felix,"Thôn Bắc, X. Lưu Kiếm, H. Thủy Nguyên, Tp. Hải Phòng",(0225) 3692194                                 ,Hải Phòng,"Phụ Tùng Ô Tô, Phụ Tùng Xe Hơi"
MTC AUTO - Công Ty Cổ Phần MTC Auto Việt Nam,"Km 12+300, Quốc lộ 1A, Xã Vĩnh Quỳnh, Huyện Thanh Trì, Hà Nội Hà Nội",(024) 37623963                                ,Hà Nội,"Phụ Tùng Ô Tô, Phụ Tùng Xe Hơi"
Công Ty TNHH XNK Thiên Minh Autosafety,"Số 88 Khúc Thừa Dụ, P. Dịch Vọng, Q. Cầu Giấy, Hà Nội",0828300714                              ,Hà Nội,"Phụ Tùng Ô Tô, Phụ Tùng Xe Hơi"
Công Ty TNHH Phụ Tùng Ô Tô Autolink,"46/3E Nguyễn ảnh Thủ, ấp Hậu Lân, X. Bà Điểm, H. Hóc Môn, Tp. Hồ Chí Minh (TPHCM)",62548905                                ,Tp Hcm,"Phụ Tùng Ô Tô, Phụ Tùng Xe Hơi"
Công Ty Mercedes-Benz Tại Đà Nẵng,"113 Nguyễn Hữu Thọ, Q. Hải Châu, Tp. Đà Nẵng",0931774444                              ,Đà Nẵng,"Phụ Tùng Ô Tô, Phụ Tùng Xe Hơi"
Ô Tô Việt - Công Ty Cổ Phần Ô Tô Việt,"336 Lê Trọng Tấn, P. Tây Thạnh, Q. Tân Phú, Tp. Hồ Chí Minh (TPHCM)",(028) 38127979                                ,Tp Hcm,"Phụ Tùng Ô Tô, Phụ Tùng Xe Hơi"
Công Ty TNHH Công Nghiệp Hồng Hà PT,"435 Trần Khát Chân, P. Thanh Nhàn, Q. Hai Bà Trưng, Hà Nội Hà Nội",(024) 66556655                                ,Hà Nội,"Phụ Tùng Ô Tô, Phụ Tùng Xe Hơi"
Công Ty Cổ Phần Xuất Nhập Khẩu Máy Và Phụ Tùng,"Số 558 Nguyễn Văn Cừ, Q. Long Biên Hà Nội",(024) 38271722                                ,Hà Nội,"Phụ Tùng Ô Tô, Phụ Tùng Xe Hơi"
Công Ty TNHH Thương Mại Dịch Vụ Hoàng Nhật Tân,"37L Cư Xá  Phú Lâm D, Lý Chiêu Hoàng, Phường 10, Quận 6, Tp. Hồ Chí Minh (TPHCM)",(028) 62767086                                ,Tp Hcm,"Phụ Tùng Ô Tô, Phụ Tùng Xe Hơi"
Đức Lâm Auto - Công Ty Cổ Phần Vật Tư Hạ Long,"378B Đường Lê Thánh Tông, Q. Ngô Quyền, Tp. Hải Phòng",(0225) 3555588                                 ,Hải Phòng,"Phụ Tùng Ô Tô, Phụ Tùng Xe Hơi"
Công Ty TNHH Quang Tử,"Số 12 Ngõ 169/2/1 Thái Hà, P. Láng Hạ, Q. Đống Đa, Hà Nội",(024) 38574625                                ,Hà Nội,"Phụ Tùng Ô Tô, Phụ Tùng Xe Hơi"
Công Ty TNHH Phụ Tùng Ô Tô Hoàng Nguyên,"Số 335 Phố Trần Khát Chân, Phường Thanh Nhàn , Q. Hai Bà Trưng, Hà Nội","(024) 39764039, 0962036096                    ",Hà Nội,"Phụ Tùng Ô Tô, Phụ Tùng Xe Hơi"
Công Ty TNHH X.E Việt Nam,"Số 10 ngõ 15 Ngọc Hồi, Hoàng Mai, Hà Nội",(024) 36815722                                ,Hà Nội,"Phụ Tùng Ô Tô, Phụ Tùng Xe Hơi"
Công Ty TNHH CP DHU,"Số 20A, ngõ 175 Lạc Long Quân, Tổ 4, P. Nghĩa Đô, Q. Cầu Giấy, Hà Nội","0941468118, 0949886889                  ",Hà Nội,"Phụ Tùng Ô Tô, Phụ Tùng Xe Hơi"
"VPĐD Dalim Special Vehicle Co., Ltd","203 Lô A, KCN. Tân Bình, Đường C8, P. Tây Thạnh, Q. Tân Phú, Tp. Hồ Chí Minh (TPHCM)",0903740909                              ,Tp Hcm,"Phụ Tùng Ô Tô, Phụ Tùng Xe Hơi"
Việt Hàn - Công Ty TNHH Thương Mại & Dịch Vụ Kỹ Thuật Việt Hàn,"Khu Định Cư Định Công, C1 Lô 64,X. Đại Kim, Q. Hoàng Mai, Hà Nội",(024) 22163168                                ,Hà Nội,"Phụ Tùng Ô Tô, Phụ Tùng Xe Hơi"
Công Ty Phụ Tùng Ôtô CPA,"Số 14, Ngõ 279 Trần Khát Trân, Hai Bà Trưng Hà Nội",0986829800                              ,Hà Nội,"Phụ Tùng Ô Tô, Phụ Tùng Xe Hơi"
Công Ty TNHH Thương Mại Và Dịch Vụ Hợp Phát Phú Thọ,"Tổ 11, Khu Núi Trang, TT. Phong Châu, H. Phù Ninh, Phú Thọ",0967737393                              ,Phú Thọ,"Phụ Tùng Ô Tô, Phụ Tùng Xe Hơi"
Công Ty TNHH TM Sài Gòn Parts,"23/11 Đường 27, KP 9, P. Hiệp Bình Chánh, Q. Thủ Đức, Tp. Hồ Chí Minh (TPHCM)","(028) 73053789, Hotline: 0971229329           ",Tp Hcm,"Phụ Tùng Ô Tô, Phụ Tùng Xe Hơi"
Công Ty CP Công Nghệ Auto Châu á,"561 Nguyễn Văn Linh, Q. Long Biên, Hà Nội",0965825925                              ,Hà Nội,"Phụ Tùng Ô Tô, Phụ Tùng Xe Hơi"
Công Ty TNHH Xuất Nhập Khẩu TM Và DV Thành Dũng,"Số 10 hẻm 3/2/20 Thái Hà, P. Trung Liệt, Q. Đống Đa Hà Nội",0987823033                              ,Hà Nội,"Phụ Tùng Ô Tô, Phụ Tùng Xe Hơi"
ARMAN SANAT FAJR Co.,"Đường Ladan, Quảng trường Sanat, TP. Nazarabad City, Sajbolagh, Alborz",+98 4533 3190 026                       ,Alborz,"Phụ Tùng Ô Tô, Phụ Tùng Xe Hơi"
Công Ty TNHH Winny Việt Nam,"Đội 7, Hòe Thị, X. Xuân Phương, H. Từ Liêm, Hà Nội",(024) 22107022                                ,Hà Nội,"Phụ Tùng Ô Tô, Phụ Tùng Xe Hơi"
Công Ty Cổ Phần Đầu Tư Thương Mại An Đô,"Số 168 Phạm Văn Đồng, P. Xuân Đỉnh, Q. Bắc Từ Liêm, Hà Nội",0989230230                              ,Hà Nội,"Phụ Tùng Ô Tô, Phụ Tùng Xe Hơi"
Chi Nhánh Công Ty CP Lốp Xe Viettire An Phú - Cửa Hàng Viettire An Phú,"E9/33A, Quốc Lộ 1A, Kp. 5, TT. Tân Túc, H. Bình Chánh, Tp. Hồ Chí Minh (TPHCM)",(028) 37607189                                ,Tp Hcm,"Phụ Tùng Ô Tô, Phụ Tùng Xe Hơi"
Công Ty Cổ Phần Đầu Tư TM & XNK Đức Thịnh,"Số 16A, Ngõ 89, Phố Quan Nhân, P. Nhân Chính, Q. Thanh Xuân, Hà Nội",(024) 66881679                                ,Hà Nội,"Phụ Tùng Ô Tô, Phụ Tùng Xe Hơi"
Công Ty Cổ Phần ELEMASTER ELECTRIC Bình An,"Ninh Xá, Ninh Sở, Thường Tín, Hà Nội",(024) 36821431                                ,Hà Nội,"Phụ Tùng Ô Tô, Phụ Tùng Xe Hơi"
Công Ty Cổ Phần Xuất Nhập Khẩu Phụ Tùng Ô Tô Miền Bắc,"Số 16B, Ngõ 4, Đ. 800A, P. Nghĩa Đô, Q. Cầu Giấy, Hà Nội",(024) 62690072                                ,Hà Nội,"Phụ Tùng Ô Tô, Phụ Tùng Xe Hơi"
Công Ty TNHH Nguyễn Danh Sài Gòn,"336/50A Phan Văn Trị, P. 11, Q. Bình Thạnh, Tp. Hồ Chí Minh (TPHCM)",(028) 62853193                                ,Tp Hcm,"Phụ Tùng Ô Tô, Phụ Tùng Xe Hơi"
Cửa Hàng Kỹ Thuật ô Tô Đa Lộc,"190/35 Nguyễn Tiểu La, P. 8, Q. 10, Tp. Hồ Chí Minh (TPHCM)",0907116468                              ,Tp Hcm,"Phụ Tùng Ô Tô, Phụ Tùng Xe Hơi"
Công Ty TNHH Cơ Khí TM Lực Sanh,"598 Nguyễn Chí Thanh, P. 7, Q. 11, Tp. Hồ Chí Minh (TPHCM)",(028) 38573426                                ,Tp Hcm,"Phụ Tùng Ô Tô, Phụ Tùng Xe Hơi"
Công Ty TNHH Máy Và Dịch Vụ TZ Việt Nam,"Số 1/1 Huỳnh Văn Nghệ, Phường Phúc Đồng, Quận Long Biên, Hà Nội",(024) 37585154                                ,Hà Nội,"Phụ Tùng Ô Tô, Phụ Tùng Xe Hơi"
Công ty TNHH MTV TM Và Vận Tải Đỗ Gia,"Số 5 Dãy B11 Đầm Trấu, P. Bạch Đằng, Q. Hai Bà Trưng, Hà Nội",(024) 77789789                                ,Hà Nội,"Phụ Tùng Ô Tô, Phụ Tùng Xe Hơi"
Công Ty TNHH Công Nghiệp Phú Kim,"Số 1/1, Đường Huỳnh Văn Nghệ, P. Phúc Đồng, Q. Long Biên, Hà Nội","0976762406, 0902218773                  ",Hà Nội,"Phụ Tùng Ô Tô, Phụ Tùng Xe Hơi"
Kính Ô Tô Minh Hoàng - Công Ty TNHH XNK Kinh Doanh Thương Mại Minh Hoàng,"561 Tam Trinh, Phường Hoàng Văn Thụ, Quận Hoàng Mai, Hà Nội","(024) 36343926, 0906146383                    ",Hà Nội,"Phụ Tùng Ô Tô, Phụ Tùng Xe Hơi"
Công Ty TNHH Thương Mại Dịch Vụ Thái Hòa Phát,"Số 765, ấp Ngũ Phúc, Quốc Lộ 1A, X. Hố Nai 3, H. Trảng Bom, Đồng Nai",(0251) 3985529                                 ,Đồng Nai,"Phụ Tùng Ô Tô, Phụ Tùng Xe Hơi"
Hyundai Kinh Công Ty TNHH Sài Gòn Ô Tô Nguyễn Quang,"701 Kinh Dương Vương, P. An Lạc, Q. Bình Tân, Tp. Hồ Chí Minh (TPHCM)",(028) 37555599                                ,Tp Hcm,"Phụ Tùng Ô Tô, Phụ Tùng Xe Hơi"
Cửa Hàng H&T Auto - Chuyên Độ Và Đổi Màu Nội Thất Ô Tô,"37 Đường số 2, P. Trường Thọ, TP. Thủ Đức, Tp. Hồ Chí Minh (TPHCM)",0559589533                              ,Tp Hcm,"Phụ Tùng Ô Tô, Phụ Tùng Xe Hơi"
Công Ty TNHH Thương Mại - Dịch Vụ Dân Sinh B.A,"Số 1H/1, KP. 1, P. Bình Đa, Tp. Biên Hòa, Đồng Nai",(0251) 3813883                                 ,Đồng Nai,"Phụ Tùng Ô Tô, Phụ Tùng Xe Hơi"
Shop Phụ Tùng,"44 Bạch Vân, P. 5, Q. 5, Tp. Hồ Chí Minh (TPHCM)",0798901219                              ,Tp Hcm,"Phụ Tùng Ô Tô, Phụ Tùng Xe Hơi"
Cửa Hàng Phụ Tùng Ô Tô Sáu Chiêu Điện Biên Phủ,"307 Điện Biên Phủ, P. 15, Q. Bình Thạnh, Tp. Hồ Chí Minh (TPHCM)",(028) 38992877                                ,Tp Hcm,"Phụ Tùng Ô Tô, Phụ Tùng Xe Hơi"
Công Ty CP Dịch Vụ Ô Tô Bình Thuận,"Lô 4/3, Đường Số 4, KCN Phan Thiết 1, X. Phong Nẫm, TP. Phan Thiết, Bình Thuận",1900868635                              ,Bình Thuận,"Phụ Tùng Ô Tô, Phụ Tùng Xe Hơi"
Công Ty Cổ Phần Ô Tô Tata - Chi Nhánh TP. HCM,"1456 QL 1A, P. Thới An, Q. 12, Tp. Hồ Chí Minh (TPHCM)",0964354377                              ,Tp Hcm,"Phụ Tùng Ô Tô, Phụ Tùng Xe Hơi"
Công ty TNHH Công Nghiệp và Thương Mại July Hubei,"Tầng 4, Số 37, Đường Bailang Zhong, Thành phố Shiyan, Hubei",(+86) 13657190447                             ,Hubei,"Phụ Tùng Ô Tô, Phụ Tùng Xe Hơi"
Công Ty TNHH Giá Xe Ô Tô,"Số 1B Ngách 110/30, Đường Nguyễn Hoàng Tôn, Phường Phú Thượng, Quận Tây Hồ, Hà Nội",0988079989                              ,Hà Nội,"Phụ Tùng Ô Tô, Phụ Tùng Xe Hơi"
Công ty TNHH Phụ tùng Oto Qingdao Allmax,"Số 1 Đường Cửu Hà, Khu Công nghiệp Tiểu Lưu, Hành Thủy Hà Bắc",(+86) 53285654566                             ,Hà Bắc,"Phụ Tùng Ô Tô, Phụ Tùng Xe Hơi"
Công Ty TNHH Thương Mại và Du Lịch Thịnh Long,"Tổ 1 Yên Tân, P. Ngọc Thuỵ, Q. Long Biên, Hà Nội",(024) 8733968                                 ,Hà Nội,"Phụ Tùng Ô Tô, Phụ Tùng Xe Hơi"
Phụ Tùng Ô Tô Hữu Hạnh,"190/35 Nguyễn Tiểu La, P. 8, Q. 10, Tp. Hồ Chí Minh (TPHCM)",0945979600                              ,Tp Hcm,"Phụ Tùng Ô Tô, Phụ Tùng Xe Hơi"
Công Ty TNHH MTV TM Văn Huy Motor,"242/17A-242/17B Thoại Ngọc Hầu, P. Phú Thạnh, Q. Tân Phú, Tp. Hồ Chí Minh (TPHCM)",(028) 39737261                                ,Tp Hcm,"Phụ Tùng Ô Tô, Phụ Tùng Xe Hơi"
Phụ Tùng Ô Tô Thành Danh,"Ngã 3 Dầu Giây, X. Bàu Hàm 2, H. Thống Nhất, Đồng Nai",0972128424                              ,Đồng Nai,"Phụ Tùng Ô Tô, Phụ Tùng Xe Hơi"
Công Ty TNHH Phát Triển Thương Mại và Dịch Vụ Hoàng Huy,"25/4 Đường Số 3, Phường Bình An, Quận 2 Tp. Hồ Chí Minh (TPHCM)",0938 678 081                            ,Tp Hcm,"Phụ Tùng Ô Tô, Phụ Tùng Xe Hơi"
Doanh Nghiệp Tư Nhân Trịnh Võ Xuất Nhập Khẩu Thương Mại,"243 Thích Quảng Đức, P. 4, Q. Phú Nhuận, Tp. Hồ Chí Minh (TPHCM)",(028) 38456847                                ,Tp Hcm,"Phụ Tùng Ô Tô, Phụ Tùng Xe Hơi"
Ô Che Nắng Ô Tô,"46 Khu Phố 3, TT Hóc Môn, Tp. Hồ Chí Minh (TPHCM)",0938555693                              ,Tp Hcm,"Phụ Tùng Ô Tô, Phụ Tùng Xe Hơi"
Hyundai Kinh Công Ty TNHH Sài Gòn Ô Tô Nguyễn Quang,"701 Kinh Dương Vương, P. An Lạc, Q. Bình Tân, Tp. Hồ Chí Minh (TPHCM)",(028) 37555599                                ,Tp Hcm,"Phụ Tùng Ô Tô, Phụ Tùng Xe Hơi"
Công Ty TNHH Sơn Kim Anh,"Số 01 Hồ Ngọc Cẩn, Phường Tân Thành, Quận Tân Phú, Tp. Hồ Chí Minh (TPHCM)",(028) 62678296                                ,Tp Hcm,"Phụ Tùng Ô Tô, Phụ Tùng Xe Hơi"
Công Ty TNHH Đầu Tư Kỹ Thuật Thành Đạt,"748 Nguyễn Khoái, Quận Hoàng Mai, Hà Nội",0981558999                              ,Hà Nội,"Phụ Tùng Ô Tô, Phụ Tùng Xe Hơi"
Công Ty TNHH MTV Dragon Auto Speed,"435Q Phạm Văn Đồng, P. 11,Q. Bình Thạnh, Tp. Hồ Chí Minh",0906329986                              ,Tp. Hồ Chí Minh,"Phụ Tùng Ô Tô, Phụ Tùng Xe Hơi"
Phụ Tùng Ô Tô - Công Ty Cổ Phần ICV World (ICV World Group),"P.439 Tòa Nhà Thành Đạt 1, Số 3 Lê Thánh Tông, Phường Máy Tơ, Quận Ngô Quyền, Tp. Hải Phòng","1900 34 39, 0934 366 959                ",Hải Phòng,"Phụ Tùng Ô Tô, Phụ Tùng Xe Hơi"
Công Ty TNHH Phụ Tùng Ô Tô AEA,"Tầng Lửng, Cao &#7888c Đại Thanh Bình, 911-917 Nguyễn Trãi, P. 14, Q. 5, Tp. Hồ Chí Minh (TPHCM)",0904434434                              ,Tp Hcm,"Phụ Tùng Ô Tô, Phụ Tùng Xe Hơi"
Lốp Xe Hoàng Tiến Phát - Công Ty TNHH Thương Mại Dịch Vụ Xuất Nhập Khẩu Hoàng Tiến Phát,"80 Đường Số 2, KDC Vĩnh Lộc, P. Bình Hưng Hòa B, Q. Bình Tân, Tp. Hồ Chí Minh (TPHCM)",0977 904 888                            ,Tp Hcm,"Phụ Tùng Ô Tô, Phụ Tùng Xe Hơi"
Công Ty TNHH Thiết Bị Và Dịch Vụ Bảo Hà,"TDP Số 4, P. Phú Lãm, Q. Hà Đông, Hà Nội",0948810246                              ,Hà Nội,"Phụ Tùng Ô Tô, Phụ Tùng Xe Hơi"
Công Ty TNHH Xuất Nhập Khẩu Thiết Bị Công Nghiệp Thường Nam Phát,"K368/1 Nguyễn Phước Nguyên, P. An Khê, Q. Thanh Khê, Tp. Đà Nẵng",0905151538                              ,Đà Nẵng,"Phụ Tùng Ô Tô, Phụ Tùng Xe Hơi"
Kính Ô Tô Minh Hoàng - Công Ty TNHH XNK Kinh Doanh Thương Mại Minh Hoàng,"561 Tam Trinh, Phường Hoàng Văn Thụ, Quận Hoàng Mai, Hà Nội","(024) 36343926, 0906146383                    ",Hà Nội,"Phụ Tùng Ô Tô, Phụ Tùng Xe Hơi"
Công Ty TNHH Thương Mại Dịch Vụ Ngọc ẩn,"26 Gò Dưa, P. Tam Bình, Q. Thủ Đức, Tp. Hồ Chí Minh (TPHCM)",0903805462                              ,Tp Hcm,"Phụ Tùng Ô Tô, Phụ Tùng Xe Hơi"
Dây Curoa Hàm Long - Công Ty TNHH MTV Dịch Vụ Xây Dựng Hàm Long,"Khu Triều Thôn, Phường Nam Sơn, Thành Phố Bắc Ninh, Bắc Ninh",0974 311 366                            ,Bắc Ninh,"Phụ Tùng Ô Tô, Phụ Tùng Xe Hơi"
Công Ty Phụ Tùng Ô Tô Trường Thành,"405 Kim Ngưu, Q. Hai Bà Trưng, Hà Nội","(024) 35655999, 0962 833 995                  ",Hà Nội,"Phụ Tùng Ô Tô, Phụ Tùng Xe Hơi"
Công Ty TNHH Một Thành Viên Thương Mại Và Dịch Vụ Hương Hùng Thúy,"Số 502 Đường Ngọc Hồi, Ga Văn Điển, H. Thanh Trì, Hà Nội",(024) 36815891                                ,Hà Nội,"Phụ Tùng Ô Tô, Phụ Tùng Xe Hơi"
Sản Xuất Theo Đơn Đặt Hàng (Nhựa) - Công Ty TNHH Sản Xuất Linh Kiện Nhựa Thaco,"KCN Cơ Khí Ô Tô Chu Lai Trường Hải, Quảng Nam",Hotline: 0935.266.544                   ,Quảng Nam,"Phụ Tùng Ô Tô, Phụ Tùng Xe Hơi"
Công Ty Cổ Phần Suncar,"Khu Trại Giao, Đường Nguyễn Tất Thành, P. Khai Quang, TP. Vĩnh Yên, Vĩnh Phúc",0813365365                              ,Vĩnh Phúc,"Phụ Tùng Ô Tô, Phụ Tùng Xe Hơi"
Suzuki World,"Số 2 Phổ Quang, P. 2, Q. Tân Bình, Tp. Hồ Chí Minh (TPHCM)",0935154697                              ,Tp Hcm,"Phụ Tùng Ô Tô, Phụ Tùng Xe Hơi"
Cửa Hàng Phụ Tùng Ô Tô Sáu Chiêu Cộng Hòa,"305 Cộng Hòa, P. 13, Q. Tân Bình, Tp. Hồ Chí Minh (TPHCM)","(028) 38122683, 0969971075                    ",Tp Hcm,"Phụ Tùng Ô Tô, Phụ Tùng Xe Hơi"
Công ty TNHH Youngjin Auto Việt Nam,"10 VSIP II-A, Đường Hoà Bình, KCN Việt Nam-Singapore II-A, Xã Vĩnh Tân, Thị Xã Tân Uyên, Bình Dương","(0274) 2222323, 0982900698                     ",Bình Dương,"Phụ Tùng Ô Tô, Phụ Tùng Xe Hơi"
Bố Thắng Phú Nguyên,"71 Lạc Long Quân, P. 1, Q. 11, Tp. Hồ Chí Minh (TPHCM)",0906368879                              ,Tp Hcm,"Phụ Tùng Ô Tô, Phụ Tùng Xe Hơi"
Công Ty TNHH Thương Mại Toàn Cầu MKT,"Số 1 ngõ 2/29 đường Phương Canh, P. Xuân Phương, Q. Nam Từ Liêm, Hà Nội",0919293322                              ,Hà Nội,"Phụ Tùng Ô Tô, Phụ Tùng Xe Hơi"
Cửa Hàng Phụ Tùng Ô Tô Sáu Chiêu Điện Biên Phủ,"307 Điện Biên Phủ, P. 15, Q. Bình Thạnh, Tp. Hồ Chí Minh (TPHCM)",(028) 38992877                                ,Tp Hcm,"Phụ Tùng Ô Tô, Phụ Tùng Xe Hơi"
Xưởng Gia Công Cơ Khí Đột Dập Tuấn Mây,"KCN Thanh Thùy, Thôn Rùa Hạ , X. Thanh Thùy, H. Thanh Oai, Hà Nội",0988633746                              ,Hà Nội,"Phụ Tùng Ô Tô, Phụ Tùng Xe Hơi"
Công Ty The Coast,"300A Phan Chu Trinh, Bà Rịa-Vũng Tàu",0898885214                              ,Bà Rịa-Vũng Tàu,"Phụ Tùng Ô Tô, Phụ Tùng Xe Hơi"
Công Ty Cổ Phần Toyota Thăng Long - Đại Lý Toyota Thăng Long,"316 - 318 Cầu Giấy, Dịch Vọng, Q. Cầu Giấy, Hà Nội",0988777886                              ,Hà Nội,"Phụ Tùng Ô Tô, Phụ Tùng Xe Hơi"
Công Ty Cổ Phần Đầu Tư Thạch Kim - ThachkimAuto,"Số 13, LK2, 200 Đường 3 Tháng 2, Phường 11, Quận 10, Tp. Hồ Chí Minh (TPHCM)","0938009286,                             ",Tp Hcm,"Phụ Tùng Ô Tô, Phụ Tùng Xe Hơi"
Công ty TNHH Công Nghiệp và Thương Mại July Hubei,"Tầng 4, Số 37, Đường Bailang Zhong, Thành phố Shiyan, Hubei",(+86) 13657190447                             ,Hubei,"Phụ Tùng Ô Tô, Phụ Tùng Xe Hơi"
Công Ty TNHH XNK Phụ Tùng Ô Tô Đức Anh,"Số 16 Nguyễn Bồ, Thanh Trì, Hà Nội",0947888627                              ,Hà Nội,"Phụ Tùng Ô Tô, Phụ Tùng Xe Hơi"
Công Ty TNHH Thiết Bị Điện Tử  DAEWOO Việt Nam,"Khu Sản Xuất Tân Định, P. Tân Định, TX. Bến Cát, Bình Dương",(0274) 3560101Hotline: 0903 728 090        ,Bình Dương,"Phụ Tùng Ô Tô, Phụ Tùng Xe Hơi"
Auto Chengta,"401 An Dương Vương, P. 3, Q. 5, Tp. Hồ Chí Minh (TPHCM)",028) 39381016                           ,Tp Hcm,"Phụ Tùng Ô Tô, Phụ Tùng Xe Hơi"
Phụ Tùng Ô Tô Thuận Phát,"40/22 Trần Thị Nghĩ , P. 7 ,Q. Gò Vấp, Tp. Hồ Chí Minh (TPHCM)",0903652112                              ,Tp Hcm,"Phụ Tùng Ô Tô, Phụ Tùng Xe Hơi"
Công Ty Cổ Phần Ô Tô Tata - Chi Nhánh TP. HCM,"1456 QL 1A, P. Thới An, Q. 12, Tp. Hồ Chí Minh (TPHCM)",0964354377                              ,Tp Hcm,"Phụ Tùng Ô Tô, Phụ Tùng Xe Hơi"
Công ty CP Công nghệ Shijiazhuang Yaolun,"Khu A, huyện Dụ Hoa, Thạch Gia Trang, Hà Bắc",13191696556                             ,Hà Bắc,"Phụ Tùng Ô Tô, Phụ Tùng Xe Hơi"
Công Ty TNHH Thương Mại Ô Tô Chiến Quốc,"Số 9 Đ.CN6, P. Sơn Kỳ, Q. Tân Phú, Tp. Hồ Chí Minh (TPHCM)",(028) 38127817                                ,Tp Hcm,"Phụ Tùng Ô Tô, Phụ Tùng Xe Hơi"
Toyota Bắc Ninh,"Lô A Lê Thái Tổ, P. Võ Cường, Bắc Ninh",(0222) 3686666                                 ,Bắc Ninh,"Phụ Tùng Ô Tô, Phụ Tùng Xe Hơi"
Công Ty TNHH Kinh Doanh Vận Tải Tân Minh Toàn,"Lô 7B - 7C, Đường Lê Đại Hành, Q. Cẩm Lệ, Tp. Đà Nẵng",(0236) 3620235                                 ,Đà Nẵng,"Phụ Tùng Ô Tô, Phụ Tùng Xe Hơi"
Công Ty TNHH Xăng Dầu Vĩnh Phú,"Số 1 Bis, Đường 16A, KCN Biên Hòa 2, P. An Bình,TP. Biên Hòa, Đồng Nai",(0251) 3948948                                 ,Đồng Nai,"Phụ Tùng Ô Tô, Phụ Tùng Xe Hơi"
Trung TâmPhụ Tùng Ô Tô Thành Dũng,"211/281 Trần Khát Chân, Hai Bà Trưng, Hà Nội",0931029029                              ,Hà Nội,"Phụ Tùng Ô Tô, Phụ Tùng Xe Hơi"
Công Ty TNHH Sản Xuất Và Dịch Vụ Thương Mại Nhị Hồng,"Thôn 1, Đông Khê, Đông Sơn, Thanh Hóa",0962651420                              ,Thanh Hóa,"Phụ Tùng Ô Tô, Phụ Tùng Xe Hơi"
Công ty THHH MTV Đặng Hoàng Nguyên Phát,"1930 Nguyễn ái Quốc, P. Bửu Long, Q. Biên Hòa, Đồng Nai",0902367796                              ,Đồng Nai,"Phụ Tùng Ô Tô, Phụ Tùng Xe Hơi"
ô Tô Cheng Long - Công Ty TNHH ô Tô Cheng Long,"Đường Võ Nguyên Giáp, P. Phước Tân, TP. Biên Hòa, Đồng Nai","0977020959, 0985800200                  ",Đồng Nai,"Phụ Tùng Ô Tô, Phụ Tùng Xe Hơi"
Công ty TNHH Công Nghiệp và Thương Mại July Hubei,"Tầng 4, Số 37, Đường Bailang Zhong, Thành phố Shiyan, Hubei",(+86) 13657190447                             ,Hubei,"Phụ Tùng Ô Tô, Phụ Tùng Xe Hơi"
Công Ty TNHH Phát Triển Thương Mại và Dịch Vụ Hoàng Huy,"25/4 Đường Số 3, Phường Bình An, Quận 2 Tp. Hồ Chí Minh (TPHCM)",0938 678 081                            ,Tp Hcm,"Phụ Tùng Ô Tô, Phụ Tùng Xe Hơi"
Công Ty CP Dịch Vụ Ô Tô Bình Thuận,"Lô 4/3, Đường Số 4, KCN Phan Thiết 1, X. Phong Nẫm, TP. Phan Thiết, Bình Thuận",1900868635                              ,Bình Thuận,"Phụ Tùng Ô Tô, Phụ Tùng Xe Hơi"
Cửa Hàng Phụ Tùng Ô Tô Sáu Chiêu Điện Biên Phủ,"307 Điện Biên Phủ, P. 15, Q. Bình Thạnh, Tp. Hồ Chí Minh (TPHCM)",(028) 38992877                                ,Tp Hcm,"Phụ Tùng Ô Tô, Phụ Tùng Xe Hơi"
Auto Chengta,"401 An Dương Vương, P. 3, Q. 5, Tp. Hồ Chí Minh (TPHCM)",028) 39381016                           ,Tp Hcm,"Phụ Tùng Ô Tô, Phụ Tùng Xe Hơi"
Công Ty Cổ Phần Đầu Tư Thạch Kim - ThachkimAuto,"Số 13, LK2, 200 Đường 3 Tháng 2, Phường 11, Quận 10, Tp. Hồ Chí Minh (TPHCM)","0938009286,                             ",Tp Hcm,"Phụ Tùng Ô Tô, Phụ Tùng Xe Hơi"
Công Ty TNHH TM Và DV XNK Hoàng Phát,"Tầng 3, Số 20, Ngõ 85, Vũ Đức Thận, P. Việt Hưng, Q. Long Biên, Hà Nội",3632 0875                               ,Hà Nội,"Phụ Tùng Ô Tô, Phụ Tùng Xe Hơi"
Doanh Nghiệp Tư Nhân Trịnh Võ Xuất Nhập Khẩu Thương Mại,"243 Thích Quảng Đức, P. 4, Q. Phú Nhuận, Tp. Hồ Chí Minh (TPHCM)",(028) 38456847                                ,Tp Hcm,"Phụ Tùng Ô Tô, Phụ Tùng Xe Hơi"
Công Ty TNHH Đầu Tư Thương Mại Và XNK Ô Tô Bảo Ngọc,"Phòng 708, Tòa Nhà Sunrise Building 2, KĐT Sài Đồng Long Biên, Hà Nội",(024) 32005486                                ,Hà Nội,"Phụ Tùng Ô Tô, Phụ Tùng Xe Hơi"
Công Ty CP Ô Tô Miền Đồng AUTO,"79 Lý Thường Kiệt, Tân Bình, Tp. Hồ Chí Minh (TPHCM)","(028) 62737278, 0934074506                    ",Tp Hcm,"Phụ Tùng Ô Tô, Phụ Tùng Xe Hơi"
Shop Phụ Tùng,"44 Bạch Vân, P. 5, Q. 5, Tp. Hồ Chí Minh (TPHCM)",0798901219                              ,Tp Hcm,"Phụ Tùng Ô Tô, Phụ Tùng Xe Hơi"
Phụ Tùng Ô Tô Thuận Phát,"40/22 Trần Thị Nghĩ , P. 7 ,Q. Gò Vấp, Tp. Hồ Chí Minh (TPHCM)",0903652112                              ,Tp Hcm,"Phụ Tùng Ô Tô, Phụ Tùng Xe Hơi"
Công ty TNHH Youngjin Auto Việt Nam,"10 VSIP II-A, Đường Hoà Bình, KCN Việt Nam-Singapore II-A, Xã Vĩnh Tân, Thị Xã Tân Uyên, Bình Dương","(0274) 2222323, 0982900698                     ",Bình Dương,"Phụ Tùng Ô Tô, Phụ Tùng Xe Hơi"
Công Ty TNHH Phát Triển Thương Mại Và Dịch Vụ Đức Giang,"Xứ Đồng, Thành Ngạnh, P. Trung Sơn Trầm, TX. Sơn Tây, Ha Noi",(024) 33931773                                ,Ha Noi,"Phụ Tùng Ô Tô, Phụ Tùng Xe Hơi"
Nội Thất Ô Tô Quang Phú - Quang Phú Auto,"Thửa Đất Số 282, Đường Võ Cường 113, Khu Khả Lễ, Phường Võ Cường, Thành Phố Bắc Ninh, Bắc Ninh","0941 058 668, 0975 809 979              ",Bắc Ninh,"Phụ Tùng Ô Tô, Phụ Tùng Xe Hơi"
Công Ty TNHH Một Thành Viên Thương Mại Và Dịch Vụ Hương Hùng Thúy,"Số 502 Đường Ngọc Hồi, Ga Văn Điển, H. Thanh Trì, Hà Nội",(024) 36815891                                ,Hà Nội,"Phụ Tùng Ô Tô, Phụ Tùng Xe Hơi"
Bố Thắng Phú Nguyên,"71 Lạc Long Quân, P. 1, Q. 11, Tp. Hồ Chí Minh (TPHCM)",0906368879                              ,Tp Hcm,"Phụ Tùng Ô Tô, Phụ Tùng Xe Hơi"
Công Ty Cổ Phần ICSN Việt Nam,"170 Trần Duy Hưng, Trung Hòa, Cầu Giấy, Hà Nội",0986781443                              ,Hà Nội,"Phụ Tùng Ô Tô, Phụ Tùng Xe Hơi"
Hyundai Kinh Công Ty TNHH Sài Gòn Ô Tô Nguyễn Quang,"701 Kinh Dương Vương, P. An Lạc, Q. Bình Tân, Tp. Hồ Chí Minh (TPHCM)",(028) 37555599                                ,Tp Hcm,"Phụ Tùng Ô Tô, Phụ Tùng Xe Hơi"
Ô Che Nắng Ô Tô,"46 Khu Phố 3, TT Hóc Môn, Tp. Hồ Chí Minh (TPHCM)",0938555693                              ,Tp Hcm,"Phụ Tùng Ô Tô, Phụ Tùng Xe Hơi"
Công Ty CP Vật Tư & Dịch Vụ Kỹ Thuật Thành Phố Hồ Chí Minh,"4 Nguyễn Văn Cừ, P. Cầu Kho, Q. 1, Tp. Hồ Chí Minh (TPHCM)",(028) 39205885                                ,Tp Hcm,"Phụ Tùng Ô Tô, Phụ Tùng Xe Hơi"
Công Ty TNHH Kinh Doanh Vận Tải Tân Minh Toàn,"Lô 7B - 7C, Đường Lê Đại Hành, Q. Cẩm Lệ, Tp. Đà Nẵng",(0236) 3620235                                 ,Đà Nẵng,"Phụ Tùng Ô Tô, Phụ Tùng Xe Hơi"
Chi Nhánh Đà Nẵng - Công Ty TNHH Đắc Yến,"420 Tôn Đức Thắng, P. Hòa Minh, Q. Liên Chiểu, Tp. Đà Nẵng",0908 068 083                            ,Đà Nẵng,"Phụ Tùng Ô Tô, Phụ Tùng Xe Hơi"
Công Ty TNHH XNK Phụ Tùng Ô Tô Đức Anh,"Số 16 Nguyễn Bồ, Thanh Trì, Hà Nội",0947888627                              ,Hà Nội,"Phụ Tùng Ô Tô, Phụ Tùng Xe Hơi"
Công Ty TNHH Sản Xuất Thương Mại Dịch Vụ Xuất Nhập Khẩu Quý Cường,"275/16 Kênh Tân Hóa, P. Hòa Thạnh, Q. Tân Phú, Tp. Hồ Chí Minh (TPHCM)",(028) 39734886                                ,Tp Hcm,"Phụ Tùng Ô Tô, Phụ Tùng Xe Hơi"
Công Ty TNHH TM DV Vật Tư Thiết Bị Công Nghiệp,"163 Nguyễn Thái Học, Phường Phạm Ngũ Lão, Q.1, Tp. Hồ Chí Minh (TPHCM)",(028) 66825559                                ,Tp Hcm,"Phụ Tùng Ô Tô, Phụ Tùng Xe Hơi"
Công Ty TNHH Nam Vũ,"Số 9, Ngõ 59, Láng Hạ, P. Thành Công, Q. Ba Đình, Hà Nội",(024) 22141794                                ,Hà Nội,"Phụ Tùng Ô Tô, Phụ Tùng Xe Hơi"
Công Ty TNHH Wolf Việt Nam,"96/32D Đỗ Tấn Phong, P. 9, Q. Phú Nhuận, Tp. Hồ Chí Minh (TPHCM)",0979464465                              ,Tp Hcm,"Phụ Tùng Ô Tô, Phụ Tùng Xe Hơi"
Công Ty Cổ Phần Toyota Thăng Long - Đại Lý Toyota Thăng Long,"316 - 318 Cầu Giấy, Dịch Vọng, Q. Cầu Giấy, Hà Nội",0988777886                              ,Hà Nội,"Phụ Tùng Ô Tô, Phụ Tùng Xe Hơi"
Ô Tô Đạt Tấn Phát - Công Ty TNHH Dịch Vụ Thương Mại Ô Tô Đạt Tấn Phát,"Số 795, KP. 4, Xa Lộ Hà Nội, P. Long Bình, TP. Biên Hòa, Đồng Nai",0937622860                              ,Đồng Nai,"Phụ Tùng Ô Tô, Phụ Tùng Xe Hơi"
Auto Topcar Việt Nam,"216-137 Hòa Hưng, P. 13, Q. 10, Tp. Hồ Chí Minh (TPHCM)",0932964350                              ,Tp Hcm,"Phụ Tùng Ô Tô, Phụ Tùng Xe Hơi"
Toyota Bắc Ninh,"Lô A Lê Thái Tổ, P. Võ Cường, Bắc Ninh",(0222) 3686666                                 ,Bắc Ninh,"Phụ Tùng Ô Tô, Phụ Tùng Xe Hơi"
Công Ty Cổ Phần Suncar,"Khu Trại Giao, Đường Nguyễn Tất Thành, P. Khai Quang, TP. Vĩnh Yên, Vĩnh Phúc",0813365365                              ,Vĩnh Phúc,"Phụ Tùng Ô Tô, Phụ Tùng Xe Hơi"
Công Ty TNHH Gia Lộc Việt Nam,"Số 166, Phố Tựu Liệt, X. Tam Hiệp, H. Thanh Trì, Hà Nội",62885933                                ,Hà Nội,"Phụ Tùng Ô Tô, Phụ Tùng Xe Hơi"
Công Ty TNHH MTV Đoàn Tuấn,"8/3 Lê Văn Tám, Thị Trấn Di Linh, Huyện Di Linh, Lâm Đồng",0919750425                              ,Lâm Đồng,"Phụ Tùng Ô Tô, Phụ Tùng Xe Hơi"
Phụ Tùng Ô Tô Phượng Hoàng Kim - Công Ty TNHH Phượng Hoàng Kim,"Số 269 Quốc Lộ 1A, KP. 5, P. Bình Chiểu, TP. Thủ Đức, Tp. Hồ Chí Minh (TPHCM)","0946664480, 0932135968, 0919225122      ",Tp Hcm,"Phụ Tùng Ô Tô, Phụ Tùng Xe Hơi"
Công ty TNHH Công Nghệ Công Nghiệp Demih,"218 ERC Park, Sơn Đông",(+86) 15306313650                             ,Sơn Đông,"Phụ Tùng Ô Tô, Phụ Tùng Xe Hơi"
Công Ty TNHH Kỹ Thuật Công Nghệ Trung Việt,"47 Hàn Thuyên, P. Bình Thọ, TP. Thủ Đức, Tp. Hồ Chí Minh (TPHCM)",0912245236                              ,Tp Hcm,"Phụ Tùng Ô Tô, Phụ Tùng Xe Hơi"
Cửa Hàng H&T Auto - Chuyên Độ Và Đổi Màu Nội Thất Ô Tô,"37 Đường số 2, P. Trường Thọ, TP. Thủ Đức, Tp. Hồ Chí Minh (TPHCM)",0559589533                              ,Tp Hcm,"Phụ Tùng Ô Tô, Phụ Tùng Xe Hơi"
Cửa Hàng Tiến Phương 5,"146 Thống Nhất, P. Phủ Hà, TP. Phan Rang - Tháp Chàm, Ninh Thuận",(0259) 3820580                                 ,Ninh Thuận,"Phụ Tùng Ô Tô, Phụ Tùng Xe Hơi"
Công Ty TNHH Thiết Bị Điện Tử  DAEWOO Việt Nam,"Khu Sản Xuất Tân Định, P. Tân Định, TX. Bến Cát, Bình Dương",(0274) 3560101Hotline: 0903 728 090        ,Bình Dương,"Phụ Tùng Ô Tô, Phụ Tùng Xe Hơi"
Auto Chengta,"401 An Dương Vương, P. 3, Q. 5, Tp. Hồ Chí Minh (TPHCM)",028) 39381016                           ,Tp Hcm,"Phụ Tùng Ô Tô, Phụ Tùng Xe Hơi"
Phụ Tùng Ô Tô - Công Ty Cổ Phần ICV World (ICV World Group),"P.439 Tòa Nhà Thành Đạt 1, Số 3 Lê Thánh Tông, Phường Máy Tơ, Quận Ngô Quyền, Tp. Hải Phòng","1900 34 39, 0934 366 959                ",Hải Phòng,"Phụ Tùng Ô Tô, Phụ Tùng Xe Hơi"
Ô Tô Đạt Tấn Phát - Công Ty TNHH Dịch Vụ Thương Mại Ô Tô Đạt Tấn Phát,"Số 795, KP. 4, Xa Lộ Hà Nội, P. Long Bình, TP. Biên Hòa, Đồng Nai",0937622860                              ,Đồng Nai,"Phụ Tùng Ô Tô, Phụ Tùng Xe Hơi"
Công Ty The Coast,"300A Phan Chu Trinh, Bà Rịa-Vũng Tàu",0898885214                              ,Bà Rịa-Vũng Tàu,"Phụ Tùng Ô Tô, Phụ Tùng Xe Hơi"
Công Ty TNHH Phát Triển Thương Mại Và Dịch Vụ Đức Giang,"Xứ Đồng, Thành Ngạnh, P. Trung Sơn Trầm, TX. Sơn Tây, Ha Noi",(024) 33931773                                ,Ha Noi,"Phụ Tùng Ô Tô, Phụ Tùng Xe Hơi"
Công Ty TNHH Ô Tô Và Thiết Bị Chuyên Dùng Sao Bắc,"Số 325, QL 13, P. Hiệp Bình Phước, Q. Thủ Đức, Tp. Hồ Chí Minh (TPHCM)",(028) 37261417                                ,Tp Hcm,"Phụ Tùng Ô Tô, Phụ Tùng Xe Hơi"
Công Ty TNHH D.Car Service Center,"519 Xa Lộ Hà Nội, P. Long Bình, TP. Biên Hòa, Đồng Nai",0944482268                              ,Đồng Nai,"Phụ Tùng Ô Tô, Phụ Tùng Xe Hơi"
Dầu Nhớt PEMCO - Công Ty CP Đầu Tư và TM Hóa Dầu Việt Nam,"Số 71 Mai Hắc Đế, P. Bùi Thị Xuân, Q. Hai Bà Trưng, Hà Nội",(024) 36331009                                ,Hà Nội,"Phụ Tùng Ô Tô, Phụ Tùng Xe Hơi"
Kiều Sơn Auto,"101/281 Trần Khát Chân, Q. Hai Bà Trưng, Hà Nội",0914153555                              ,Hà Nội,"Phụ Tùng Ô Tô, Phụ Tùng Xe Hơi"
Công Ty TNHH Đầu Tư Kỹ Thuật Thành Đạt,"748 Nguyễn Khoái, Quận Hoàng Mai, Hà Nội",0981558999                              ,Hà Nội,"Phụ Tùng Ô Tô, Phụ Tùng Xe Hơi"
Công Ty TNHH Phụ Tùng Ô Tô AEA,"Tầng Lửng, Cao &#7888c Đại Thanh Bình, 911-917 Nguyễn Trãi, P. 14, Q. 5, Tp. Hồ Chí Minh (TPHCM)",0904434434                              ,Tp Hcm,"Phụ Tùng Ô Tô, Phụ Tùng Xe Hơi"
Kính Ô Tô Minh Hoàng - Công Ty TNHH XNK Kinh Doanh Thương Mại Minh Hoàng,"561 Tam Trinh, Phường Hoàng Văn Thụ, Quận Hoàng Mai, Hà Nội","(024) 36343926, 0906146383                    ",Hà Nội,"Phụ Tùng Ô Tô, Phụ Tùng Xe Hơi"
Cửa Hàng Trung Hiếu,"22A Điện Biên Phủ, P. 25, Q. Bình Thạnh, Tp. Hồ Chí Minh (TPHCM)",(028) 35129302                                ,Tp Hcm,"Phụ Tùng Ô Tô, Phụ Tùng Xe Hơi"
Sumi-Hanel - Công Ty TNHH Hệ Thống Dây Sumi-Hanel,"Khu Công Nghiệp Sài Đồng B, P. Sài Đồng, Q. Long Biên, Hà Nội",(024) 38750511                                ,Hà Nội,"Phụ Tùng Ô Tô, Phụ Tùng Xe Hơi"
Cơ Quan Xúc Tiến TM & Đầu Tư Hàn Quốc (KOTRA),Hàn Quốc ,(+82) 312046583                               ,,"Phụ Tùng Ô Tô, Phụ Tùng Xe Hơi"
Công Ty Nhập Khẩu Và Phân Phối Phụ Tùng Ô Tô PAC,"Số 2B, Phố Đỗ Ngọc Du, Q. Hai Bà Trưng, Hà Nội",(024) 39784264                                ,Hà Nội,"Phụ Tùng Ô Tô, Phụ Tùng Xe Hơi"
Công Ty TNHH Thương Mại Và Dịch Vụ MMK Việt Nam,"552 Phạm Văn Chiêu, P. 16, Q. Gò Vấp, Tp. Hồ Chí Minh (TPHCM)",0961286666                              ,Tp Hcm,"Phụ Tùng Ô Tô, Phụ Tùng Xe Hơi"
Cửa Hàng Minh,"309 An Dương Vương, P. 3, Q. 5, Tp. Hồ Chí Minh (TPHCM)",(028) 38304979                                ,Tp Hcm,"Phụ Tùng Ô Tô, Phụ Tùng Xe Hơi"
Công ty TNHH Phụ tùng Oto Allmax Qingdao,"Số 1 Đường Cửu Hà, Khu Công nghiệp Tiểu Lưu, Hành Thủy, Hà Bắc",0086 532 85654566                       ,Hà Bắc,"Phụ Tùng Ô Tô, Phụ Tùng Xe Hơi"
Nguyên Hưng - Công Ty TNHH Nguyên Hưng,"24 Hoàng Văn Thái, Q. Thanh Xuân, Hà Nội",(024) 35656195                                ,Hà Nội,"Phụ Tùng Ô Tô, Phụ Tùng Xe Hơi"
Doanh Nghiệp Tư Nhân  Ô Tô Ngọc Châu,"325 Hùng Vương, P. Nhơn Phú,Tp. Quy Nhơn, Bình Định",(0256) 3848289                                 ,Bình Định,"Phụ Tùng Ô Tô, Phụ Tùng Xe Hơi"
Xe Tải Hino Mạnh Dũng,"120/7B, QL13, Hiệp Bình Phước,  Quận Thủ Đức, Tp. Hồ Chí Minh (TPHCM)",0965943848                              ,Tp Hcm,"Phụ Tùng Ô Tô, Phụ Tùng Xe Hơi"
Hyundai Sông Hàn Đà Nẵng,"86 Duy Tân, Q. Hải Châu, Tp. Đà Nẵng",0899871368                              ,Đà Nẵng,"Phụ Tùng Ô Tô, Phụ Tùng Xe Hơi"
Phụ Tùng Ô Tô Giang Sơn,"Khu A Viện Rau Quả, H. Gia Lâm, Hà Nội",(024) 0942927359                              ,Hà Nội,"Phụ Tùng Ô Tô, Phụ Tùng Xe Hơi"
Cửa Hàng Bích Diễm,"456 Huỳnh Tấn Phát, Q. 7, Tp. Hồ Chí Minh (TPHCM)",01673986314                             ,Tp Hcm,"Phụ Tùng Ô Tô, Phụ Tùng Xe Hơi"
Cửa Hàng Phụ Tùng Ô Tô Gia Bảo,"Khu Cầu Các, Hương Canh, Bình Xuyên, Vĩnh Phúc Vĩnh Phúc",(0211) 0886154126                              ,Vĩnh Phúc,"Phụ Tùng Ô Tô, Phụ Tùng Xe Hơi"
Đài Phát - Công Ty TNHH Đài Phát,"Khu Chế Xuất Linh Trung 2, Lô 77B, P. Bình Chiểu, Q. Thủ Đức, Tp. Hồ Chí Minh (TPHCM)",(028) 37292838                                ,Tp Hcm,"Phụ Tùng Ô Tô, Phụ Tùng Xe Hơi"
Công Ty TNHH MTV Ô Tô Viết Khôi,"252 Lê Đại Hành, P Hòa Phát, Q. Cẩm Lệ, Tp. Đà Nẵng",0979000811                              ,Đà Nẵng,"Phụ Tùng Ô Tô, Phụ Tùng Xe Hơi"
Cửa Hàng Tân Thuận Lợi,"516Bis An Dương Vương, P. 9, Q. 5, Tp. Hồ Chí Minh (TPHCM)",(028) 38301576                                ,Tp Hcm,"Phụ Tùng Ô Tô, Phụ Tùng Xe Hơi"
Công Ty TNHH NiKKi Fron Trading (Việt Nam),"Tầng 5, Tòa Nhà 21K Nguyễn Văn Trỗi, P. 12, Q. Phú Nhuận, Tp. Hồ Chí Minh (TPHCM)","0778904030, 0971904030                  ",Tp Hcm,"Phụ Tùng Ô Tô, Phụ Tùng Xe Hơi"
Cửa hàng Việt Á,"110/9 Tô Hiệu, P.Hiệp Tân, Q.Tân Phú, Tp. Hồ Chí Minh (TPHCM)",0938833927                              ,Tp Hcm,"Phụ Tùng Ô Tô, Phụ Tùng Xe Hơi"
Cửa Hàng Phụ Tùng Ô Tô Thu Cần,"Số 32, Tăng Bạt Hổ, Q. Hải Châu, Tp. Đà Nẵng",(0236) 3828378                                 ,Đà Nẵng,"Phụ Tùng Ô Tô, Phụ Tùng Xe Hơi"
Nhân Hòa - Chi Nhánh Công Ty TNHH Thương Mại Nhân Hòa,"62 Lê Gia Định, Q. Hai Bà Trưng, Hà Nội",(024) 39765779                                ,Hà Nội,"Phụ Tùng Ô Tô, Phụ Tùng Xe Hơi"
Hưng Hải - Công Ty TNHH Thương Mại & Xuất Nhập Khẩu Hưng Hải,"37B Nguyễn Công Trứ, Q. Hai Bà Trưng, Hà Nội",(024) 39763830                                ,Hà Nội,"Phụ Tùng Ô Tô, Phụ Tùng Xe Hơi"
Công Ty TNHH Khuôn Đúc TsuKuba Việt Nam,"lô A6, Đường công nghiệp 4, Khu Công Nghiệp Sài Đồng BP. Sài Đồng, Q. Long Biên, Hà Nội",(024) 38752494                                ,Hà Nội,"Phụ Tùng Ô Tô, Phụ Tùng Xe Hơi"
Thượng Hoàng - Công Ty TNHH Sản Xuất Thương Mại Dịch Vụ Tổng Hợp Thượng Hoàng,"195B Đội Cấn, Q. Ba Đình, Hà Nội",(024) 22123850                                ,Hà Nội,"Phụ Tùng Ô Tô, Phụ Tùng Xe Hơi"
Cửa Hàng Thủy Tiên,"18 Phó Đức Chính, P. Nguyễn Thái Bình, Q. 1, Tp. Hồ Chí Minh (TPHCM)",(028) 38210781                                ,Tp Hcm,"Phụ Tùng Ô Tô, Phụ Tùng Xe Hơi"
Cơ Sở Phú Quý,"16 Thái Phiên, P. 16, Q. 11, Tp. Hồ Chí Minh (TPHCM)",(028) 39696994                                ,Tp Hcm,"Phụ Tùng Ô Tô, Phụ Tùng Xe Hơi"
Tân Quang Thái - Công Ty TNHH Một Thành Viên Thương Mại Dịch Vụ Phim Cách Nhiệt Tân Quang Thái,"831 Lê Hồng Phong, P. 12, Q. 10, Tp. Hồ Chí Minh (TPHCM)",(028) 38681196                                ,Tp Hcm,"Phụ Tùng Ô Tô, Phụ Tùng Xe Hơi"
Cơ Sở Lộc,"7 Hùng Vương, P. 4, Q. 5, Tp. Hồ Chí Minh (TPHCM)",(028) 38398038                                ,Tp Hcm,"Phụ Tùng Ô Tô, Phụ Tùng Xe Hơi"
Cơ Sở Sửa Chữa Ô Tô Trường Thịnh,"295/91B Đường Nguyễn Văn Linh, P. Long Tuyền, Q. Bình Thủy, TP. Cần Thơ",0907132000                              ,TP. Cần Thơ,"Phụ Tùng Ô Tô, Phụ Tùng Xe Hơi"
Công ty Công Nghệ Điện Tử Kaimial Đông Hoản,"1101, Tòa nhà Xinchun, Cộng Động Shangsha, TT. Changan, Tp. Đông Hoản, Quảng Đông",(+86 769) 82198609                                ,Quảng Đông,"Phụ Tùng Ô Tô, Phụ Tùng Xe Hơi"
Công Ty TNHH Thương Mại Ô Tô Hạnh Thúy,"Số  02/30 Ngõ 165 Trần Thái Tông, Tp.Thái Bình, Thái Bình",(0227) Hotline: 0913 291 329                   ,Thái Bình,"Phụ Tùng Ô Tô, Phụ Tùng Xe Hơi"
Công Ty Cổ Phần Thương Mại Dịch Vụ Hyundai Ngọc An,"Số 327 Quốc Lộ 13, P. Hiệp Bình Phước, Q. Thủ Đức, Tp. Hồ Chí Minh (TPHCM)",0909450001                              ,Tp Hcm,"Phụ Tùng Ô Tô, Phụ Tùng Xe Hơi"
Công Ty TNHH Autotech,"Số 61, Phố Vân Hồ 3, P. Lê Đại Hành, Q. Hai Bà Trưng, Hà Nội",(024) 35683346                                ,Hà Nội,"Phụ Tùng Ô Tô, Phụ Tùng Xe Hơi"
Cửa Hàng Liên Tỷ Bố Thắng Xe Hơi,"43 Thái Phiên, P. 16, Q. 11, Tp. Hồ Chí Minh (TPHCM)",(028) 39690698                                ,Tp Hcm,"Phụ Tùng Ô Tô, Phụ Tùng Xe Hơi"
Cửa Hàng Thành Đạt,"313 Nguyễn Công Trứ, P. Nguyễn Thái Bình, Q. 1, Tp. Hồ Chí Minh (TPHCM)",(028) 38215178                                ,Tp Hcm,"Phụ Tùng Ô Tô, Phụ Tùng Xe Hơi"
Công Ty TNHH Jet Việt Nam,"Số 651 Xa Lộ Hà Nội, P. Linh Trung, Q. Thủ Đức, Tp. Hồ Chí Minh (TPHCM)",(028) 62765621                                ,Tp Hcm,"Phụ Tùng Ô Tô, Phụ Tùng Xe Hơi"
Cửa Hàng Quang Vinh,"60C Điện Biên Phủ, P. 15, Q. Bình Thạnh, Tp. Hồ Chí Minh (TPHCM)",(028) 35128730                                ,Tp Hcm,"Phụ Tùng Ô Tô, Phụ Tùng Xe Hơi"
Unispares,"B-131, Giai đoạn II, Quận Gautam Buddh Nagar, Noida - 201305, Uttar Pradesh",(+91) 96432 01030                             ,Uttar Pradesh,"Phụ Tùng Ô Tô, Phụ Tùng Xe Hơi"
Công Ty TNHH NiKKi Fron Trading (Việt Nam),"Tầng 5, Tòa Nhà 21K Nguyễn Văn Trỗi, P. 12, Q. Phú Nhuận, Tp. Hồ Chí Minh (TPHCM)","0778904030, 0971904030                  ",Tp Hcm,"Phụ Tùng Ô Tô, Phụ Tùng Xe Hơi"
Cửa Hàng Phụ Tùng Nên Linh,"2c Đồng Nhân, Quận Hai Bà Trưng,Hà Nội Hà Nội",01253091994                             ,Hà Nội,"Phụ Tùng Ô Tô, Phụ Tùng Xe Hơi"
Cửa Hàng Đại Tường,"386 Điện Biên Phủ, P. 17, Q. Bình Thạnh, Tp. Hồ Chí Minh (TPHCM)",(028) 35128262                                ,Tp Hcm,"Phụ Tùng Ô Tô, Phụ Tùng Xe Hơi"
Công Ty TNHH Autotech,"Số 61, Phố Vân Hồ 3, P. Lê Đại Hành, Q. Hai Bà Trưng, Hà Nội",(024) 35683346                                ,Hà Nội,"Phụ Tùng Ô Tô, Phụ Tùng Xe Hơi"
Công Ty CP Xuất Nhập Khẩu Thiết Bị Công Nghiệp Nam Hải,"Số 17, Đường Hà Nội, Sở Dầu, Q. Hồng Bàng, Tp. Hải Phòng",(0225) 3529188                                 ,Hải Phòng,"Phụ Tùng Ô Tô, Phụ Tùng Xe Hơi"
Hùng - Công Ty TNHH Sửa Chữa Ô Tô Hùng,"549-551 Phan Văn Trị, P. 7, Q. 5, Tp. Hồ Chí Minh (TPHCM)",(028) 39234698                                ,Tp Hcm,"Phụ Tùng Ô Tô, Phụ Tùng Xe Hơi"
Cơ Sở Vân Lập,"1639 Quốc Lộ 1A, P. An Phú Đông, Q. 12, Tp. Hồ Chí Minh (TPHCM)",(028) 37195285                                ,Tp Hcm,"Phụ Tùng Ô Tô, Phụ Tùng Xe Hơi"
Hyundai Sông Hàn Đà Nẵng,"86 Duy Tân, Q. Hải Châu, Tp. Đà Nẵng",0899871368                              ,Đà Nẵng,"Phụ Tùng Ô Tô, Phụ Tùng Xe Hơi"
Cửa Hàng Trung Hiếu,"22A Điện Biên Phủ, P. 25, Q. Bình Thạnh, Tp. Hồ Chí Minh (TPHCM)",(028) 35129302                                ,Tp Hcm,"Phụ Tùng Ô Tô, Phụ Tùng Xe Hơi"
Công Ty TNHH Nội Thất Ô Tô Hải Đăng,"425 An Dương Vương, Phường 3, Quận 5, Tp. Hồ Chí Minh (TPHCM)",(028) 66570304                                ,Tp Hcm,"Phụ Tùng Ô Tô, Phụ Tùng Xe Hơi"
Doanh Nghiệp Tư Nhân  Ô Tô Ngọc Châu,"325 Hùng Vương, P. Nhơn Phú,Tp. Quy Nhơn, Bình Định",(0256) 3848289                                 ,Bình Định,"Phụ Tùng Ô Tô, Phụ Tùng Xe Hơi"
Cửa Hàng Phụ Tùng Ô Tô Tân Thành Lợi,"Số 06 Trần Hưng Đạo, P. Phước Hội, TX. Lagi, Bình Thuận",(0252) 3844179                                 ,Bình Thuận,"Phụ Tùng Ô Tô, Phụ Tùng Xe Hơi"
Tân Quang Thái - Công Ty TNHH Một Thành Viên Thương Mại Dịch Vụ Phim Cách Nhiệt Tân Quang Thái,"831 Lê Hồng Phong, P. 12, Q. 10, Tp. Hồ Chí Minh (TPHCM)",(028) 38681196                                ,Tp Hcm,"Phụ Tùng Ô Tô, Phụ Tùng Xe Hơi"
Trung Tâm Phụ Tùng Ô Tô Thanh Nga,"281 Trần Khát Chân, Hai Bà Trưng, Hà Nội",0936 333 125                            ,Hà Nội,"Phụ Tùng Ô Tô, Phụ Tùng Xe Hơi"
Săm Lốp Thành Phương - Công Ty TNHH MTV Săm Lốp Thành Phương,"CN1: 104 Đường Hai Bà Trưng, P. Lê Hồng Phong, TP. Quảng Ngãi, Quảng Ngãi","0965973214, 0913408811                  ",Quảng Ngãi,"Phụ Tùng Ô Tô, Phụ Tùng Xe Hơi"
Cơ Sở Phước Toàn Phát,"49/2 Nguyễn Thị Nhỏ, P. 2, Q. 6, Tp. Hồ Chí Minh (TPHCM)",(028) 39693681                                ,Tp Hcm,"Phụ Tùng Ô Tô, Phụ Tùng Xe Hơi"
Toyota Thăng Long,"316 Cầu Giấy, P. Dịch Vọng, Q. Cầu Giấy, Hà Nội",0946173333                              ,Hà Nội,"Phụ Tùng Ô Tô, Phụ Tùng Xe Hơi"
Cơ Sở Lộc,"7 Hùng Vương, P. 4, Q. 5, Tp. Hồ Chí Minh (TPHCM)",(028) 38398038                                ,Tp Hcm,"Phụ Tùng Ô Tô, Phụ Tùng Xe Hơi"
Công Ty Cổ Phần Inamco,"Phòng 502, Tòa Nhà Trần Phú Building, Tổ 24, P. Yên Hòa, Q. Cầu Giấy, Hà Nội",(024) 35565996                                ,Hà Nội,"Phụ Tùng Ô Tô, Phụ Tùng Xe Hơi"
Công Ty TNHH Thương Mại Và Dịch Vụ Cường Long,"7/4 Liên Khu 5-6, P. Bình Hưng Hòa B, Q. Bình Tân, Tp. Hồ Chí Minh (TPHCM)",(028) 37503393                                ,Tp Hcm,"Phụ Tùng Ô Tô, Phụ Tùng Xe Hơi"
Cửa Hàng Văn Tùng Phụ Tùng Ô Tô,"354 An Dương Vương, P. 4, Q. 5, Tp. Hồ Chí Minh (TPHCM)",(028) 38335538                                ,Tp Hcm,"Phụ Tùng Ô Tô, Phụ Tùng Xe Hơi"
VPĐD Công Ty TNHH Dragon Auto Speed,"40/7 Trần Thị Nghỉ, Phường 7, Quận Gò Vấp, Tp. Hồ Chí Minh (TPHCM)",(028) 38951569                                ,Tp Hcm,"Phụ Tùng Ô Tô, Phụ Tùng Xe Hơi"
Công Ty TNHH Đầu Tư Phát Triển Thương Mại & Dịch Vụ Hà Thành,"Số 56 Tổ 57, TT. Đông Anh, H. Đông Anh, Hà Nội",(024) 62920279                                ,Hà Nội,"Phụ Tùng Ô Tô, Phụ Tùng Xe Hơi"
Công Ty TNHH MYTECH Việt Nam,"Số 3, Phố Trần Cao Vân, Q. Hai Bà Trưng, Hà Nội",(024) 38215815                                ,Hà Nội,"Phụ Tùng Ô Tô, Phụ Tùng Xe Hơi"
Công Ty TNHH Kisama VN,"Số T2/D2/15, Tổ 2, KP. Bình Thuận 2, P. Thuận Giao, Tp. Thuận An, Bình Dương",0962692536                              ,Bình Dương,"Phụ Tùng Ô Tô, Phụ Tùng Xe Hơi"
Công Ty TNHH XNK Kinh Doanh TM Kính Ô Tô Minh Hoàng,"561 Tam Trinh, Hoàng Văn Thụ, Hoàng Mai Hà Nội",0906146383                              ,Hà Nội,"Phụ Tùng Ô Tô, Phụ Tùng Xe Hơi"
Công Ty TNHH Thương Mại Hoàng Khải Phát,"280 Lê Trọng Tấn, P. Tây Thạnh, Q. Tân Phú, Tp. Hồ Chí Minh (TPHCM)",(028) 6267085                                 ,Tp Hcm,"Phụ Tùng Ô Tô, Phụ Tùng Xe Hơi"
Cửa Hàng Huy Hoàng,"260 Kinh Dương Vương, P. An Lạc, Q. Bình Tân, Tp. Hồ Chí Minh (TPHCM)",(028) 38754079                                ,Tp Hcm,"Phụ Tùng Ô Tô, Phụ Tùng Xe Hơi"
Công Ty Cổ Phần Phụ Tùng & Tư Vấn Ô Tô Tp. Hà Nội - CN Tp. HCM,"275 An Dương Vương, P. 4, Q. 5, Tp. Hồ Chí Minh (TPHCM)",(028) 38354657                                ,Tp Hcm,"Phụ Tùng Ô Tô, Phụ Tùng Xe Hơi"
TOP TYRE Quảng Ninh,"Số 81A Giếng Đồn, P. Trần Hưng Đạo, TP. Hạ Long, Quảng Ninh",0916910389                              ,Quảng Ninh,"Phụ Tùng Ô Tô, Phụ Tùng Xe Hơi"
Công Ty TNHH MTV SX-TM-DV  Huê Thịnh,"10/10, Đặng Văn Ngữ, Phường 10, Quận Phú Nhuận, Tp. Hồ Chí Minh (TPHCM)",(028) 38424485                                ,Tp Hcm,"Phụ Tùng Ô Tô, Phụ Tùng Xe Hơi"
Công Ty TNHH Toyota Giải Phóng - Chi Nhánh Nam Định,"Đường Nam Định – Phủ Lý, Phường Lộc Hoà, Thành Phố Nam Định Nam Định",0976112268                              ,Nam Định,"Phụ Tùng Ô Tô, Phụ Tùng Xe Hơi"
Công Ty TNHH Dịch Vụ Minh Tuấn Sài Gòn,"167/7/40/5A Phú Định, Phường 16, Quận 8, Tp. Hồ Chí Minh (TPHCM)",0919039610                              ,Tp Hcm,"Phụ Tùng Ô Tô, Phụ Tùng Xe Hơi"
Cơ Sở Sửa Chữa Ô Tô Trường Thịnh,"295/91B Đường Nguyễn Văn Linh, P. Long Tuyền, Q. Bình Thủy, TP. Cần Thơ",0907132000                              ,TP. Cần Thơ,"Phụ Tùng Ô Tô, Phụ Tùng Xe Hơi"
Cửa Hàng Phương Nhân Phụ Tùng Ô Tô,"279 Tô Ngọc Vân, P. Linh Đông, Q. Thủ Đức, Tp. Hồ Chí Minh (TPHCM)",(028) 22403968                                ,Tp Hcm,"Phụ Tùng Ô Tô, Phụ Tùng Xe Hơi"
Thịnh Phát - Công Ty TNHH Thịnh Phát,"55 Hùng Vương, P. Diên Hồng, Tp. Plây Cu, Gia Lai",(0269) 3823698                                 ,Gia Lai,"Phụ Tùng Ô Tô, Phụ Tùng Xe Hơi"
Công Ty TNHH Sản Xuất Thương Mại Quốc Tế Hoàng Phát,"51 Hoa Sứ, P. 7, Q. Phú Nhuận, Tp. Hồ Chí Minh (TPHCM)",(028) 37673539                                ,Tp Hcm,"Phụ Tùng Ô Tô, Phụ Tùng Xe Hơi"
Minh Long - Công Ty TNHH Minh Long,"21 Lý Thái Tổ, P. 1, Q. 10, Tp. Hồ Chí Minh (TPHCM)",(028) 38350335                                ,Tp Hcm,"Phụ Tùng Ô Tô, Phụ Tùng Xe Hơi"
Hoa Điệp,"235 Võ Thị Sáu, P. Thắng Tam, Tp. Vũng Tàu Bà Rịa-Vũng Tàu",(+84) 834020285                               ,Bà Rịa-Vũng Tàu,"Phụ Tùng Ô Tô, Phụ Tùng Xe Hơi"
Nội Thất Ô Tô Dũng Vương,"Số 8 Đường Dương Dương Đình Nghệ, Q. Cầu Giấy, Hà Nội",0961712666                              ,Hà Nội,"Phụ Tùng Ô Tô, Phụ Tùng Xe Hơi"
Doanh Nghiệp Tư Nhân  Ô Tô Ngọc Châu,"325 Hùng Vương, P. Nhơn Phú,Tp. Quy Nhơn, Bình Định",(0256) 3848289                                 ,Bình Định,"Phụ Tùng Ô Tô, Phụ Tùng Xe Hơi"
Công Ty TNHH MYTECH Việt Nam,"Số 3, Phố Trần Cao Vân, Q. Hai Bà Trưng, Hà Nội",(024) 38215815                                ,Hà Nội,"Phụ Tùng Ô Tô, Phụ Tùng Xe Hơi"
Hùng - Công Ty TNHH Sửa Chữa Ô Tô Hùng,"549-551 Phan Văn Trị, P. 7, Q. 5, Tp. Hồ Chí Minh (TPHCM)",(028) 39234698                                ,Tp Hcm,"Phụ Tùng Ô Tô, Phụ Tùng Xe Hơi"
Cửa Hàng Thành Đạt,"313 Nguyễn Công Trứ, P. Nguyễn Thái Bình, Q. 1, Tp. Hồ Chí Minh (TPHCM)",(028) 38215178                                ,Tp Hcm,"Phụ Tùng Ô Tô, Phụ Tùng Xe Hơi"
Công Ty TNHH Khuôn Đúc TsuKuba Việt Nam,"lô A6, Đường công nghiệp 4, Khu Công Nghiệp Sài Đồng BP. Sài Đồng, Q. Long Biên, Hà Nội",(024) 38752494                                ,Hà Nội,"Phụ Tùng Ô Tô, Phụ Tùng Xe Hơi"
CÔNG TY TNHH VINAKS,"Số 81, đường TX13, Phường Thạnh Xuân, Quận 12, Tp. Hồ Chí Minh (TPHCM)",(028) 37166723                                ,Tp Hcm,"Phụ Tùng Ô Tô, Phụ Tùng Xe Hơi"
Hoàng Anh Vũ - Công Ty TNHH Một Thành Viên Hoàng Anh Vũ,"Thôn Giáng Nam, X. Hòa Phước, H. Hòa Vang, Tp. Đà Nẵng",(0236) 3686894                                 ,Đà Nẵng,"Phụ Tùng Ô Tô, Phụ Tùng Xe Hơi"
Cửa Hàng Phụ Tùng Ô Tô Tân Thành Lợi,"Số 06 Trần Hưng Đạo, P. Phước Hội, TX. Lagi, Bình Thuận",(0252) 3844179                                 ,Bình Thuận,"Phụ Tùng Ô Tô, Phụ Tùng Xe Hơi"
Phụ Tùng Ô Tô Honda Hoàng Tiến,"Số 6, Ngõ 279 Trần Khát Chân, Quận Hai Bà Trưng, Hà Nội",(024) 39728937                                ,Hà Nội,"Phụ Tùng Ô Tô, Phụ Tùng Xe Hơi"
Trung Tâm Phụ Tùng Ô Tô Nguyễn ATP,"Số 167 Phố Lạc Nghiệp, P. Thanh Nhàn, Q. Hai Bà Trưng, Hà Nội",(024) 39712063                                ,Hà Nội,"Phụ Tùng Ô Tô, Phụ Tùng Xe Hơi"
Hyundai Sông Hàn Đà Nẵng,"86 Duy Tân, Q. Hải Châu, Tp. Đà Nẵng",0899871368                              ,Đà Nẵng,"Phụ Tùng Ô Tô, Phụ Tùng Xe Hơi"
Doanh Nghiệp Tư Nhân Đức Trị,"218/7 KP1, Phường Tân Hiệp, Tp.Biên Hòa, Đồng Nai",0937009961                              ,Đồng Nai,"Phụ Tùng Ô Tô, Phụ Tùng Xe Hơi"
Công Ty Cơ Khí Ô Tô An Thái,"288 Trần Thái Tông, Tp. Thái Bình, Thái Bình",0904086999                              ,Thái Bình,"Phụ Tùng Ô Tô, Phụ Tùng Xe Hơi"
Công Ty Hữu Hạn Công Nghiệp Crest Top Việt Nam,"Lô 9-10, Khu Công Nghiệp Hố Nai,X. Hố Nai 3, H. Trảng Bom, Đồng Nai",(0251) 3671058                                 ,Đồng Nai,"Phụ Tùng Ô Tô, Phụ Tùng Xe Hơi"
Công Ty TNHH Đầu Tư Phát Triển Thương Mại & Dịch Vụ Hà Thành,"Số 56 Tổ 57, TT. Đông Anh, H. Đông Anh, Hà Nội",(024) 62920279                                ,Hà Nội,"Phụ Tùng Ô Tô, Phụ Tùng Xe Hơi"
Phụ Tùng Ô Tô Thanh Tùng,"Đào Duy Anh, Phường 9, Quận Phú Nhuận, Tp. Hồ Chí Minh (TPHCM)",0934122972                              ,Tp Hcm,"Phụ Tùng Ô Tô, Phụ Tùng Xe Hơi"
Công Ty TNHH Hoài Quang,"20 Phan Bội Châu, Khối 7, P. Lê Lợi, TP. Vinh, Nghệ An",(0238) 3854790                                 ,Nghệ An,"Phụ Tùng Ô Tô, Phụ Tùng Xe Hơi"
Thượng Hoàng - Công Ty TNHH Sản Xuất Thương Mại Dịch Vụ Tổng Hợp Thượng Hoàng,"195B Đội Cấn, Q. Ba Đình, Hà Nội",(024) 22123850                                ,Hà Nội,"Phụ Tùng Ô Tô, Phụ Tùng Xe Hơi"
Dầu Nhớt Đông Bắc - Công Ty TNHH Xuất Nhập Khẩu Hóa Dầu Đông Bắc,"Số 62/3Q, Khu 2, Tổ 21, ấp Thanh Hóa, X. Hố Nai 3, H. Trảng Bom, Đồng Nai","(0251) 6253595, 0945435535                     ",Đồng Nai,"Phụ Tùng Ô Tô, Phụ Tùng Xe Hơi"
VPĐD Công Ty TNHH Dragon Auto Speed,"40/7 Trần Thị Nghỉ, Phường 7, Quận Gò Vấp, Tp. Hồ Chí Minh (TPHCM)",(028) 38951569                                ,Tp Hcm,"Phụ Tùng Ô Tô, Phụ Tùng Xe Hơi"
Công Ty TNHH Shinwa Việt Nam,"Lô B_4B11_CN, Đường DE2, KCN Mỹ Phước 3, H. Bến Cát, Bình Dương",(0274) 2221526                                 ,Bình Dương,"Phụ Tùng Ô Tô, Phụ Tùng Xe Hơi"
Ngọc Cảnh - Công Ty TNHH Ngọc Cảnh,"189 Đường Tam Trinh, Q. Hai Bà Trưng, Hà Nội",(024) 62957128                                ,Hà Nội,"Phụ Tùng Ô Tô, Phụ Tùng Xe Hơi"
TOP TYRE Quảng Ninh,"Số 81A Giếng Đồn, P. Trần Hưng Đạo, TP. Hạ Long, Quảng Ninh",0916910389                              ,Quảng Ninh,"Phụ Tùng Ô Tô, Phụ Tùng Xe Hơi"
Toyota Thăng Long,"316 Cầu Giấy, P. Dịch Vọng, Q. Cầu Giấy, Hà Nội",0946173333                              ,Hà Nội,"Phụ Tùng Ô Tô, Phụ Tùng Xe Hơi"
Công Ty TNHH Thương Mại Dịch Vụ Ô Tô Lê Hoàng,"14 Ngô Gia Tự, P. Đài Sơn, Tp, Phan Rang - Tháp Chàm, Ninh Thuận",0908266266                              ,Ninh Thuận,"Phụ Tùng Ô Tô, Phụ Tùng Xe Hơi"
Honda Việt Nam - Công Ty TNHH Thương Mại Honda Việt Nam,"Tầng 5, P.501, 23 Phan Chu Trinh, Q. Hoàn Kiếm, Hà Nội",(024) 39334591                                ,Hà Nội,"Phụ Tùng Ô Tô, Phụ Tùng Xe Hơi"
Hải Nam - Công Ty TNHH Thương Mại Hải Nam,"142 Ngô Gia Tự, P. Đức Giang, Q. Long Biên, Hà Nội",(024) 38772742                                ,Hà Nội,"Phụ Tùng Ô Tô, Phụ Tùng Xe Hơi"
Công ty TNHH Xuất Nhập Khẩu Và Thương Mại Roko Việt Nam,"Số 25B, Tổ Dân Phố Số 2, Thị Trấn Đông Anh, Huyện Đông Anh, Tp. Hà Nội",(024) 39650975                                ,Hà Nội,"Phụ Tùng Ô Tô, Phụ Tùng Xe Hơi"
Cửa Hàng Phương Nguyên,"1466 Huỳnh Tấn Phát, Khu Phố 2, P. Phú Mỹ, Q. 7, Tp. Hồ Chí Minh (TPHCM)",(028) 37851986                                ,Tp Hcm,"Phụ Tùng Ô Tô, Phụ Tùng Xe Hơi"
Công Ty TNHH Denso Việt Nam,"Lô E1, KCN Thăng Long, H. Đông Anh, Hà Nội",(024) 38811608                                ,Hà Nội,"Phụ Tùng Ô Tô, Phụ Tùng Xe Hơi"
Công Ty TNHH Phụ Tùng Ô Tô Bến Thành,"26/3TL26 Thạnh Lộc, Q. 12, Tp. Hồ Chí Minh (TPHCM)",(028) 66767665                                ,Tp Hcm,"Phụ Tùng Ô Tô, Phụ Tùng Xe Hơi"
Công Ty Nhập Khẩu Và Phân Phối Phụ Tùng Ô Tô PAC,"Số 2B, Phố Đỗ Ngọc Du, Q. Hai Bà Trưng, Hà Nội",(024) 39784264                                ,Hà Nội,"Phụ Tùng Ô Tô, Phụ Tùng Xe Hơi"
Công Ty TNHH & DV XNK Nam Huynh,"378/3 Đường Nguyên Hồng, P. 1, Q. Gò Vấp, Tp. Hồ Chí Minh (TPHCM)",0907110988                              ,Tp Hcm,"Phụ Tùng Ô Tô, Phụ Tùng Xe Hơi"
Cửa Hàng Phụ Tùng Ô Tô Gia Bảo,"Khu Cầu Các, Hương Canh, Bình Xuyên, Vĩnh Phúc Vĩnh Phúc",(0211) 0886154126                              ,Vĩnh Phúc,"Phụ Tùng Ô Tô, Phụ Tùng Xe Hơi"
Công Ty TNHH Jet Việt Nam,"Số 651 Xa Lộ Hà Nội, P. Linh Trung, Q. Thủ Đức, Tp. Hồ Chí Minh (TPHCM)",(028) 62765621                                ,Tp Hcm,"Phụ Tùng Ô Tô, Phụ Tùng Xe Hơi"
Công Ty TNHH MTV Ô Tô Viết Khôi,"252 Lê Đại Hành, P Hòa Phát, Q. Cẩm Lệ, Tp. Đà Nẵng",0979000811                              ,Đà Nẵng,"Phụ Tùng Ô Tô, Phụ Tùng Xe Hơi"
Việt Vân - Chi Nhánh Công Ty TNHH Việt Vân,"33-35-37 Yersin, P. Cầu Ông Lãnh, Q. 1, Tp. Hồ Chí Minh (TPHCM)",(028) 38211183                                ,Tp Hcm,"Phụ Tùng Ô Tô, Phụ Tùng Xe Hơi"
Dũng Hoàng - Doanh Nghiệp Tư Nhân Thương Mại & Dịch Vụ Dũng Hoàng,"450 Nguyễn Lương Bằng, Q. Liên Chiểu, Tp. Đà Nẵng",(0236) 3841119                                 ,Đà Nẵng,"Phụ Tùng Ô Tô, Phụ Tùng Xe Hơi"
Doanh Nghiệp Tư Nhân Đức Hòa,"38 Đinh Công Tráng, P. Thuận Phước, Q. Hải Châu, Tp. Đà Nẵng",(0236) 3537528                                 ,Đà Nẵng,"Phụ Tùng Ô Tô, Phụ Tùng Xe Hơi"
Hưng Hải - Công Ty TNHH Thương Mại & Xuất Nhập Khẩu Hưng Hải,"37B Nguyễn Công Trứ, Q. Hai Bà Trưng, Hà Nội",(024) 39763830                                ,Hà Nội,"Phụ Tùng Ô Tô, Phụ Tùng Xe Hơi"
Công Ty TNHH Ưu Thịnh,"Khu Công Nghiệp Tân Thới Hiệp, Lô 12-13,P. Hiệp Thành, Q. 12, Tp. Hồ Chí Minh",(028) 3717.4911                               ,Tp. Hồ Chí Minh,"Phụ Tùng Ô Tô, Phụ Tùng Xe Hơi"
Đạt Phú Thịnh - Công Ty TNHH Sản Xuất Thương Mại Dịch Vụ Đạt Phú Thịnh,"39 Phó Đức Chính, P. Nguyễn Thái Bình, Q. 1, Tp. Hồ Chí Minh (TPHCM)",(028) 38215085                                ,Tp Hcm,"Phụ Tùng Ô Tô, Phụ Tùng Xe Hơi"
Cửa Hàng Thủy Tiên,"18 Phó Đức Chính, P. Nguyễn Thái Bình, Q. 1, Tp. Hồ Chí Minh (TPHCM)",(028) 38210781                                ,Tp Hcm,"Phụ Tùng Ô Tô, Phụ Tùng Xe Hơi"
Thịnh Phát - Công Ty TNHH Thịnh Phát,"55 Hùng Vương, P. Diên Hồng, Tp. Plây Cu, Gia Lai",(0269) 3823698                                 ,Gia Lai,"Phụ Tùng Ô Tô, Phụ Tùng Xe Hơi"
Quốc Anh - Công Ty TNHH Ô Tô Máy Công Nghiệp Quốc Anh,"Số 21, Đường 11, Khu Dân Cư 6A Him Lam, X. Bình Hưng, H. Bình Chánh, Tp. Hồ Chí Minh (TPHCM)",(028) 54318855                                ,Tp Hcm,"Phụ Tùng Ô Tô, Phụ Tùng Xe Hơi"
Công Ty TNHH Đầu Tư Thương Mại Sơn Nguyên,"42 Đường 17, P. Tân Thuận Tây, Q. 7, Tp. Hồ Chí Minh (TPHCM)",(028) 37711283                                ,Tp Hcm,"Phụ Tùng Ô Tô, Phụ Tùng Xe Hơi"
Cửa Hàng Phước Hải,"493 Điện Biên Phủ, P. 25, Q. Bình Thạnh, Tp. Hồ Chí Minh (TPHCM)",(028) 38980142                                ,Tp Hcm,"Phụ Tùng Ô Tô, Phụ Tùng Xe Hơi"
Phụ Tùng Ô Tô Giang Sơn,"Khu A Viện Rau Quả, H. Gia Lâm, Hà Nội",(024) 0942927359                              ,Hà Nội,"Phụ Tùng Ô Tô, Phụ Tùng Xe Hơi"
Doanh Nghiệp Tư Nhân Đức Hòa,"38 Đinh Công Tráng, P. Thuận Phước, Q. Hải Châu, Tp. Đà Nẵng",(0236) 3537528                                 ,Đà Nẵng,"Phụ Tùng Ô Tô, Phụ Tùng Xe Hơi"
Cơ Sở Vân Lập,"1639 Quốc Lộ 1A, P. An Phú Đông, Q. 12, Tp. Hồ Chí Minh (TPHCM)",(028) 37195285                                ,Tp Hcm,"Phụ Tùng Ô Tô, Phụ Tùng Xe Hơi"
Unispares,"B-131, Giai đoạn II, Quận Gautam Buddh Nagar, Noida - 201305, Uttar Pradesh",(+91) 96432 01030                             ,Uttar Pradesh,"Phụ Tùng Ô Tô, Phụ Tùng Xe Hơi"
Công Ty TNHH Nội Thất Ô Tô Hải Đăng,"425 An Dương Vương, Phường 3, Quận 5, Tp. Hồ Chí Minh (TPHCM)",(028) 66570304                                ,Tp Hcm,"Phụ Tùng Ô Tô, Phụ Tùng Xe Hơi"
Toàn Thắng - Chi Nhánh Công Ty TNHH Ô Tô Toàn Thắng,"290C An Dương Vương, P. 4, Q. 5, Tp. Hồ Chí Minh (TPHCM)",(028) 38350199                                ,Tp Hcm,"Phụ Tùng Ô Tô, Phụ Tùng Xe Hơi"
Cơ Quan Xúc Tiến TM & Đầu Tư Hàn Quốc (KOTRA),Hàn Quốc ,(+82) 312046583                               ,,"Phụ Tùng Ô Tô, Phụ Tùng Xe Hơi"
Công Ty TNHH Một Thành Viên Cơ Khí Ngô Gia Tự - Nhà Máy Ô Tô Ngô Gia Tự,"Lô CN2, KCN Ngọc Hồi, Thanh Trì, Hà Nội",(024) 36890721                                ,Hà Nội,"Phụ Tùng Ô Tô, Phụ Tùng Xe Hơi"
Công Ty TNHH Thương Mại Và Dịch Vụ Ô Tô GMT,"184 Tam Trinh, Hà Nội",0977228855                              ,Hà Nội,"Phụ Tùng Ô Tô, Phụ Tùng Xe Hơi"
Thịnh Phát - Công Ty TNHH Thịnh Phát,"55 Hùng Vương, P. Diên Hồng, Tp. Plây Cu, Gia Lai",(0269) 3823698                                 ,Gia Lai,"Phụ Tùng Ô Tô, Phụ Tùng Xe Hơi"
Cửa Hàng Vân Long Phụ Tùng Ô Tô,"408 Xa Lộ Hà Nội, P. Phước Long A, Q. 9, Tp. Hồ Chí Minh (TPHCM)",(028) 37313175                                ,Tp Hcm,"Phụ Tùng Ô Tô, Phụ Tùng Xe Hơi"
Hoàng Huy - Công Ty TNHH Dịch Vụ Sản Xuất Hoàng Huy,"445 An Dương Vương, P. 3, Q. 5, Tp. Hồ Chí Minh (TPHCM)",(028) 38352740                                ,Tp Hcm,"Phụ Tùng Ô Tô, Phụ Tùng Xe Hơi"
Minh Long - Công Ty TNHH Minh Long,"21 Lý Thái Tổ, P. 1, Q. 10, Tp. Hồ Chí Minh (TPHCM)",(028) 38350335                                ,Tp Hcm,"Phụ Tùng Ô Tô, Phụ Tùng Xe Hơi"
Công Ty CP Xuất Nhập Khẩu Thiết Bị Công Nghiệp Nam Hải,"Số 17, Đường Hà Nội, Sở Dầu, Q. Hồng Bàng, Tp. Hải Phòng",(0225) 3529188                                 ,Hải Phòng,"Phụ Tùng Ô Tô, Phụ Tùng Xe Hơi"
Thiên Đức - Chi Nhánh Công Ty TNHH Thương Mại Ô Tô Thiên Đức,"26 Lý Thái Tổ, P. 2, Q. 3, Tp. Hồ Chí Minh (TPHCM)",(028) 38332789                                ,Tp Hcm,"Phụ Tùng Ô Tô, Phụ Tùng Xe Hơi"
Tiến Ưu - Công Ty TNHH Sản Xuất Thương Mại Tiến Ưu,"299/27 Lý Thường Kiệt, P. 15, Q. 11, Tp. Hồ Chí Minh (TPHCM)",(028) 38660688                                ,Tp Hcm,"Phụ Tùng Ô Tô, Phụ Tùng Xe Hơi"
Cơ Sở Sửa Chữa Ô Tô Trường Thịnh,"295/91B Đường Nguyễn Văn Linh, P. Long Tuyền, Q. Bình Thủy, TP. Cần Thơ",0907132000                              ,TP. Cần Thơ,"Phụ Tùng Ô Tô, Phụ Tùng Xe Hơi"
Công Ty TNHH Sản Xuất Thương Mại Quốc Tế Hoàng Phát,"51 Hoa Sứ, P. 7, Q. Phú Nhuận, Tp. Hồ Chí Minh (TPHCM)",(028) 37673539                                ,Tp Hcm,"Phụ Tùng Ô Tô, Phụ Tùng Xe Hơi"
Nguyên Hưng - Công Ty TNHH Nguyên Hưng,"24 Hoàng Văn Thái, Q. Thanh Xuân, Hà Nội",(024) 35656195                                ,Hà Nội,"Phụ Tùng Ô Tô, Phụ Tùng Xe Hơi"
Công Ty Matsuo Industrial Vietnam,"Khu Công Nghiệp Thăng Long, 10 Lô C,H. Đông Anh, Hà Nội",(024) 38812415                                ,Hà Nội,"Phụ Tùng Ô Tô, Phụ Tùng Xe Hơi"
Doanh Nghiệp Tư Nhân  Ô Tô Ngọc Châu,"325 Hùng Vương, P. Nhơn Phú,Tp. Quy Nhơn, Bình Định",(0256) 3848289                                 ,Bình Định,"Phụ Tùng Ô Tô, Phụ Tùng Xe Hơi"
Công Ty TNHH MTV Nhật Bảo Anh,"11C KP. Đông Ba, P. Bình Hòa, TX. Thuận An, Bình Dương",Hotline: 0963022620 ,Bình Dương,"Phụ Tùng Ô Tô, Phụ Tùng Xe Hơi"
Công Ty TNHH Thương Mại Cơ Khí Vận Tải FS,"Nhuệ Giang, Tây Mỗ, Q. Nam Từ Liêm, Hà Nội",(024) 0983357698                              ,Hà Nội,"Phụ Tùng Ô Tô, Phụ Tùng Xe Hơi"
Công ty TNHH Derrica,"Số 8 Đường Taoyuan, Cộng Đồng Dangwanshan, Đường Nantou,, Quận Nanshan, Thâm Quyến, Quảng Đông",(+86 20) 81082508                                ,Quảng Đông,"Phụ Tùng Ô Tô, Phụ Tùng Xe Hơi"
Xí Nghiệp Sửa Chữa Ô Tô Tây Mỗ - Chi Nhánh Công Ty Cổ Phần Ford Thăng Long,"Đường 70, X. Tây Mỗ, H. Từ Liêm, Hà Nội",(024) 37653489                                ,Hà Nội,"Phụ Tùng Ô Tô, Phụ Tùng Xe Hơi"
Cửa Hàng Quang Vinh,"60C Điện Biên Phủ, P. 15, Q. Bình Thạnh, Tp. Hồ Chí Minh (TPHCM)",(028) 35128730                                ,Tp Hcm,"Phụ Tùng Ô Tô, Phụ Tùng Xe Hơi"
Công Ty Cổ Phần LRV Việt Nam,"28 Viện Điều Tra Quy Hoạch Rừng, Thanh Trì, Hà Nội",(024) 66538777                                ,Hà Nội,"Phụ Tùng Ô Tô, Phụ Tùng Xe Hơi"
Cơ Sở Lộc,"7 Hùng Vương, P. 4, Q. 5, Tp. Hồ Chí Minh (TPHCM)",(028) 38398038                                ,Tp Hcm,"Phụ Tùng Ô Tô, Phụ Tùng Xe Hơi"
Cơ Sở Hiệp Lợi,"55 Phó Đức Chính, P. Nguyễn Thái Bình, Q. 1, Tp. Hồ Chí Minh (TPHCM)",(028) 38211060                                ,Tp Hcm,"Phụ Tùng Ô Tô, Phụ Tùng Xe Hơi"
Đình Anh - Công Ty Cổ Phần Đình Anh,"Phòng 105-106, B17 Khu Ngoại Giao Đoàn Kim Liên,Q. Đống Đa, Hà Nội",(024) 35744291                                ,Hà Nội,"Phụ Tùng Ô Tô, Phụ Tùng Xe Hơi"
Nội Thất Ô Tô Khôi Nguyên,"Tòa nhà VTC online 18 Tam Trinh Hoàng Mai - Hai Bà Trưng, Hà Nội",(024) 0934510868                              ,Hà Nội,"Phụ Tùng Ô Tô, Phụ Tùng Xe Hơi"
Doanh Nghiệp Tư Nhân Đức Trị,"218/7 KP1, Phường Tân Hiệp, Tp.Biên Hòa, Đồng Nai",0937009961                              ,Đồng Nai,"Phụ Tùng Ô Tô, Phụ Tùng Xe Hơi"
Công Ty TNHH MTV Kiên Cố,"92 Đường S9, P. Tây Thạnh, Q. Tân Phú, Tp. Hồ Chí Minh (TPHCM)",(028) 62676117                                ,Tp Hcm,"Phụ Tùng Ô Tô, Phụ Tùng Xe Hơi"
Công Ty TNHH Dịch Vụ Minh Tuấn Sài Gòn,"167/7/40/5A Phú Định, Phường 16, Quận 8, Tp. Hồ Chí Minh (TPHCM)",0919039610                              ,Tp Hcm,"Phụ Tùng Ô Tô, Phụ Tùng Xe Hơi"
Hán Dương - Công Ty TNHH Hán Dương,"2C Đường 8, Cư Xá Bình Thới, P. 8, Q. 11, Tp. Hồ Chí Minh (TPHCM)",(028) 39625196                                ,Tp Hcm,"Phụ Tùng Ô Tô, Phụ Tùng Xe Hơi"
Công Ty TNHH Phụ Tùng Thiết Bị Phú Sỹ,"62 Đường Trương Định, KP. 2, P. Tân Mai, TP. Biên Hoà, Đồng Nai",(0251) 3816817                                 ,Đồng Nai,"Phụ Tùng Ô Tô, Phụ Tùng Xe Hơi"
Công Ty TNHH Thương Mại Ô Tô Hạnh Thúy,"Số  02/30 Ngõ 165 Trần Thái Tông, Tp.Thái Bình, Thái Bình",(0227) Hotline: 0913 291 329                   ,Thái Bình,"Phụ Tùng Ô Tô, Phụ Tùng Xe Hơi"
Mtex Việt Nam - Công Ty TNHH Mtex Việt Nam,"Khu Chế Xuất Tân ThuậnĐường Số 18, P. Tân Thuận Đông, Q. 7, Tp. Hồ Chí Minh (TPHCM)",(028) 37701324                                ,Tp Hcm,"Phụ Tùng Ô Tô, Phụ Tùng Xe Hơi"
Bích Hiền - Công Ty TNHH Thương Mại Bích Hiền,"183A Phan Châu Trinh, P. Phước Ninh, Q. Hải Châu, Tp. Đà Nẵng",(0236) 3824292                                 ,Đà Nẵng,"Phụ Tùng Ô Tô, Phụ Tùng Xe Hơi"
Công Ty TNHH TM Vận Tải Ô Tô Thái Hồng,"180B - 176 Nguyễn Tất Thành, P. 8, Tp. Tuy Hòa, Phú Yên",(0257) 3825937                                 ,Phú Yên,"Phụ Tùng Ô Tô, Phụ Tùng Xe Hơi"
Công Ty TNHH NiKKi Fron Trading (Việt Nam),"Tầng 5, Tòa Nhà 21K Nguyễn Văn Trỗi, P. 12, Q. Phú Nhuận, Tp. Hồ Chí Minh (TPHCM)","0778904030, 0971904030                  ",Tp Hcm,"Phụ Tùng Ô Tô, Phụ Tùng Xe Hơi"
Công ty TNHH Thương mại Optima,"409 Đường Cộng Hòa, Phường 13, Quận Tân Bình, Tp. Hồ Chí Minh (TPHCM)",0906024817                              ,Tp Hcm,"Phụ Tùng Ô Tô, Phụ Tùng Xe Hơi"
Công Ty TNHH Sản Xuất Thương Mại & Dịch Vụ Anh Minh S.G,"602/41C Điện Biên Phủ, P. 22, Q. Bình Thạnh, Tp. Hồ Chí Minh (TPHCM)",(028) 35125325                                ,Tp Hcm,"Phụ Tùng Ô Tô, Phụ Tùng Xe Hơi"
Công Ty TNHH MTV Dịch Vụ Vận Tải Và Vỏ Xe Vạn Thành,"42A Đường Tỉnh Lộ 15, ấp 08, Xã Bình Mỹ, Huyện Củ Chi, Tp. Hồ Chí Minh (TPHCM)",(028) 62873599                                ,Tp Hcm,"Phụ Tùng Ô Tô, Phụ Tùng Xe Hơi"
Công Ty Cổ Phần Xuất Nhập Khẩu Ô Tô Và Xe Chuyên Dụng Việt Nam,"Km3 Quốc Lộ 23, X. Tiên Dương, H. Đông Anh, Hà Nội",(024) 22111112                                ,Hà Nội,"Phụ Tùng Ô Tô, Phụ Tùng Xe Hơi"
Công Ty TNHH Jet Việt Nam,"Số 651 Xa Lộ Hà Nội, P. Linh Trung, Q. Thủ Đức, Tp. Hồ Chí Minh (TPHCM)",(028) 62765621                                ,Tp Hcm,"Phụ Tùng Ô Tô, Phụ Tùng Xe Hơi"
Hoài Gia - Công Ty TNHH Thương Mại & Dịch Vụ Hoài Gia,"34 Thanh Long, Q. Hải Châu, Tp. Đà Nẵng",(0236) 3531555                                 ,Đà Nẵng,"Phụ Tùng Ô Tô, Phụ Tùng Xe Hơi"
Công Ty Cổ Phần Sài Gòn Phụ Tùng Ô Tô,"290 An Dương Vương, P. 4, Q. 5, Tp. Hồ Chí Minh (TPHCM)",(028) 38309688                                ,Tp Hcm,"Phụ Tùng Ô Tô, Phụ Tùng Xe Hơi"
Cửa Hàng Thành Đạt,"313 Nguyễn Công Trứ, P. Nguyễn Thái Bình, Q. 1, Tp. Hồ Chí Minh (TPHCM)",(028) 38215178                                ,Tp Hcm,"Phụ Tùng Ô Tô, Phụ Tùng Xe Hơi"
Công Ty TNHH Kỹ Thuật Dịch Vụ Thiên Minh,"205/20/52/14 Phạm Đăng Giảng, Phường Bình Hưng Hòa, Quận Bình Tân, Tp. Hồ Chí Minh (TPHCM)",0908620629                              ,Tp Hcm,"Phụ Tùng Ô Tô, Phụ Tùng Xe Hơi"
Cửa Hàng Ngọc Hà Phụ Tùng Ô Tô,"78 Ký Con, P. Nguyễn Thái Bình, Q. 1, Tp. Hồ Chí Minh (TPHCM)",(028) 39142135                                ,Tp Hcm,"Phụ Tùng Ô Tô, Phụ Tùng Xe Hơi"
Công Ty TNHH MTV Nhật Bảo Anh,"11C KP. Đông Ba, P. Bình Hòa, TX. Thuận An, Bình Dương",Hotline: 0963022620 ,Bình Dương,"Phụ Tùng Ô Tô, Phụ Tùng Xe Hơi"
Công Ty Cổ Phần Ô Tô Ford Hải Phòng,"Số 4 Bạch Đằng, Hạ Lý, Hồng Bàng, Tp. Hải Phòng",0936992511                              ,Hải Phòng,"Phụ Tùng Ô Tô, Phụ Tùng Xe Hơi"
Nội Thất Ô Tô DUPU TECH - Tổng Đại Lý Phân Phối Phụ Kiện Nội Thất Ô Tô DUPU TECH,"Khu 1, Thị Trấn Kẻ Sặt, Bình Giang, Hải Dương",0967 620 683                            ,Hải Dương,"Phụ Tùng Ô Tô, Phụ Tùng Xe Hơi"
Công Ty CP DV Ô Tô Đồng Khánh,"Số 132 Ngõ 173, Đ. Hoàng Hoa Thám, P. Ngọc Hà, Q. Ba Đình Hà Nội",0966697696                              ,Hà Nội,"Phụ Tùng Ô Tô, Phụ Tùng Xe Hơi"
Công Ty TNHH MeKong Sprint,"68 Nguyễn Huệ, P. Bến Nghé, Q.1, Tp. Hồ Chí Minh (TPHCM)",0909631963                              ,Tp Hcm,"Phụ Tùng Ô Tô, Phụ Tùng Xe Hơi"
Công Ty TNHH Thương Mại Dịch Vụ Ô Tô Tín Phát,"02 Đường Số 14, P. Bình Hưng Hòa A, Q. Bình Tân, Tp. Hồ Chí Minh (TPHCM)",0903191657                              ,Tp Hcm,"Phụ Tùng Ô Tô, Phụ Tùng Xe Hơi"
Doanh Nghiệp Tư Nhân Mai Thanh Dung,"Tổ 2, P. An Khê, Q. Thanh Khê, Tp. Đà Nẵng",(0236) 3722493                                 ,Đà Nẵng,"Phụ Tùng Ô Tô, Phụ Tùng Xe Hơi"
Cửa Hàng Phụ Tùng Ô Tô Tân Thành Lợi,"Số 06 Trần Hưng Đạo, P. Phước Hội, TX. Lagi, Bình Thuận",(0252) 3844179                                 ,Bình Thuận,"Phụ Tùng Ô Tô, Phụ Tùng Xe Hơi"
Công Ty Cổ Phần Inamco,"Phòng 502, Tòa Nhà Trần Phú Building, Tổ 24, P. Yên Hòa, Q. Cầu Giấy, Hà Nội",(024) 35565996                                ,Hà Nội,"Phụ Tùng Ô Tô, Phụ Tùng Xe Hơi"
Công Ty TNHH & DV XNK Nam Huynh,"378/3 Đường Nguyên Hồng, P. 1, Q. Gò Vấp, Tp. Hồ Chí Minh (TPHCM)",(028) 37179104                                ,Tp Hcm,"Phụ Tùng Ô Tô, Phụ Tùng Xe Hơi"
Công Ty TNHH XNK Kinh Doanh TM Kính Ô Tô Minh Hoàng,"561 Tam Trinh, Hoàng Văn Thụ, Hoàng Mai Hà Nội",0906146383                              ,Hà Nội,"Phụ Tùng Ô Tô, Phụ Tùng Xe Hơi"
Công Ty TNHH Phụ Tùng Thiết Bị Phú Sỹ,"62 Đường Trương Định, KP. 2, P. Tân Mai, TP. Biên Hoà, Đồng Nai",(0251) 3816817                                 ,Đồng Nai,"Phụ Tùng Ô Tô, Phụ Tùng Xe Hơi"
Công Ty Kính Chu Lai,"Núi Thành, Quảng Nam",0905838824                              ,Quảng Nam,"Phụ Tùng Ô Tô, Phụ Tùng Xe Hơi"
Ngọc Cảnh - Công Ty TNHH Ngọc Cảnh,"189 Đường Tam Trinh, Q. Hai Bà Trưng, Hà Nội",(024) 62957128                                ,Hà Nội,"Phụ Tùng Ô Tô, Phụ Tùng Xe Hơi"
Đại Lý Hyundai Bắc Ninh,"Đường Lê Thái Tổ, Khu Hòa Đình, Phường Võ Cường, Thành Phố Bắc Ninh, Bắc Ninh",0981999636                              ,Bắc Ninh,"Phụ Tùng Ô Tô, Phụ Tùng Xe Hơi"
Trung Tâm Phụ Tùng Ô Tô Quốc Tế Sơn Dung,"Số 23, Đồng Nhân, Quận Hai Bà Trưng, Hà Nội",(024) 39713053                                ,Hà Nội,"Phụ Tùng Ô Tô, Phụ Tùng Xe Hơi"
Nhân Hòa - Chi Nhánh Công Ty TNHH Thương Mại Nhân Hòa,"62 Lê Gia Định, Q. Hai Bà Trưng, Hà Nội",(024) 39765779                                ,Hà Nội,"Phụ Tùng Ô Tô, Phụ Tùng Xe Hơi"
Cơ Sở Tám Anh Phụ Tùng Ô Tô,"542 Kinh Dương Vương, P. An Lạc A, Q. Bình Tân, Tp. Hồ Chí Minh (TPHCM)",(028) 38750464                                ,Tp Hcm,"Phụ Tùng Ô Tô, Phụ Tùng Xe Hơi"
Cửa Hàng Kim Hùng,"336 Bến Hàm Tử, P. 5, Q. 5, Tp. Hồ Chí Minh (TPHCM)",(028) 39238783                                ,Tp Hcm,"Phụ Tùng Ô Tô, Phụ Tùng Xe Hơi"
Công Ty TNHH Thương Mại Dịch Vụ Phụ Tùng Ô Tô MK,"482/10/53 Nơ Trang Long, P. 13, Q. Bình Thạnh, Tp. Hồ Chí Minh (TPHCM)",0903757582                              ,Tp Hcm,"Phụ Tùng Ô Tô, Phụ Tùng Xe Hơi"
Nguyên Hưng - Công Ty TNHH Nguyên Hưng,"24 Hoàng Văn Thái, Q. Thanh Xuân, Hà Nội",(024) 35656195                                ,Hà Nội,"Phụ Tùng Ô Tô, Phụ Tùng Xe Hơi"
Nam Sung - Công Ty TNHH Nam Sung,"39 Đường 52,Cư Xá Lữ Gia, P. 15, Q. 11, Tp. Hồ Chí Minh (TPHCM)",(028) 38665669                                ,Tp Hcm,"Phụ Tùng Ô Tô, Phụ Tùng Xe Hơi"
Công Ty TNHH Ô tô Hoàng Gia,"1374A QL1A Phường Thới An, Quận 12, Tp. Hồ Chí Minh (TPHCM)",(028) 37175678                                ,Tp Hcm,"Phụ Tùng Ô Tô, Phụ Tùng Xe Hơi"
Công ty TNHH Linh Kiện Xe Hơi Longwei Ninh Ba,"Gu Lin Zhen Li Jia Qiao Cun, Quận Haishu, Tp. Ninh Ba, Chiết Giang",(+86) 13732118989                             ,Chiết Giang,"Phụ Tùng Ô Tô, Phụ Tùng Xe Hơi"
Cửa Hàng Đại Tường,"386 Điện Biên Phủ, P. 17, Q. Bình Thạnh, Tp. Hồ Chí Minh (TPHCM)",(028) 35128262                                ,Tp Hcm,"Phụ Tùng Ô Tô, Phụ Tùng Xe Hơi"
Hoàng Anh Vũ - Công Ty TNHH Một Thành Viên Hoàng Anh Vũ,"Thôn Giáng Nam, X. Hòa Phước, H. Hòa Vang, Tp. Đà Nẵng",(0236) 3686894                                 ,Đà Nẵng,"Phụ Tùng Ô Tô, Phụ Tùng Xe Hơi"
Công Ty TNHH Khuôn Đúc TsuKuba Việt Nam,"lô A6, Đường công nghiệp 4, Khu Công Nghiệp Sài Đồng BP. Sài Đồng, Q. Long Biên, Hà Nội",(024) 38752494                                ,Hà Nội,"Phụ Tùng Ô Tô, Phụ Tùng Xe Hơi"
Thiết Bị AGV,"Số 27, Ngõ 2 Mễ Trì Hạ, P. Mễ Trì, Q. Nam Từ Liêm, Hà Nội",0978612947                              ,Hà Nội,"Phụ Tùng Ô Tô, Phụ Tùng Xe Hơi"
Công ty TNHH Xuất Nhập Khẩu Và Thương Mại Roko Việt Nam,"Số 25B, Tổ Dân Phố Số 2, Thị Trấn Đông Anh, Huyện Đông Anh, Tp. Hà Nội",(024) 39650975                                ,Hà Nội,"Phụ Tùng Ô Tô, Phụ Tùng Xe Hơi"
Tân Quang Thái - Công Ty TNHH Một Thành Viên Thương Mại Dịch Vụ Phim Cách Nhiệt Tân Quang Thái,"831 Lê Hồng Phong, P. 12, Q. 10, Tp. Hồ Chí Minh (TPHCM)",(028) 38681196                                ,Tp Hcm,"Phụ Tùng Ô Tô, Phụ Tùng Xe Hơi"
Công ty TNHH Phụ tùng Oto Allmax Qingdao,"Số 1 Đường Cửu Hà, Khu Công nghiệp Tiểu Lưu, Hành Thủy, Hà Bắc",0086 532 85654566                       ,Hà Bắc,"Phụ Tùng Ô Tô, Phụ Tùng Xe Hơi"
Công ty Cổ Phần Cơ Khí Xây Dựng Hùng Cường,"Khu Công Nghiệp Hạp Lĩnh, TP. Bắc Ninh, Bắc Ninh",(0222) 3720677                                 ,Bắc Ninh,"Phụ Tùng Ô Tô, Phụ Tùng Xe Hơi"
Dịch vụ lốp xe Quốc tế,"Số 6, Annai Nagar, đường 200ft, Korattur, Chennai",(+91) 80480 30169                             ,Chennai,"Phụ Tùng Ô Tô, Phụ Tùng Xe Hơi"
Boramtek Việt Nam - Công Ty TNHH -Nhà Máy Boramtek Việt Nam,"Khu Công Nghiệp Biên Hòa 2, 4 Đường 17A, Tp. Biên Hòa, Đồng Nai",(0251) 3836962                                 ,Đồng Nai,"Phụ Tùng Ô Tô, Phụ Tùng Xe Hơi"
Đài Phát - Công Ty TNHH Đài Phát,"Khu Chế Xuất Linh Trung 2, Lô 77B, P. Bình Chiểu, Q. Thủ Đức, Tp. Hồ Chí Minh (TPHCM)",(028) 37292838                                ,Tp Hcm,"Phụ Tùng Ô Tô, Phụ Tùng Xe Hơi"
Công Ty TNHH Hoài Quang,"20 Phan Bội Châu, Khối 7, P. Lê Lợi, TP. Vinh, Nghệ An",(0238) 3854790                                 ,Nghệ An,"Phụ Tùng Ô Tô, Phụ Tùng Xe Hơi"
T Việt Nam - Công Ty TNHH Quốc Tế Cân Bằng Trọng Lượng T Việt Nam,"Tầng3, Khu Chế Xuất Tân Thuận, Đơn Vị 1C,Đường 15, Q. 7, Tp. Hồ Chí Minh (TPHCM)",(028) 37700644                                ,Tp Hcm,"Phụ Tùng Ô Tô, Phụ Tùng Xe Hơi"
Cửa Hàng Phương Nguyên,"1466 Huỳnh Tấn Phát, Khu Phố 2, P. Phú Mỹ, Q. 7, Tp. Hồ Chí Minh (TPHCM)",(028) 37851986                                ,Tp Hcm,"Phụ Tùng Ô Tô, Phụ Tùng Xe Hơi"
Doanh Nghiệp Tư Nhân Đức Hòa,"38 Đinh Công Tráng, P. Thuận Phước, Q. Hải Châu, Tp. Đà Nẵng",(0236) 3537528                                 ,Đà Nẵng,"Phụ Tùng Ô Tô, Phụ Tùng Xe Hơi"
Công Ty TNHH Dịch Vụ Và Thương Mại Trí Mới,"Tân Mới, Tân Dĩnh, Lạng Giang, Bắc Giang",0973031168                              ,Bắc Giang,"Phụ Tùng Ô Tô, Phụ Tùng Xe Hơi"
Công Ty TNHH KDTH Ân Điển,"96 Điện Biên Phủ, Tp. Đà Nẵng",(0236) 3649017                                 ,Đà Nẵng,"Phụ Tùng Ô Tô, Phụ Tùng Xe Hơi"
VPĐD Công Ty TNHH Dragon Auto Speed,"40/7 Trần Thị Nghỉ, Phường 7, Quận Gò Vấp, Tp. Hồ Chí Minh (TPHCM)",(028) 38951569                                ,Tp Hcm,"Phụ Tùng Ô Tô, Phụ Tùng Xe Hơi"
Cửa Hàng Vân Long Phụ Tùng Ô Tô,"408 Xa Lộ Hà Nội, P. Phước Long A, Q. 9, Tp. Hồ Chí Minh (TPHCM)",(028) 37313175                                ,Tp Hcm,"Phụ Tùng Ô Tô, Phụ Tùng Xe Hơi"
Công Ty TNHH Jet Việt Nam,"Số 651 Xa Lộ Hà Nội, P. Linh Trung, Q. Thủ Đức, Tp. Hồ Chí Minh (TPHCM)",(028) 62765621                                ,Tp Hcm,"Phụ Tùng Ô Tô, Phụ Tùng Xe Hơi"
Công Ty TNHH Autotech,"Số 61, Phố Vân Hồ 3, P. Lê Đại Hành, Q. Hai Bà Trưng, Hà Nội",(024) 35683346                                ,Hà Nội,"Phụ Tùng Ô Tô, Phụ Tùng Xe Hơi"
Công Ty TNHH Thương Mại MEDICAR,"41/28 Đường Bàu Cát 8, Phường 14, Quận Tân Bình, Tp. Hồ Chí Minh (TPHCM)",0986929173                              ,Tp Hcm,"Phụ Tùng Ô Tô, Phụ Tùng Xe Hơi"
Công Ty Cổ Phần Kính Ô Tô Sài Gòn,Tp. Hồ Chí Minh Tp. Hồ Chí Minh (TPHCM),0903189042                              ,Tp Hcm,"Phụ Tùng Ô Tô, Phụ Tùng Xe Hơi"
Chi Nhánh Công Ty Cổ Phần Phụ Tùng Và Tư Vấn Ô Tô Tại Nam Định,"Thôn Hồng Phúc, Xã Mỹ Tân, Huyện Mỹ Lộc, Nam Định",(0228) 3632667                                 ,Nam Định,"Phụ Tùng Ô Tô, Phụ Tùng Xe Hơi"
Cơ Sở Phú Quý,"16 Thái Phiên, P. 16, Q. 11, Tp. Hồ Chí Minh (TPHCM)",(028) 39696994                                ,Tp Hcm,"Phụ Tùng Ô Tô, Phụ Tùng Xe Hơi"
Công Ty TNHH Thương Mại Dịch Vụ Ô Tô Tín Phát,"02 Đường Số 14, P. Bình Hưng Hòa A, Q. Bình Tân, Tp. Hồ Chí Minh (TPHCM)",0903191657                              ,Tp Hcm,"Phụ Tùng Ô Tô, Phụ Tùng Xe Hơi"
Công Ty TNHH Thương Mại Và Dịch Vụ AGC18,"907 Tạ Quang Bửu, P. 5, Q. 8, Tp. Hồ Chí Minh (TPHCM)",(028) 22519268                                ,Tp Hcm,"Phụ Tùng Ô Tô, Phụ Tùng Xe Hơi"
Công Ty Cổ Phần Ô Tô Ford Hải Phòng,"Số 4 Bạch Đằng, Hạ Lý, Hồng Bàng, Tp. Hải Phòng",0936992511                              ,Hải Phòng,"Phụ Tùng Ô Tô, Phụ Tùng Xe Hơi"
Công Ty TNHH Thương Mại Và Dịch Vụ MMK Việt Nam,"552 Phạm Văn Chiêu, P. 16, Q. Gò Vấp, Tp. Hồ Chí Minh (TPHCM)",0961286666                              ,Tp Hcm,"Phụ Tùng Ô Tô, Phụ Tùng Xe Hơi"
Công Ty TNHH Một Thành Viên Ngọc Nhẫn,"87 Đào Duy Từ, P.5, Q.10, Tp. Hồ Chí Minh (TPHCM)",(028) 38566767                                ,Tp Hcm,"Phụ Tùng Ô Tô, Phụ Tùng Xe Hơi"
Vòng Bi Ngọc Lập - Công Ty TNHH Ngọc Lập,"Số 24, Đ. Cô Bắc, P. Hải Châu 2, Q. Hải Châu, Tp. Đà Nẵng","(0236) 3868707, 0905 123 255, 0905 825 257     ",Đà Nẵng,"Phụ Tùng Ô Tô, Phụ Tùng Xe Hơi"
Vpđd - Công ty TNHH Mica Công Nghiệp,"10B5 KĐT Mới Đại Kim, Q. Hoàng Mai, Hà Nội",(024) 36402001                                ,Hà Nội,"Phụ Tùng Ô Tô, Phụ Tùng Xe Hơi"
Cửa Hàng Phụ Tùng Ô Tô An Lạc,"144 Đường Số 1A, P. Bình Trị Đông B, Q. Bình Tân, Tp. Hồ Chí Minh (TPHCM)",(028) 35374163                                ,Tp Hcm,"Phụ Tùng Ô Tô, Phụ Tùng Xe Hơi"
Cửa Hàng Thủy Tiên,"18 Phó Đức Chính, P. Nguyễn Thái Bình, Q. 1, Tp. Hồ Chí Minh (TPHCM)",(028) 38210781                                ,Tp Hcm,"Phụ Tùng Ô Tô, Phụ Tùng Xe Hơi"
Việt MS - Công Ty TNHH Việt MS,"K38/15 Lê Hữu Trác, Q. Sơn Trà, Tp. Đà Nẵng",(0236) 3836563                                 ,Đà Nẵng,"Phụ Tùng Ô Tô, Phụ Tùng Xe Hơi"
Công ty TNHH TM XNK OTO Hoàng Kim,"Số 479, Khu phố Tân Cang, Xã Phước Tân, TP. Biên Hòa, Đồng Nai",0966664124                              ,Đồng Nai,"Phụ Tùng Ô Tô, Phụ Tùng Xe Hơi"
Công Ty TNHH Thương Hoàng,"195B Đội Cấn, Ba Đình, Hà Nội",(024) 22123850                                ,Hà Nội,"Phụ Tùng Ô Tô, Phụ Tùng Xe Hơi"
Phụ tùng ô tô- xe tải Tuấn Hà (Phụ Tùng Ô Tô Tuấn Hà),"Thị Trấn Thổ Tang, Huyện Vĩnh Tường, Vĩnh Phúc",0988999321                              ,Vĩnh Phúc,"Phụ Tùng Ô Tô, Phụ Tùng Xe Hơi"
Công Ty TNHH Kỹ Thuật Và Đầu Tư TKK,"69 Lê Duy Lương , P. Hoà Phát, Q. Cẩm Lệ, Tp. Đà Nẵng",0767557799                              ,Đà Nẵng,"Phụ Tùng Ô Tô, Phụ Tùng Xe Hơi"
Công Ty TNHH Oto Vina,"Đường N2, KCN Nhơn Trạch V, Thị Trấn Hiệp Phước, Huyện Nhơn Trạch, Đồng Nai",(0251) 3569391                                 ,Đồng Nai,"Phụ Tùng Ô Tô, Phụ Tùng Xe Hơi"
Công ty TNHH Động Cơ Diesel Đại Liên Mali,"Số 853, đường Xibei, quận Ganjingzi, thành phố Đại Liên, tỉnh Liêu Ninh, Trung Quốc Tp. Hồ Chí Minh (TPHCM)","(+86) 17266009261, +86 15641148886            ",Tp Hcm,"Phụ Tùng Ô Tô, Phụ Tùng Xe Hơi"
Công Ty TNHH Phụ Tùng Ô Tô Tân Anh Minh,"Số 90, Phố Yên Lạc, Phường Vĩnh Tuy, Quận Hai Bà Trưng, Hà Nội",0919896116                              ,Hà Nội,"Phụ Tùng Ô Tô, Phụ Tùng Xe Hơi"
Phụ Tùng Ô Tô Năm Châu,"104 phố Lạc Nghiệp, Thanh Nhàn, Hai Bà Trưng, Hà Nội",0877469666                              ,Hà Nội,"Phụ Tùng Ô Tô, Phụ Tùng Xe Hơi"
Công Ty TNHH Phụ Tùng Ô Tô Nhập Mỹ,"425 QL 1A, P. Bình Hưng Hòa, Q. Bình Tân, Tp. Hồ Chí Minh (TPHCM)",0938832496                              ,Tp Hcm,"Phụ Tùng Ô Tô, Phụ Tùng Xe Hơi"
Guangzhou Huayang Auto Parts Ltd,"C313 Chengfeng Commercial Building, No.1804 Jichang Road, Trung Qu&#7889c",184 7680 6374                           ,Trung Qu&#7889c,"Phụ Tùng Ô Tô, Phụ Tùng Xe Hơi"
Công Ty Cổ Phần Sài Gòn Kim Lân,"54 Quốc Lộ 13 cũ, KP 3, P. Hiệp Bình Phước, Quận Thủ Đức, Tp. Hồ Chí Minh (TPHCM)",(028) 62572683                                ,Tp Hcm,"Phụ Tùng Ô Tô, Phụ Tùng Xe Hơi"
Công Ty TNHH XNK Và TM Cường Văn,"Đội 11, X. Tả Thanh Oai, H. Thanh Trì, Hà Nội",(024) 39714739                                ,Hà Nội,"Phụ Tùng Ô Tô, Phụ Tùng Xe Hơi"
Công Ty CP Ô Tô Traza,"56/139 Tam Trinh, Hà Nội",0916108148                              ,Hà Nội,"Phụ Tùng Ô Tô, Phụ Tùng Xe Hơi"
Công Ty TNHH Carryingmate Industries Việt Nam,"Nhà Xưởng C1B-D, Lô C1B-CN, Đường DE5, KCN Mỹ Phước 3, P. Thới Hòa, TX. Bến Cát, Bình Dương",(0274) 3803868                                 ,Bình Dương,"Phụ Tùng Ô Tô, Phụ Tùng Xe Hơi"
Công Ty TNHH Việt Nam Nok,"Lô 208, KCN Amata, Phường Long Bình, TP Biên Hòa, Đồng Nai",0613936311                              ,Đồng Nai,"Phụ Tùng Ô Tô, Phụ Tùng Xe Hơi"
Công Ty TNHH Shinyang Metal Việt Nam,"Lô XN3 -1A , KCN Đại An Mở Rộng, Thị Trấn Lai Cách, Huyện Cẩm Giàng, Hải Dương",0936733226                              ,Hải Dương,"Phụ Tùng Ô Tô, Phụ Tùng Xe Hơi"
Công Ty Cổ Phần LRV Việt Nam, Tp. Hồ Chí Minh (TPHCM),0967056888                              ,Tp Hcm,"Phụ Tùng Ô Tô, Phụ Tùng Xe Hơi"
Auto Hoàng Anh,"76 Nguyễn Hoàng Tôn, Quận Tây Hồ, Hà Nội",0938966222                              ,Hà Nội,"Phụ Tùng Ô Tô, Phụ Tùng Xe Hơi"
Công Ty TNHH Thương Mại Và Công Nghiệp An Sơn Vina,"Số 51 Phạm Ngũ Lão, Đường Khả Lễ 1, P. Võ Cường, TP. Bắc Ninh, Bắc Ninh",0973751655 - 0915286216 - 0978576981    ,Bắc Ninh,"Phụ Tùng Ô Tô, Phụ Tùng Xe Hơi"
Công Ty TNHH TMDV Nhật Nga,"354/47/12/14 Quốc lộ 1, KP. 3, P. Bình Hưng Hòa B, Q. Bình Tân, Tp. Hồ Chí Minh (TPHCM)",093 863 3586                            ,Tp Hcm,"Phụ Tùng Ô Tô, Phụ Tùng Xe Hơi"
"NiuShangShandong NiuShang Auto Parts Co., Ltd","KCN Yandian Town, Thành phố Lâm Thanh, Sơn Đông",13455075579                             ,Sơn Đông,"Phụ Tùng Ô Tô, Phụ Tùng Xe Hơi"
Hợp Vũ - Công Ty TNHH Hợp Vũ,"Khu Chế Xuất Tân Thuận, Đường 15, P. Tân Thuận Đông, Q. 7, Tp. Hồ Chí Minh (TPHCM)",(028) 37701148                                ,Tp Hcm,"Phụ Tùng Ô Tô, Phụ Tùng Xe Hơi"
Công Ty Đồ Chơi Ô Tô Thành Phát - Nội Thất Ô Tô Thành Phát,"11 Đường 12, Phường Hiệp Bình Chánh, Quận Thủ Đức Tp. Hồ Chí Minh (TPHCM)","0934 044 228, 0977 666 759              ",Tp Hcm,"Phụ Tùng Ô Tô, Phụ Tùng Xe Hơi"
Hoàng Hà - Công Ty TNHH Một Thành Viên Thương Mại Dịch Vụ Ô Tô Hoàng Hà,"335A Trần Bình Trọng, P. 4, Q. 5, Tp. Hồ Chí Minh (TPHCM)",(028) 38306539                                ,Tp Hcm,"Phụ Tùng Ô Tô, Phụ Tùng Xe Hơi"
Quang Huy - Công Ty TNHH Quang Huy,"184B Đường 3 Tháng 2, P. Hưng Lợi, Q. Ninh Kiều, Tp. Cần Thơ",(0292) 3838665                                 ,Tp. Cần Thơ,"Phụ Tùng Ô Tô, Phụ Tùng Xe Hơi"
Chi Nhánh - Công Ty Thiết Bị Phụ Tùng Đà Nẵng,"239 Hồ Văn Huê, P. 9, Q. Phú Nhuận, Tp. Hồ Chí Minh (TPHCM)",(028) 38457414                                ,Tp Hcm,"Phụ Tùng Ô Tô, Phụ Tùng Xe Hơi"
Cầu Vồng Châu á - Công Ty TNHH Đầu Tư Cầu Vồng Châu á,"184A Tôn Thất Thuyết, P. 4, Q. 4, Tp. Hồ Chí Minh (TPHCM)",(028) 38259623                                ,Tp Hcm,"Phụ Tùng Ô Tô, Phụ Tùng Xe Hơi"
Phú Cường - Vpđd Công ty TNHH Phú Cường,"VPDD: Số 28 Đường 19, Khu Phố 5, P. An Phú, Q.2 (Lầu 1 Khu B, Cao ốc An Khang - INTRESCO) Hà Nội",(024) 62817576                                ,Hà Nội,"Phụ Tùng Ô Tô, Phụ Tùng Xe Hơi"
TAT - Công Ty Cổ Phần Thương Mại TAT,"25 Ngõ 90,Khuất Duy Tiến, X. Nhân Chính, Q. Thanh Xuân, Hà Nội",(024) 22143567                                ,Hà Nội,"Phụ Tùng Ô Tô, Phụ Tùng Xe Hơi"
Công Ty Cổ Phần Thiết Bị Phụ Tùng Đà Nẵng,"53 Trần Phú, P. Hải Châu 1, Q. Hải Châu, Tp. Đà Nẵng",(0236) 3821681                                 ,Đà Nẵng,"Phụ Tùng Ô Tô, Phụ Tùng Xe Hơi"
Đại Vọng Việt Nam - Công Ty TNHH Thương Mại Dịch Vụ Đại Vọng Việt Nam,"L20 Khu Miếu Nổi, P. 3, Q. Bình Thạnh, Tp. Hồ Chí Minh (TPHCM)",(028) 35170324                                ,Tp Hcm,"Phụ Tùng Ô Tô, Phụ Tùng Xe Hơi"
Tổng Công Ty Cơ Khí Giao Thông Vận Tải Sài Gòn,"D11/6Q Quốc Lộ 1A, P. Tân Tạo, Q. Bình Tân, Tp. Hồ Chí Minh (TPHCM)",(028) 37543895                                ,Tp Hcm,"Phụ Tùng Ô Tô, Phụ Tùng Xe Hơi"
Cửa Hàng Phương Thúy Phụ Tùng Ô Tô,"118 Quốc Lộ 13, P. 26, Q. Bình Thạnh, Tp. Hồ Chí Minh (TPHCM)",(028) 35111992                                ,Tp Hcm,"Phụ Tùng Ô Tô, Phụ Tùng Xe Hơi"
Vân Vũ - Công Ty TNHH Vân Vũ,"52 Vũ Huy Tấn, P. 3, Q. Bình Thạnh, Tp. Hồ Chí Minh (TPHCM)",(028) 35173650                                ,Tp Hcm,"Phụ Tùng Ô Tô, Phụ Tùng Xe Hơi"
Showroom Ô Tô Mazda Bến Thành,"72 Trần Đình Xu, P. Cô Giang, Q.1, Tp. Hồ Chí Minh (TPHCM)",909313711                               ,Tp Hcm,"Phụ Tùng Ô Tô, Phụ Tùng Xe Hơi"
Thanh Xuân Vĩnh - Công Ty TNHH Thanh Xuân Vĩnh,"9 Đường Số 3; Khu Phố 5,Kha Vạn Cân, P. Hiệp Bình Chánh, Q. Thủ Đức, Tp. Hồ Chí Minh (TPHCM)",(028) 54036821                                ,Tp Hcm,"Phụ Tùng Ô Tô, Phụ Tùng Xe Hơi"
Toàn Thắng - Công Ty TNHH Ô Tô Toàn Thắng,"284/7/1 Lý Thường Kiệt, P. 14, Q. 5, Tp. Hồ Chí Minh (TPHCM)",(028) 62647582                                ,Tp Hcm,"Phụ Tùng Ô Tô, Phụ Tùng Xe Hơi"
Dong Jin Việt Nam - Công Ty TNHH Dong Jin Việt Nam,"Khu Công Nghiệp Long Bình, Lô E2,Đường 5, Tp. Biên Hòa, Đồng Nai",(0251) 3993003                                 ,Đồng Nai,"Phụ Tùng Ô Tô, Phụ Tùng Xe Hơi"
ánh Tim - Công Ty TNHH Đầu Tư Sản Xuất & Thương Mại ánh Tim,"515 Thụy Khuê, P. Bưởi, Q. Tây Hồ, Hà Nội",(024) 39121415                                ,Hà Nội,"Phụ Tùng Ô Tô, Phụ Tùng Xe Hơi"
Tam Tiến - Công Ty TNHH Thương Mại Dịch Vụ Ô Tô Tam Tiến,"67 Phan Huy ích, P. 15, Q. Tân Bình, Tp. Hồ Chí Minh (TPHCM)",(028) 54271948                                ,Tp Hcm,"Phụ Tùng Ô Tô, Phụ Tùng Xe Hơi"
Công Ty TNHH Công Nghiệp & Thương Mại Ô Tô,"38 Phan Kế Bính, P. Cống Vị, Q. Ba Đình, Hà Nội",(024) 37629884                                ,Hà Nội,"Phụ Tùng Ô Tô, Phụ Tùng Xe Hơi"
Doanh Nghiệp Tư Nhân Thơ Phượng,"226C Tổ 3,Khu Phố 3, P. Long Bình, Tp. Biên Hòa, Đồng Nai",(0251) 3891760                                 ,Đồng Nai,"Phụ Tùng Ô Tô, Phụ Tùng Xe Hơi"
Lộc Phát - Công Ty TNHH Thương Mại Dịch Vụ Du Lịch Lộc Phát,"45/2 Nguyên Hồng, P. 11, Q. Bình Thạnh, Tp. Hồ Chí Minh (TPHCM)",(028) 35161102                                ,Tp Hcm,"Phụ Tùng Ô Tô, Phụ Tùng Xe Hơi"
Cửa Hàng Khang Thành,"332 An Dương Vương, P. An Lạc, Q. Bình Tân, Tp. Hồ Chí Minh (TPHCM)",(028) 38351078                                ,Tp Hcm,"Phụ Tùng Ô Tô, Phụ Tùng Xe Hơi"
Công Ty TNHH Ô Tô Sài Gòn,"700 Quốc Lộ 1A, P. Bình Hưng Hòa B, Q. Bình Tân, Tp. Hồ Chí Minh (TPHCM)",(028) 37522108                                ,Tp Hcm,"Phụ Tùng Ô Tô, Phụ Tùng Xe Hơi"
Chánh Nguyên - Công Ty TNHH Phụ Tùng Ô Tô Chánh Nguyên,"566 Hồng Bàng, P. 16, Q. 11, Tp. Hồ Chí Minh (TPHCM)",(028) 39690595                                ,Tp Hcm,"Phụ Tùng Ô Tô, Phụ Tùng Xe Hơi"
19/5 - Cty Cổ Phần Cơ Khí Ô Tô,"280 Bà Triệu, X. Đông Thọ, Thanh Hóa",(0237) 3852447                                 ,Thanh Hóa,"Phụ Tùng Ô Tô, Phụ Tùng Xe Hơi"
Bắc Hải - Công Ty Cổ Phần Thương Mại Bắc Hải,"1178 Láng Hạ, Q. Đống Đa, Hà Nội",(024) 22188778                                ,Hà Nội,"Phụ Tùng Ô Tô, Phụ Tùng Xe Hơi"
Đức Cường - Công Ty TNHH Đức Cường,"Tổ 7, Nguyễn Du Nối Dài,P. Tân Thạnh, Tp. Tam Kỳ, Quảng Nam",(0235) 3811092                                 ,Quảng Nam,"Phụ Tùng Ô Tô, Phụ Tùng Xe Hơi"
Việt Ô Tô - Công Ty TNHH Việt Ô Tô,"17/2 Nguyễn Hữu Cảnh, P. 22, Q. Bình Thạnh, Tp. Hồ Chí Minh (TPHCM)",(028) 62945656                                ,Tp Hcm,"Phụ Tùng Ô Tô, Phụ Tùng Xe Hơi"
Cửa Hàng Kinh Doanh Phụ Tùng Số 5,"156 Trần Quang Khải, Q. Hoàn Kiếm, Hà Nội",(024) 38265478                                ,Hà Nội,"Phụ Tùng Ô Tô, Phụ Tùng Xe Hơi"
Công Ty Cổ Phần VMC,"B14-15 (C4-1) Hoàng Văn Thái, TTTM Tài Chính Phú Mỹ Hưng, P. Tân Quý, Q. 7, Tp. Hồ Chí Minh (TPHCM)",(028) 54292246                                ,Tp Hcm,"Phụ Tùng Ô Tô, Phụ Tùng Xe Hơi"
Hưởng Dung - Công Ty TNHH Hưởng Dung,"Khu 10, Thị Trấn Trới,H. Hoành Bộ, Quảng Ninh",(0203) 3858408                                 ,Quảng Ninh,"Phụ Tùng Ô Tô, Phụ Tùng Xe Hơi"
NCX Hà Nội Liên Doanh - Công Ty TNHH NCX Hà Nội Liên Doanh,"Km 9 Quốc Lộ 1A, P. Hoàng Liệt, Q. Hoàng Mai, Hà Nội",(024) 62886868                                ,Hà Nội,"Phụ Tùng Ô Tô, Phụ Tùng Xe Hơi"
Đông Trọng Thịnh - Công Ty Cổ Phần Thương Mại Đông Trọng Thịnh,"7 Lê Thánh Tông, Q. Ngô Quyền, Tp. Hải Phòng",(0225) 3750040                                 ,Hải Phòng,"Phụ Tùng Ô Tô, Phụ Tùng Xe Hơi"
Cửa Hàng Tài Phụ Tùng Ô Tô,"511 Điện Biên Phủ, P. 25, Q. Bình Thạnh, Tp. Hồ Chí Minh (TPHCM)",(028) 38035192                                ,Tp Hcm,"Phụ Tùng Ô Tô, Phụ Tùng Xe Hơi"
Công Ty TNHH Exedy Việt Nam,"Khu CN Khai Quang, TX. Vĩnh Yên, Vĩnh Phúc",(0211) 3721252                                 ,Vĩnh Phúc,"Phụ Tùng Ô Tô, Phụ Tùng Xe Hơi"
Cửa Hàng Cường Thanh Vỏ Ruột Xe,"269 Lạc Long Quân, P. 3, Q. 11, Tp. Hồ Chí Minh (TPHCM)",(028) 39634849                                ,Tp Hcm,"Phụ Tùng Ô Tô, Phụ Tùng Xe Hơi"
Cửa Hàng Du Ha,"60 Phó Đức Chính, P. Nguyễn Thái Bình, Q. 1, Tp. Hồ Chí Minh (TPHCM)",(028) 39141939                                ,Tp Hcm,"Phụ Tùng Ô Tô, Phụ Tùng Xe Hơi"
Phúc Anh - Công Ty TNHH Thương Mại Dịch Vụ & Du Lịch Phúc Anh,"14 Đường 2,Cư Xá Lữ Gia, P. 15, Q. 11, Tp. Hồ Chí Minh (TPHCM)",(028) 38661943                                ,Tp Hcm,"Phụ Tùng Ô Tô, Phụ Tùng Xe Hơi"
Vĩnh Phước - Công Ty TNHH Thương Mại Dịch Vụ Vĩnh Phước,"C3/16 ấp 3,Chánh Hưng, X. Bình Hưng, H. Bình Chánh, Tp. Hồ Chí Minh (TPHCM)",(028) 37584158                                ,Tp Hcm,"Phụ Tùng Ô Tô, Phụ Tùng Xe Hơi"
Công Ty TNHH Thương Mại Trung Thịnh,"Số 706 Trần Phú , P. 6 , TP. Vũng Tàu, Bà Rịa-Vũng Tàu",(0254) 3838193                                 ,Bà Rịa-Vũng Tàu,"Phụ Tùng Ô Tô, Phụ Tùng Xe Hơi"
Chế Trường Sơn - Công Ty TNHH Một Thành Viên Chế Trường Sơn,"74/47 Hẻm 249,Tân Kỳ Tân Quý, P. Tân Sơn Nhì, Q. Tân Phú, Tp. Hồ Chí Minh (TPHCM)",(028) 38120239                                ,Tp Hcm,"Phụ Tùng Ô Tô, Phụ Tùng Xe Hơi"
Công Ty TNHH Đại Minh,"491B Nguyễn Văn Cừ, Q. Long Biên, Hà Nội",(024) 38735945                                ,Hà Nội,"Phụ Tùng Ô Tô, Phụ Tùng Xe Hơi"
Cửa Hàng Tâm Thủy Phụ Tùng Ô Tô,"423 An Dương Vương, P. 3, Q. 5, Tp. Hồ Chí Minh (TPHCM)",(028) 38303906                                ,Tp Hcm,"Phụ Tùng Ô Tô, Phụ Tùng Xe Hơi"
Âu Mỹ - Công Ty Cổ Phần Nội Thất Ô Tô Âu Mỹ,"191 Nam Kỳ Khởi Nghĩa, P. 7, Q. 3, Tp. Hồ Chí Minh (TPHCM)",(028) 39322801                                ,Tp Hcm,"Phụ Tùng Ô Tô, Phụ Tùng Xe Hơi"
Tùng Phương - Công Ty TNHH Tùng Phương,"Khối 3,TT. Núi Thành, H. Núi Thành, Quảng Nam",(0235) 3570988                                 ,Quảng Nam,"Phụ Tùng Ô Tô, Phụ Tùng Xe Hơi"
Công Ty TNHH Thiết Bị Công Nghiệp Hoàng Dương,"Số 15/7 Phố Canh Nông 2, P. Quang Trung, Hải Dương",(0220) 3842198                                 ,Hải Dương,"Phụ Tùng Ô Tô, Phụ Tùng Xe Hơi"
Công Ty TNHH Thương Mại Và Dịch Vụ Thiên Trường An,"KCN Lai Xá, Kim Chung, Hòa Đức, Hà Nội",(024) 33662566                                ,Hà Nội,"Phụ Tùng Ô Tô, Phụ Tùng Xe Hơi"
Doanh Nghiệp Tư Nhân Giang Hải,"153 Lê Lợi, Tp. Tuy Hòa, Phú Yên",(0257) 3824134                                 ,Phú Yên,"Phụ Tùng Ô Tô, Phụ Tùng Xe Hơi"
Hồng Cường - Công Ty TNHH Thương Mại Dịch Vụ & XNK Mâm Đúc Hồng Cường,"104B Lý Thái Tổ, P. 1, Q. 10, Tp. Hồ Chí Minh (TPHCM)",(028) 38303493                                ,Tp Hcm,"Phụ Tùng Ô Tô, Phụ Tùng Xe Hơi"
Doanh Nghiệp Tư Nhân D & C,"515 Nguyễn Lương Bằng, Q. Liên Chiểu, Tp. Đà Nẵng",(0236) 3770670                                 ,Đà Nẵng,"Phụ Tùng Ô Tô, Phụ Tùng Xe Hơi"
Tổng Công Ty Cơ Khí Giao Thông Vận Tải Sài Gòn,"D11/6Q Quốc Lộ 1A, P. Tân Tạo, Q. Bình Tân, Tp. Hồ Chí Minh (TPHCM)",(028) 37543895                                ,Tp Hcm,"Phụ Tùng Ô Tô, Phụ Tùng Xe Hơi"
Lan Hoàng - Công Ty TNHH Thương Mại Lan Hoàng,"236/31 Trần Hưng Đạo, P. 11, Q. 5, Tp. Hồ Chí Minh (TPHCM)",(028) 38548891                                ,Tp Hcm,"Phụ Tùng Ô Tô, Phụ Tùng Xe Hơi"
Doanh Nghiệp Tư Nhân Hà Lốp,"25 Lê Văn Hiến, Q. Ngũ Hành Sơn, Tp. Đà Nẵng",(0236) 3847034                                 ,Đà Nẵng,"Phụ Tùng Ô Tô, Phụ Tùng Xe Hơi"
Phú Mỹ - Công Ty Cổ Phần Vận Tải Phú Mỹ,"Quốc Lộ 51, TT. Phú Mỹ, H. Tân Thành, Bà Rịa-Vũng Tàu",(0254) 3895700                                 ,Bà Rịa-Vũng Tàu,"Phụ Tùng Ô Tô, Phụ Tùng Xe Hơi"
Công Ty TNHH Thiết Bị Công Nghiệp Hoàng Dương,"Số 15/7 Phố Canh Nông 2, P. Quang Trung, Hải Dương",(0220) 3842198                                 ,Hải Dương,"Phụ Tùng Ô Tô, Phụ Tùng Xe Hơi"
Công Ty TNHH Ô Tô Hàn Việt,"2/22 Âp Tân Lập, X. Đông Hòa, H. Dĩ An, Bình Dương",(0274) 37252375                                ,Bình Dương,"Phụ Tùng Ô Tô, Phụ Tùng Xe Hơi"
Việt Vân - Công Ty TNHH Việt Vân,"30 Phó Đức Chính, Q. Ba Đình, Hà Nội",(024) 38293076                                ,Hà Nội,"Phụ Tùng Ô Tô, Phụ Tùng Xe Hơi"
Dong Jin Việt Nam - Công Ty TNHH Dong Jin Việt Nam,"Khu Công Nghiệp Long Bình, Lô E2,Đường 5, Tp. Biên Hòa, Đồng Nai",(0251) 3993003                                 ,Đồng Nai,"Phụ Tùng Ô Tô, Phụ Tùng Xe Hơi"
Âu Châu - Công Ty Cổ Phần Ô Tô (BMW) Âu Châu,"165 Pasteur, P. 6, Q. 3, Tp. Hồ Chí Minh (TPHCM)",(028) 38207799                                ,Tp Hcm,"Phụ Tùng Ô Tô, Phụ Tùng Xe Hơi"
Duy Linh - Công Ty TNHH Thương Mại Dịch Vụ Duy Linh,"797-799 Giải Phóng, Q. Hoàng Mai, Hà Nội",(024) 36642917                                ,Hà Nội,"Phụ Tùng Ô Tô, Phụ Tùng Xe Hơi"
Cửa Hàng Thành Lợi,"1134 Đường 3 Tháng 2, P. 12, Q. 11, Tp. Hồ Chí Minh (TPHCM)",(028) 39623210                                ,Tp Hcm,"Phụ Tùng Ô Tô, Phụ Tùng Xe Hơi"
Cầu Vồng Châu á - Công Ty TNHH Đầu Tư Cầu Vồng Châu á,"184A Tôn Thất Thuyết, P. 4, Q. 4, Tp. Hồ Chí Minh (TPHCM)",(028) 38259623                                ,Tp Hcm,"Phụ Tùng Ô Tô, Phụ Tùng Xe Hơi"
TMT - Công Ty Cổ Phần Ô Tô TMT,"199B Minh Khai, Q. Hai Bà Trưng, Hà Nội",(024) 38628205                                ,Hà Nội,"Phụ Tùng Ô Tô, Phụ Tùng Xe Hơi"
Đường Việt - Công Ty TNHH Thương Mại & Dịch Vụ Đường Việt,"512 Điện Biên Phủ, Q. Thanh Khê, Tp. Đà Nẵng",(0236) 3758958                                 ,Đà Nẵng,"Phụ Tùng Ô Tô, Phụ Tùng Xe Hơi"
Con Kiến Đỏ - Công Ty TNHH Con Kiến Đỏ,"105 Trần Thiện Chánh, P. 12, Q. 10, Tp. Hồ Chí Minh (TPHCM)",(028) 38634880                                ,Tp Hcm,"Phụ Tùng Ô Tô, Phụ Tùng Xe Hơi"
Xuyên á - Công Ty TNHH Dịch Vụ Ô Tô Xuyên á,"720 Trường Chinh, P. 15, Q. Tân Bình, Tp. Hồ Chí Minh (TPHCM)",(028) 38151481                                ,Tp Hcm,"Phụ Tùng Ô Tô, Phụ Tùng Xe Hơi"
Thịnh Phát Lợi - Công Ty TNHH Thương Mại Dịch Vụ Thịnh Phát Lợi,"15 Cư Xá Bình Thới,Đường 3A, P. 8, Q. 11, Tp. Hồ Chí Minh (TPHCM)",(028) 54068214                                ,Tp Hcm,"Phụ Tùng Ô Tô, Phụ Tùng Xe Hơi"
Tân Vạn Thuận 2 - Công Ty TNHH Một Thành Viên Tân Vạn Thuận 2,"476 Nguyễn Đáng,P. 6, TX. Trà Vinh, Trà Vinh",(0294) 3840231                                 ,Trà Vinh,"Phụ Tùng Ô Tô, Phụ Tùng Xe Hơi"
Công Ty TNHH Hồng Phong,"Số 162 Đường Tựu Liệt, Thanh Trì, Hà Nội",(024) 36870530                                ,Hà Nội,"Phụ Tùng Ô Tô, Phụ Tùng Xe Hơi"
Ohara - Công Ty TNHH Plastics Việt Nam Ohara,"Khu Công Nghiệp Thăng Long, Lô B 11/12, H. Đông Anh, Hà Nội",(024) 38813252                                ,Hà Nội,"Phụ Tùng Ô Tô, Phụ Tùng Xe Hơi"
Đức Độ - Công Ty TNHH Thương Mại & Dịch Vụ Đức Độ,"27 Nguyễn Tri Phương, Q. Thanh Khê, Tp. Đà Nẵng",(0236) 3653169                                 ,Đà Nẵng,"Phụ Tùng Ô Tô, Phụ Tùng Xe Hơi"
Công Ty TNHH YazaKi Eds Việt Nam,"Khu Phố Thống Nhất 1, Phường Dĩ An, Thị xã Dĩ An, Bình Dương",(0274) 3752590                                 ,Bình Dương,"Phụ Tùng Ô Tô, Phụ Tùng Xe Hơi"
Chi Nhánh Công Ty TNHH Phụ Tùng Ô Tô Sài Gòn,"9 Huỳnh Thúc Kháng, Q. Đống Đa, Hà Nội",(024) 37763584                                ,Hà Nội,"Phụ Tùng Ô Tô, Phụ Tùng Xe Hơi"
Gamma - Công Ty Cổ Phần Kỹ Nghệ Gamma,"Tầng9, 299 Tòa Nhà CTM,Cầu Giấy, Q. Cầu Giấy, Hà Nội",(024) 22201688                                ,Hà Nội,"Phụ Tùng Ô Tô, Phụ Tùng Xe Hơi"
Sanyo Seisakusho (Việt Nam) - Công Ty TNHH Sanyo Seisakusho (Việt Nam),"Khu Chế Xuất Tân Thuận, Đường Số 19, P. Tân Thuận Đông, Q. 7, Tp. Hồ Chí Minh (TPHCM)",(028) 37700689                                ,Tp Hcm,"Phụ Tùng Ô Tô, Phụ Tùng Xe Hơi"
Cửa Hàng Liêm Tuyết,"20 Phó Đức Chính, P. Nguyễn Thái Bình, Q. 1, Tp. Hồ Chí Minh (TPHCM)",(028) 38211730                                ,Tp Hcm,"Phụ Tùng Ô Tô, Phụ Tùng Xe Hơi"
Sao Mai M.S - Công Ty Cổ Phần Sao Mai M.S,"233 Nguyễn Công Trứ, P. Nguyễn Thái Bình, Q. 1, Tp. Hồ Chí Minh (TPHCM)",(028) 39143662                                ,Tp Hcm,"Phụ Tùng Ô Tô, Phụ Tùng Xe Hơi"
Cửa Hàng Thuận Thành Phụ Tùng Ô Tô,"16 Thái Phiên, P. 16, Q. 11, Tp. Hồ Chí Minh (TPHCM)",(028) 39603586                                ,Tp Hcm,"Phụ Tùng Ô Tô, Phụ Tùng Xe Hơi"
Công Ty Lục Nhân Hữu Hạn Điện Cơ,"Khu Công Nghiệp Hố Nai, Lô 9-11,H. Trảng Bom, Đồng Nai",(0251) 3984211                                 ,Đồng Nai,"Phụ Tùng Ô Tô, Phụ Tùng Xe Hơi"
Cơ Sở Phú hữu 2,"364 Hồng Bàng, P. 16, Q. 11, Tp. Hồ Chí Minh (TPHCM)",(028) 39693924                                ,Tp Hcm,"Phụ Tùng Ô Tô, Phụ Tùng Xe Hơi"
Sao Việt - Công Ty TNHH Thương Mại & Phát Triển Sao Việt,"18 Ngõ 205,Giải Phóng, P. Đồng Tâm, Q. Hai Bà Trưng, Hà Nội",(024) 39169375                                ,Hà Nội,"Phụ Tùng Ô Tô, Phụ Tùng Xe Hơi"
Cơ Sở Đức Gia Công Inox,"301-303 An Dương Vương, P. 3, Q. 5, Tp. Hồ Chí Minh (TPHCM)",(028) 38358169                                ,Tp Hcm,"Phụ Tùng Ô Tô, Phụ Tùng Xe Hơi"
Cửa Hàng Thái An Vỏ Ruột Xe Ô Tô,"111/2 Quốc Lộ 1A, P. Thanh Xuân, Q. 12, Tp. Hồ Chí Minh (TPHCM)",(028) 37169037                                ,Tp Hcm,"Phụ Tùng Ô Tô, Phụ Tùng Xe Hơi"
Doanh Nghiệp Tư Nhân Chi Đức,"433 Tổ 1,Khu Phố 5, P. Long Bình, Tp. Biên Hòa, Đồng Nai",(0251) 3995009                                 ,Đồng Nai,"Phụ Tùng Ô Tô, Phụ Tùng Xe Hơi"
Đại Lợi - Công Ty TNHH Thương Mại Đại Lợi,"2 Lãnh Binh Thăng, P. 13, Q. 11, Tp. Hồ Chí Minh (TPHCM)",(028) 39620094                                ,Tp Hcm,"Phụ Tùng Ô Tô, Phụ Tùng Xe Hơi"
Cửu Long Giang - Công Ty Cổ Phần Ô Tô Cửu Long Giang,"18 Phan Văn Trị, P. 10, Q. Gò Vấp, Tp. Hồ Chí Minh (TPHCM)",(028) 39210389                                ,Tp Hcm,"Phụ Tùng Ô Tô, Phụ Tùng Xe Hơi"
Toàn Thắng - Công Ty TNHH Ô Tô Toàn Thắng,"284/7/1 Lý Thường Kiệt, P. 14, Q. 5, Tp. Hồ Chí Minh (TPHCM)",(028) 62647582                                ,Tp Hcm,"Phụ Tùng Ô Tô, Phụ Tùng Xe Hơi"
Tt Giải Phóng Kinh Doanh Ô Tô-Cty Cổ Phần Cơ Điện Việt Nam,"1608/3A Quốc Lộ 1A, P. An Phú Đông, Q. 12, Tp. Hồ Chí Minh (TPHCM)",(028) 37196116                                ,Tp Hcm,"Phụ Tùng Ô Tô, Phụ Tùng Xe Hơi"
Công Ty TNHH MTV Cơ Khí,"Tổ 10, P. Mỏ Chè, Tx. Sông Công, Thái Nguyên",(0208) 2212220                                 ,Thái Nguyên,"Phụ Tùng Ô Tô, Phụ Tùng Xe Hơi"
Cửa Hàng Tài Phụ Tùng Ô Tô,"511 Điện Biên Phủ, P. 25, Q. Bình Thạnh, Tp. Hồ Chí Minh (TPHCM)",(028) 38035192                                ,Tp Hcm,"Phụ Tùng Ô Tô, Phụ Tùng Xe Hơi"
Bắc Hà - Công Ty TNHH Thương Mại Tổng Hợp Bắc Hà,"184 Trần Quang Khải, Q. Hoàn Kiếm, Hà Nội",(024) 39347675                                ,Hà Nội,"Phụ Tùng Ô Tô, Phụ Tùng Xe Hơi"
Bảo Minh - Công Ty Cổ Phần Đầu Tư & Xây Dựng Bảo Minh,"12 Ngách Hồ Hàm Long, Ngõ 1,Âu Cơ, P. Quảng An, Q. Tây Hồ, Hà Nội",(024) 39365325                                ,Hà Nội,"Phụ Tùng Ô Tô, Phụ Tùng Xe Hơi"
Việt Xuân - Công Ty TNHH Đầu Tư & Phát Triển Việt Xuân,"1B Yên Thế, Q. Đống Đa, Hà Nội",(024) 38431169                                ,Hà Nội,"Phụ Tùng Ô Tô, Phụ Tùng Xe Hơi"
Doanh Nghiệp Tư Nhân Châu Huy,"233 Nguyễn Chí Thanh, Q. Hải Châu, Tp. Đà Nẵng",(0236) 2461207                                 ,Đà Nẵng,"Phụ Tùng Ô Tô, Phụ Tùng Xe Hơi"
Cửu Long Giang - Công Ty Cổ Phần Ô Tô Cửu Long Giang,"18 Phan Văn Trị, P. 10, Q. Gò Vấp, Tp. Hồ Chí Minh (TPHCM)",(028) 39210389                                ,Tp Hcm,"Phụ Tùng Ô Tô, Phụ Tùng Xe Hơi"
Công Ty TNHH Đại Minh,"491B Nguyễn Văn Cừ, Q. Long Biên, Hà Nội",(024) 38735945                                ,Hà Nội,"Phụ Tùng Ô Tô, Phụ Tùng Xe Hơi"
Doanh Nghiệp Tư Nhân D & C,"515 Nguyễn Lương Bằng, Q. Liên Chiểu, Tp. Đà Nẵng",(0236) 3770670                                 ,Đà Nẵng,"Phụ Tùng Ô Tô, Phụ Tùng Xe Hơi"
Vân Vũ - Công Ty TNHH Vân Vũ,"52 Vũ Huy Tấn, P. 3, Q. Bình Thạnh, Tp. Hồ Chí Minh (TPHCM)",(028) 35173650                                ,Tp Hcm,"Phụ Tùng Ô Tô, Phụ Tùng Xe Hơi"
Công Ty TNHH Thương Mại Và Dịch Vụ Thiên Trường An,"KCN Lai Xá, Kim Chung, Hòa Đức, Hà Nội",(024) 33662566                                ,Hà Nội,"Phụ Tùng Ô Tô, Phụ Tùng Xe Hơi"
Hoàng Hà - Công Ty TNHH Một Thành Viên Thương Mại Dịch Vụ Ô Tô Hoàng Hà,"335A Trần Bình Trọng, P. 4, Q. 5, Tp. Hồ Chí Minh (TPHCM)",(028) 38306539                                ,Tp Hcm,"Phụ Tùng Ô Tô, Phụ Tùng Xe Hơi"
Duy Linh - Công Ty TNHH Thương Mại Dịch Vụ Duy Linh,"797-799 Giải Phóng, Q. Hoàng Mai, Hà Nội",(024) 36642917                                ,Hà Nội,"Phụ Tùng Ô Tô, Phụ Tùng Xe Hơi"
ý Nhật - Công Ty TNHH Ô Tô Xe Máy ý Nhật,"893 Đại Lộ Bình Dương, X. Tương Bình Hiệp, TX. Thủ Dầu Một, Bình Dương",(0274) 3864418                                 ,Bình Dương,"Phụ Tùng Ô Tô, Phụ Tùng Xe Hơi"
Doanh Nghiệp Tư Nhân Việt Nhật,"10/8 Phố Đồng An, P. Bình Hòa, TX. Thuận An, Bình Dương",(0274) 3783071                                 ,Bình Dương,"Phụ Tùng Ô Tô, Phụ Tùng Xe Hơi"
Công Ty TNHH Hồng Phong,"Số 162 Đường Tựu Liệt, Thanh Trì, Hà Nội",(024) 36870530                                ,Hà Nội,"Phụ Tùng Ô Tô, Phụ Tùng Xe Hơi"
Hồng Cường - Công Ty TNHH Thương Mại Dịch Vụ & XNK Mâm Đúc Hồng Cường,"104B Lý Thái Tổ, P. 1, Q. 10, Tp. Hồ Chí Minh (TPHCM)",(028) 38303493                                ,Tp Hcm,"Phụ Tùng Ô Tô, Phụ Tùng Xe Hơi"
Cửa Hàng Minh Trí Phụ Tùng Ô Tô,"186 Quốc Lộ 13, P. 25, Q. Bình Thạnh, Tp. Hồ Chí Minh (TPHCM)",(028) 62948929                                ,Tp Hcm,"Phụ Tùng Ô Tô, Phụ Tùng Xe Hơi"
Cửa Hàng Cường Thanh Vỏ Ruột Xe,"269 Lạc Long Quân, P. 3, Q. 11, Tp. Hồ Chí Minh (TPHCM)",(028) 39634849                                ,Tp Hcm,"Phụ Tùng Ô Tô, Phụ Tùng Xe Hơi"
Gia Nguyễn - Công Ty TNHH Gia Nguyễn,"Khu 6,TT. Quán Toan, Q. Hồng Bàng, Tp. Hải Phòng",(0225) 3850243                                 ,Hải Phòng,"Phụ Tùng Ô Tô, Phụ Tùng Xe Hơi"
Gia Long - Công Ty TNHH Thương Mại Gia Long,"Thái Hà, D 103 Vật Liệu Điện, Q. Đống Đa, Hà Nội",(024) 38562315                                ,Hà Nội,"Phụ Tùng Ô Tô, Phụ Tùng Xe Hơi"
Kim Minh Quang - Công Ty TNHH Kim Minh Quang,"144 Cộng Hòa, P. 12, Q. Tân Bình, Tp. Hồ Chí Minh (TPHCM)",(028) 62936546                                ,Tp Hcm,"Phụ Tùng Ô Tô, Phụ Tùng Xe Hơi"
Doanh Nghiệp Tư Nhân Quảng Hồng,"2 ấp 8,Tỉnh Lộ 8, TT. Bình Mỹ, H. Củ Chi, Tp. Hồ Chí Minh (TPHCM)",(028) 37106142                                ,Tp Hcm,"Phụ Tùng Ô Tô, Phụ Tùng Xe Hơi"
Văn Phòng Đại Diện - Công Ty Shin Young IND,"43/33 Cộng Hòa, P. 4, Q. Tân Bình, Tp. Hồ Chí Minh (TPHCM)",(028) 62939330                                ,Tp Hcm,"Phụ Tùng Ô Tô, Phụ Tùng Xe Hơi"
Doanh Nghiệp Tư Nhân Giang Hải,"153 Lê Lợi, Tp. Tuy Hòa, Phú Yên",(0257) 3824134                                 ,Phú Yên,"Phụ Tùng Ô Tô, Phụ Tùng Xe Hơi"
Đại Vọng Việt Nam - Công Ty TNHH Thương Mại Dịch Vụ Đại Vọng Việt Nam,"L20 Khu Miếu Nổi, P. 3, Q. Bình Thạnh, Tp. Hồ Chí Minh (TPHCM)",(028) 35170324                                ,Tp Hcm,"Phụ Tùng Ô Tô, Phụ Tùng Xe Hơi"
Công Ty Lục Nhân Hữu Hạn Điện Cơ,"Khu Công Nghiệp Hố Nai, Lô 9-11,H. Trảng Bom, Đồng Nai",(0251) 3984211                                 ,Đồng Nai,"Phụ Tùng Ô Tô, Phụ Tùng Xe Hơi"
Phúc Anh - Công Ty TNHH Thương Mại Dịch Vụ & Du Lịch Phúc Anh,"14 Đường 2,Cư Xá Lữ Gia, P. 15, Q. 11, Tp. Hồ Chí Minh (TPHCM)",(028) 38661943                                ,Tp Hcm,"Phụ Tùng Ô Tô, Phụ Tùng Xe Hơi"
Cửa Hàng Aphua Phụ Tùng Xe Ô Tô,"5 Thái Phiên, P. 16, Q. 11, Tp. Hồ Chí Minh (TPHCM)",(028) 39690697                                ,Tp Hcm,"Phụ Tùng Ô Tô, Phụ Tùng Xe Hơi"
Chế Trường Sơn - Công Ty TNHH Một Thành Viên Chế Trường Sơn,"74/47 Hẻm 249,Tân Kỳ Tân Quý, P. Tân Sơn Nhì, Q. Tân Phú, Tp. Hồ Chí Minh (TPHCM)",(028) 38120239                                ,Tp Hcm,"Phụ Tùng Ô Tô, Phụ Tùng Xe Hơi"
Việt Ô Tô - Công Ty TNHH Việt Ô Tô,"17/2 Nguyễn Hữu Cảnh, P. 22, Q. Bình Thạnh, Tp. Hồ Chí Minh (TPHCM)",(028) 62945656                                ,Tp Hcm,"Phụ Tùng Ô Tô, Phụ Tùng Xe Hơi"
Đại Việt - Công Ty TNHH Phát Triển Công Nghệ & Thương Mại Đại Việt,"B3 X. Cổ Nhuế, H. Từ Liêm, Hà Nội",(024) 37541681                                ,Hà Nội,"Phụ Tùng Ô Tô, Phụ Tùng Xe Hơi"
Công Ty TNHH YazaKi Eds Việt Nam,"Khu Phố Thống Nhất 1, Phường Dĩ An, Thị xã Dĩ An, Bình Dương",(0274) 3752590                                 ,Bình Dương,"Phụ Tùng Ô Tô, Phụ Tùng Xe Hơi"
Hoàng An - Công Ty TNHH Công Thương Hoàng An,"2 Ngõ 283,Trần Khát Chân, Q. Hai Bà Trưng, Hà Nội",(024) 39724835                                ,Hà Nội,"Phụ Tùng Ô Tô, Phụ Tùng Xe Hơi"
Công Ty TNHH Xuất Nhập Khẩu Thái Bình,"196, Nhân Hòa, Mỹ Hào, Hưng Yên",(0221) 3952176                                 ,Hưng Yên,"Phụ Tùng Ô Tô, Phụ Tùng Xe Hơi"
Doanh Nghiệp Tư Nhân Quốc Khoa,"300 Điện Biên Phủ, P. 22, Q. Bình Thạnh, Tp. Hồ Chí Minh (TPHCM)",(028) 35123235                                ,Tp Hcm,"Phụ Tùng Ô Tô, Phụ Tùng Xe Hơi"
Công Ty TNHH Thương Mại Dịch Vụ Kỹ Thuật Hoàn Thạch,"527 Tỉnh Lộ 767, Ấp An Chu, X. Bắc Sơn, H. Trảng Bom, Đồng Nai",(0251) 3869616                                 ,Đồng Nai,"Phụ Tùng Ô Tô, Phụ Tùng Xe Hơi"
Cửa Hàng Thuận Thành Phụ Tùng Ô Tô,"16 Thái Phiên, P. 16, Q. 11, Tp. Hồ Chí Minh (TPHCM)",(028) 39603586                                ,Tp Hcm,"Phụ Tùng Ô Tô, Phụ Tùng Xe Hơi"
Gamma - Công Ty Cổ Phần Kỹ Nghệ Gamma,"Tầng9, 299 Tòa Nhà CTM,Cầu Giấy, Q. Cầu Giấy, Hà Nội",(024) 22201688                                ,Hà Nội,"Phụ Tùng Ô Tô, Phụ Tùng Xe Hơi"
Quốc Tế Khang Việt - Công Ty Cổ Phần Quốc Tế Khang Việt,"491 Xa Lộ Hà Nội, P. Linh Trung, Q. Thủ Đức, Tp. Hồ Chí Minh (TPHCM)",(028) 22157878                                ,Tp Hcm,"Phụ Tùng Ô Tô, Phụ Tùng Xe Hơi"
Bencom - Công Ty TNHH Thương Mại Bencom,"11A D74 Ngách 379 Ngõ 22,Văn Cao, Q. Ba Đình, Hà Nội",(024) 37612389                                ,Hà Nội,"Phụ Tùng Ô Tô, Phụ Tùng Xe Hơi"
Công Ty TNHH Tân Vĩnh Phúc,"112 Sinh Trung , P. Vạn Thạnh , TP. Nha Trang, Khánh Hòa",(0258) 3826373                                 ,Khánh Hòa,"Phụ Tùng Ô Tô, Phụ Tùng Xe Hơi"
Quốc Tế Khang Việt - Công Ty TNHH Thương Mại Xuất Nhập Khẩu Quốc Tế Khang Việt,"135/17/7 Nguyễn Hữu Cảnh, P. 22, Q. Bình Thạnh, Tp. Hồ Chí Minh (TPHCM)",(028) 62945878                                ,Tp Hcm,"Phụ Tùng Ô Tô, Phụ Tùng Xe Hơi"
Cơ Sở Lê Hùng,"301 Kinh Dương Vương, P. An Lạc, Q. Bình Tân, Tp. Hồ Chí Minh (TPHCM)",(028) 38750304                                ,Tp Hcm,"Phụ Tùng Ô Tô, Phụ Tùng Xe Hơi"
Siêu Xe - Công Ty Cổ Phần Siêu Xe,"2 Trường Sơn, P. 2, Q. Tân Bình, Tp. Hồ Chí Minh (TPHCM)",(028) 35470591                                ,Tp Hcm,"Phụ Tùng Ô Tô, Phụ Tùng Xe Hơi"
Hong Zheng Việt Nam - Công Ty TNHH Khoa Học Và Kỹ Thuật Hong Zheng Việt Nam,"Khu Công Nghiệp Sông Mây, Đường 7, H. Trảng Bom, Đồng Nai",(0251) 3674987                                 ,Đồng Nai,"Phụ Tùng Ô Tô, Phụ Tùng Xe Hơi"
Huy Cường - Công Ty TNHH Huy Cường,"8 Lê Thánh Tông, Q. Ngô Quyền, Tp. Hải Phòng",(0225) 3765536                                 ,Hải Phòng,"Phụ Tùng Ô Tô, Phụ Tùng Xe Hơi"
Phan Lê - Công Ty TNHH Thương Mại Dịch Vụ Phan Lê,"36 Nguyễn Cửu Vân, P. 17, Q. Bình Thạnh, Tp. Hồ Chí Minh (TPHCM)",(028) 38403664                                ,Tp Hcm,"Phụ Tùng Ô Tô, Phụ Tùng Xe Hơi"
Công Ty Cổ Phần VMC,"B14-15 (C4-1) Hoàng Văn Thái, TTTM Tài Chính Phú Mỹ Hưng, P. Tân Quý, Q. 7, Tp. Hồ Chí Minh (TPHCM)",(028) 54292246                                ,Tp Hcm,"Phụ Tùng Ô Tô, Phụ Tùng Xe Hơi"
TAT - Công Ty Cổ Phần Thương Mại TAT,"25 Ngõ 90,Khuất Duy Tiến, X. Nhân Chính, Q. Thanh Xuân, Hà Nội",(024) 22143567                                ,Hà Nội,"Phụ Tùng Ô Tô, Phụ Tùng Xe Hơi"
Cơ Sở Tân Hùng,"119 Kinh Dương Vương, P. 12, Q. 6, Tp. Hồ Chí Minh (TPHCM)",(028) 38751043                                ,Tp Hcm,"Phụ Tùng Ô Tô, Phụ Tùng Xe Hơi"
Yuro Vina - Công Ty TNHH Yuro Vina,"ấp Ông Đông, X. Tân Hiệp, H. Tân Uyên, Bình Dương",(0274) 3648448                                 ,Bình Dương,"Phụ Tùng Ô Tô, Phụ Tùng Xe Hơi"
Kim Minh Quang - Công Ty TNHH Kim Minh Quang,"144 Cộng Hòa, P. 12, Q. Tân Bình, Tp. Hồ Chí Minh (TPHCM)",(028) 62936546                                ,Tp Hcm,"Phụ Tùng Ô Tô, Phụ Tùng Xe Hơi"
Toyoda Giden Việt Nam - Công Ty TNHH Toyoda Giden Việt Nam,"Khu Công Nghiệp Nội Bài, Lô 40,TT. Sóc Sơn, H. Đông Anh, Hà Nội",(024) 35822102                                ,Hà Nội,"Phụ Tùng Ô Tô, Phụ Tùng Xe Hơi"
Doanh Nghiệp Tư Nhân Quốc Khoa,"300 Điện Biên Phủ, P. 22, Q. Bình Thạnh, Tp. Hồ Chí Minh (TPHCM)",(028) 35123235                                ,Tp Hcm,"Phụ Tùng Ô Tô, Phụ Tùng Xe Hơi"
Cầu Vồng Châu á - Công Ty TNHH Đầu Tư Cầu Vồng Châu á,"184A Tôn Thất Thuyết, P. 4, Q. 4, Tp. Hồ Chí Minh (TPHCM)",(028) 38259623                                ,Tp Hcm,"Phụ Tùng Ô Tô, Phụ Tùng Xe Hơi"
Thanh Long Vĩ - Công Ty TNHH Thanh Long Vĩ,"250 Trương Công Định, P. 3, Tp. Vũng Tàu, Bà Rịa-Vũng Tàu",(0254) 3853748                                 ,Bà Rịa-Vũng Tàu,"Phụ Tùng Ô Tô, Phụ Tùng Xe Hơi"
Long Hưng - Công Ty TNHH Long Hưng,"Khu Công Nghiệp Đông Xuyên, Đường 11, P. Rạch Dừa, Tp. Vũng Tàu, Bà Rịa-Vũng Tàu",(0254) 3614168                                 ,Bà Rịa-Vũng Tàu,"Phụ Tùng Ô Tô, Phụ Tùng Xe Hơi"
Chế Trường Sơn - Công Ty TNHH Một Thành Viên Chế Trường Sơn,"74/47 Hẻm 249,Tân Kỳ Tân Quý, P. Tân Sơn Nhì, Q. Tân Phú, Tp. Hồ Chí Minh (TPHCM)",(028) 38120239                                ,Tp Hcm,"Phụ Tùng Ô Tô, Phụ Tùng Xe Hơi"
Showroom Ô Tô Mazda Bến Thành,"72 Trần Đình Xu, P. Cô Giang, Q.1, Tp. Hồ Chí Minh (TPHCM)",909313711                               ,Tp Hcm,"Phụ Tùng Ô Tô, Phụ Tùng Xe Hơi"
Cửa Hàng Cường Thành,"655 Kinh Dương Vương, Khu Phố 1, P. An Lạc, Q. Bình Tân, Tp. Hồ Chí Minh (TPHCM)",(028) 37523445                                ,Tp Hcm,"Phụ Tùng Ô Tô, Phụ Tùng Xe Hơi"
Cơ Sở Văn Đính Vỏ Ruột Xe,"586 Hồng Bàng, P. 16, Q. 11, Tp. Hồ Chí Minh (TPHCM)",(028) 39604420                                ,Tp Hcm,"Phụ Tùng Ô Tô, Phụ Tùng Xe Hơi"
Doanh Nghiệp Tư Nhân Chi Đức,"433 Tổ 1,Khu Phố 5, P. Long Bình, Tp. Biên Hòa, Đồng Nai",(0251) 3995009                                 ,Đồng Nai,"Phụ Tùng Ô Tô, Phụ Tùng Xe Hơi"
Toàn Thắng - Công Ty TNHH Ô Tô Toàn Thắng,"284/7/1 Lý Thường Kiệt, P. 14, Q. 5, Tp. Hồ Chí Minh (TPHCM)",(028) 62647582                                ,Tp Hcm,"Phụ Tùng Ô Tô, Phụ Tùng Xe Hơi"
Vũ Thịnh - Công Ty TNHH Vũ Thịnh,"Quốc Lộ 1A, Thôn Phong Nam,X. Hòa Châu, H. Hòa Vang, Tp. Đà Nẵng",(0236) 3730218                                 ,Đà Nẵng,"Phụ Tùng Ô Tô, Phụ Tùng Xe Hơi"
Bảo Khuyên - Chi Nhánh Công Ty TNHH Phụ Tùng & Nội Thất Ô Tô Bảo Khuyên,"313 Trần Bình Trọng, P. 4, Q. 5, Tp. Hồ Chí Minh (TPHCM)",(028) 38354739                                ,Tp Hcm,"Phụ Tùng Ô Tô, Phụ Tùng Xe Hơi"
Công Ty TNHH Phụ Tùng Ô Tô Việt Nam,"ấp Bình Thuận 2, Xã Thuận Giao, Huyện Thuận An, Bình Dương",(0274) 3719150                                 ,Bình Dương,"Phụ Tùng Ô Tô, Phụ Tùng Xe Hơi"
Cửa Hàng Tân Thiên Sanh Phụ Tùng Ô Tô,"52 Thái Phiên, P. 16, Q. 11, Tp. Hồ Chí Minh (TPHCM)",(028) 39690492                                ,Tp Hcm,"Phụ Tùng Ô Tô, Phụ Tùng Xe Hơi"
Hoành Sơn - Công Ty TNHH Hoành Sơn,"Xã Tân Lập,ấp 2, H. Tân Uyên, Bình Dương",(0274) 3685061                                 ,Bình Dương,"Phụ Tùng Ô Tô, Phụ Tùng Xe Hơi"
Công ty Ô Tô Hyundai Motor VN,"Thủ Đức, Tp. Hồ Chí Minh (TPHCM)",(028)                                         ,Tp Hcm,"Phụ Tùng Ô Tô, Phụ Tùng Xe Hơi"
Đức Độ - Công Ty TNHH Thương Mại & Dịch Vụ Đức Độ,"27 Nguyễn Tri Phương, Q. Thanh Khê, Tp. Đà Nẵng",(0236) 3653169                                 ,Đà Nẵng,"Phụ Tùng Ô Tô, Phụ Tùng Xe Hơi"
Anh Sơn - Công Ty TNHH Thương Mại & Dịch Vụ Anh Sơn,"6/51 Đường 3 Tháng 2, P. 12, Q. 10, Tp. Hồ Chí Minh (TPHCM)",(028) 38632609                                ,Tp Hcm,"Phụ Tùng Ô Tô, Phụ Tùng Xe Hơi"
Âu Châu - Công Ty Cổ Phần Ô Tô (BMW) Âu Châu,"165 Pasteur, P. 6, Q. 3, Tp. Hồ Chí Minh (TPHCM)",(028) 38207799                                ,Tp Hcm,"Phụ Tùng Ô Tô, Phụ Tùng Xe Hơi"
Việt Xuân - Công Ty TNHH Đầu Tư & Phát Triển Việt Xuân,"1B Yên Thế, Q. Đống Đa, Hà Nội",(024) 38431169                                ,Hà Nội,"Phụ Tùng Ô Tô, Phụ Tùng Xe Hơi"
Nhật Hàn - Công Ty TNHH Thương Mại Nhật Hàn,"73 Ngô Gia Tự, Q. Long Biên, Hà Nội",(024) 38273676                                ,Hà Nội,"Phụ Tùng Ô Tô, Phụ Tùng Xe Hơi"
Công Ty TNHH YazaKi Eds Việt Nam,"Khu Phố Thống Nhất 1, Phường Dĩ An, Thị xã Dĩ An, Bình Dương",(0274) 3752590                                 ,Bình Dương,"Phụ Tùng Ô Tô, Phụ Tùng Xe Hơi"
Doanh Nghiệp Tư Nhân Quảng Hồng,"2 ấp 8,Tỉnh Lộ 8, TT. Bình Mỹ, H. Củ Chi, Tp. Hồ Chí Minh (TPHCM)",(028) 37106142                                ,Tp Hcm,"Phụ Tùng Ô Tô, Phụ Tùng Xe Hơi"
Ohara - Công Ty TNHH Plastics Việt Nam Ohara,"Khu Công Nghiệp Thăng Long, Lô B 11/12, H. Đông Anh, Hà Nội",(024) 38813252                                ,Hà Nội,"Phụ Tùng Ô Tô, Phụ Tùng Xe Hơi"
Wansing Radiator - Công Ty TNHH Wansing Radiator,"Khu Công Nghiệp Sóng Thần 2, 6 Lo D,Đường Số 26, H. Dĩ An, Bình Dương",(0274) 3731016                                 ,Bình Dương,"Phụ Tùng Ô Tô, Phụ Tùng Xe Hơi"
Công Ty TNHH Exedy Việt Nam,"Khu CN Khai Quang, TX. Vĩnh Yên, Vĩnh Phúc",(0211) 3721252                                 ,Vĩnh Phúc,"Phụ Tùng Ô Tô, Phụ Tùng Xe Hơi"
Cửa Hàng Minh Trí Phụ Tùng Ô Tô,"186 Quốc Lộ 13, P. 25, Q. Bình Thạnh, Tp. Hồ Chí Minh (TPHCM)",(028) 62948929                                ,Tp Hcm,"Phụ Tùng Ô Tô, Phụ Tùng Xe Hơi"
Doanh Nghiệp Tư Nhân Anh Tường,"116 Triệu Nữ Vương, Q. Hải Châu, Tp. Đà Nẵng",(0236) 3865012                                 ,Đà Nẵng,"Phụ Tùng Ô Tô, Phụ Tùng Xe Hơi"
Cửa Hàng Du Ha,"60 Phó Đức Chính, P. Nguyễn Thái Bình, Q. 1, Tp. Hồ Chí Minh (TPHCM)",(028) 39141939                                ,Tp Hcm,"Phụ Tùng Ô Tô, Phụ Tùng Xe Hơi"
Doanh Nghiệp Tư Nhân Cơ Khí Đề Thám,"77 Ký Con, P. Nguyễn Thái Bình, Q. 1, Tp. Hồ Chí Minh (TPHCM)",(028) 38213066                                ,Tp Hcm,"Phụ Tùng Ô Tô, Phụ Tùng Xe Hơi"
Cơ Sở Ba Giàu Võ Xe Ô Tô,"12B Quốc Lộ 1A, P. Thạnh Lộc, Q. 12, Tp. Hồ Chí Minh (TPHCM)",(028) 37199136                                ,Tp Hcm,"Phụ Tùng Ô Tô, Phụ Tùng Xe Hơi"
Công Ty TNHH TM XNK Thuận Nghĩa,"12M Nguyễn Thị Minh Khai, phường Đa Kao, quận 1, Tp. Hồ Chí Minh (TPHCM)",(028) 39106586                                ,Tp Hcm,"Phụ Tùng Ô Tô, Phụ Tùng Xe Hơi"
Tt Giải Phóng Kinh Doanh Ô Tô-Cty Cổ Phần Cơ Điện Việt Nam,"1608/3A Quốc Lộ 1A, P. An Phú Đông, Q. 12, Tp. Hồ Chí Minh (TPHCM)",(028) 37196116                                ,Tp Hcm,"Phụ Tùng Ô Tô, Phụ Tùng Xe Hơi"
Hoàng An - Công Ty TNHH Công Thương Hoàng An,"2 Ngõ 283,Trần Khát Chân, Q. Hai Bà Trưng, Hà Nội",(024) 39724835                                ,Hà Nội,"Phụ Tùng Ô Tô, Phụ Tùng Xe Hơi"
Cơ Sở Phú hữu 2,"364 Hồng Bàng, P. 16, Q. 11, Tp. Hồ Chí Minh (TPHCM)",(028) 39693924                                ,Tp Hcm,"Phụ Tùng Ô Tô, Phụ Tùng Xe Hơi"
Hi-Lex Vietnam - Công Ty TNHH Hi-Lex Vietnam,"Khu Công Nghiệp Nomura, Km13 H. An Dương, Tp. Hải Phòng",(0225) 3743058                                 ,Hải Phòng,"Phụ Tùng Ô Tô, Phụ Tùng Xe Hơi"
Bắc Hà - Công Ty TNHH Thương Mại Tổng Hợp Bắc Hà,"184 Trần Quang Khải, Q. Hoàn Kiếm, Hà Nội",(024) 39347675                                ,Hà Nội,"Phụ Tùng Ô Tô, Phụ Tùng Xe Hơi"
Hạ Thủy - Công Ty TNHH Thương Mại & Dịch Vụ Hạ Thủy,"46 Cô Bắc, Q. Hải Châu, Tp. Đà Nẵng",(0236) 3834693                                 ,Đà Nẵng,"Phụ Tùng Ô Tô, Phụ Tùng Xe Hơi"
Cửa Hàng Thái An Vỏ Ruột Xe Ô Tô,"111/2 Quốc Lộ 1A, P. Thanh Xuân, Q. 12, Tp. Hồ Chí Minh (TPHCM)",(028) 37169037                                ,Tp Hcm,"Phụ Tùng Ô Tô, Phụ Tùng Xe Hơi"
Cửu Long Giang - Công Ty Cổ Phần Ô Tô Cửu Long Giang,"18 Phan Văn Trị, P. 10, Q. Gò Vấp, Tp. Hồ Chí Minh (TPHCM)",(028) 39210389                                ,Tp Hcm,"Phụ Tùng Ô Tô, Phụ Tùng Xe Hơi"
Hoàng An - Công Ty TNHH Công Thương Hoàng An,"2 Ngõ 283,Trần Khát Chân, Q. Hai Bà Trưng, Hà Nội",(024) 39724835                                ,Hà Nội,"Phụ Tùng Ô Tô, Phụ Tùng Xe Hơi"
Đồng Tháp - Công Ty CP Vận Tải BMC Đồng Tháp,"145 Trương Hán Siêu, P. Mỹ Phú, TP. Cao Lãnh, Đồng Tháp",(0277) 3875969                                 ,Đồng Tháp,"Phụ Tùng Ô Tô, Phụ Tùng Xe Hơi"
BMB - Công Ty TNHH BMB,"Khu Công Nghiệp Amata, 228 Đường 4, Tp. Biên Hòa, Đồng Nai",(0251) 3936181                                 ,Đồng Nai,"Phụ Tùng Ô Tô, Phụ Tùng Xe Hơi"
Phú Khang - Công Ty TNHH Thương Mại Phú Khang,"C4/19A2 Phạm Hùng, X. Bình Hưng, H. Bình Chánh, Tp. Hồ Chí Minh (TPHCM)",(028) 37583177                                ,Tp Hcm,"Phụ Tùng Ô Tô, Phụ Tùng Xe Hơi"
Việt Ô Tô - Công Ty TNHH Việt Ô Tô,"17/2 Nguyễn Hữu Cảnh, P. 22, Q. Bình Thạnh, Tp. Hồ Chí Minh (TPHCM)",(028) 62945656                                ,Tp Hcm,"Phụ Tùng Ô Tô, Phụ Tùng Xe Hơi"
Doanh Nghiệp Tư Nhân Th.Sơn,"Tổ 16,P. Hòa Thọ Tây, Q. Cẩm Lệ, Tp. Đà Nẵng",(0236) 3670882                                 ,Đà Nẵng,"Phụ Tùng Ô Tô, Phụ Tùng Xe Hơi"
Hiên Long - Công Ty TNHH Hiên Long,"29 Phó Cơ Điều, P. 12, Q. 5, Tp. Hồ Chí Minh (TPHCM)",(028) 39556952                                ,Tp Hcm,"Phụ Tùng Ô Tô, Phụ Tùng Xe Hơi"
Chang Jun - Công Ty TNHH Chang Jun,"Khu Công Nghiệp Hố Nai, Lô 2/9B,H. Trảng Bom, Đồng Nai",(0251) 3671667                                 ,Đồng Nai,"Phụ Tùng Ô Tô, Phụ Tùng Xe Hơi"
Cửa Hàng Thiên Phú,"403A An Dương Vương, P. 3, Q. 5, Tp. Hồ Chí Minh (TPHCM)",(028) 38331827                                ,Tp Hcm,"Phụ Tùng Ô Tô, Phụ Tùng Xe Hơi"
Doanh Nghiệp Tư Nhân Nghĩa Nga,"436 Nguyễn Lương Bằng, Tp. Đà Nẵng",(0236) 3842685                                 ,Đà Nẵng,"Phụ Tùng Ô Tô, Phụ Tùng Xe Hơi"
Doanh Nghiệp Tư Nhân Thái Nhật Thành,"Lô 4, Khu N,P. Hòa Minh, Q. Liên Chiểu, Tp. Đà Nẵng",(0236) 3768192                                 ,Đà Nẵng,"Phụ Tùng Ô Tô, Phụ Tùng Xe Hơi"
ánh Tim - Công Ty TNHH Đầu Tư Sản Xuất & Thương Mại ánh Tim,"515 Thụy Khuê, P. Bưởi, Q. Tây Hồ, Hà Nội",(024) 39121415                                ,Hà Nội,"Phụ Tùng Ô Tô, Phụ Tùng Xe Hơi"
Cửa Hàng Khang Thành,"332 An Dương Vương, P. An Lạc, Q. Bình Tân, Tp. Hồ Chí Minh (TPHCM)",(028) 38351078                                ,Tp Hcm,"Phụ Tùng Ô Tô, Phụ Tùng Xe Hơi"
Công Ty TNHH Thương Mại Dịch Vụ Kỹ Thuật Hoàn Thạch,"527 Tỉnh Lộ 767, Ấp An Chu, X. Bắc Sơn, H. Trảng Bom, Đồng Nai",(0251) 3869616                                 ,Đồng Nai,"Phụ Tùng Ô Tô, Phụ Tùng Xe Hơi"
Bảo Khuyên - Công Ty TNHH Phụ Tùng & Nội Thất Ô Tô Bảo Khuyên,"327 Trần Bình Trọng, P. 4, Q. 5, Tp. Hồ Chí Minh (TPHCM)",(028) 38398020                                ,Tp Hcm,"Phụ Tùng Ô Tô, Phụ Tùng Xe Hơi"
Doanh Nghiệp Tư Nhân Quảng Hồng,"2 ấp 8,Tỉnh Lộ 8, TT. Bình Mỹ, H. Củ Chi, Tp. Hồ Chí Minh (TPHCM)",(028) 37106142                                ,Tp Hcm,"Phụ Tùng Ô Tô, Phụ Tùng Xe Hơi"
Thái Hải Dương - Công Ty TNHH Thương Mại Thái Hải Dương,"3 Ngõ 17,Khương Hạ, Q. Thanh Xuân, Hà Nội",(024) 35594142                                ,Hà Nội,"Phụ Tùng Ô Tô, Phụ Tùng Xe Hơi"
Cao Hùng - Công Ty TNHH Cao Hùng,"5 Cư Xá Bình Thới,Đường 4, P. 8, Q. 11, Tp. Hồ Chí Minh (TPHCM)",(028) 39650204                                ,Tp Hcm,"Phụ Tùng Ô Tô, Phụ Tùng Xe Hơi"
TAT - Công Ty Cổ Phần Thương Mại TAT,"25 Ngõ 90,Khuất Duy Tiến, X. Nhân Chính, Q. Thanh Xuân, Hà Nội",(024) 22143567                                ,Hà Nội,"Phụ Tùng Ô Tô, Phụ Tùng Xe Hơi"
Thanh Xuân Vĩnh - Công Ty TNHH Thanh Xuân Vĩnh,"9 Đường Số 3; Khu Phố 5,Kha Vạn Cân, P. Hiệp Bình Chánh, Q. Thủ Đức, Tp. Hồ Chí Minh (TPHCM)",(028) 54036821                                ,Tp Hcm,"Phụ Tùng Ô Tô, Phụ Tùng Xe Hơi"
Đại Lợi - Công Ty TNHH Thương Mại Đại Lợi,"2 Lãnh Binh Thăng, P. 13, Q. 11, Tp. Hồ Chí Minh (TPHCM)",(028) 39620094                                ,Tp Hcm,"Phụ Tùng Ô Tô, Phụ Tùng Xe Hơi"
Cửa Hàng Du Ha,"60 Phó Đức Chính, P. Nguyễn Thái Bình, Q. 1, Tp. Hồ Chí Minh (TPHCM)",(028) 39141939                                ,Tp Hcm,"Phụ Tùng Ô Tô, Phụ Tùng Xe Hơi"
Việt Nga - Công Ty TNHH Thiết Bị Phụ Tùng Việt Nga,"Phòng 1306, Khu Đô Thị Mới Định Công, P. Định Công, Q. Hoàng Mai, Hà Nội",(024) 22166446                                ,Hà Nội,"Phụ Tùng Ô Tô, Phụ Tùng Xe Hơi"
Công Ty Cổ Phần Thiết Bị Phụ Tùng Đà Nẵng,"53 Trần Phú, P. Hải Châu 1, Q. Hải Châu, Tp. Đà Nẵng",(0236) 3821681                                 ,Đà Nẵng,"Phụ Tùng Ô Tô, Phụ Tùng Xe Hơi"
Sanyo Seisakusho (Việt Nam) - Công Ty TNHH Sanyo Seisakusho (Việt Nam),"Khu Chế Xuất Tân Thuận, Đường Số 19, P. Tân Thuận Đông, Q. 7, Tp. Hồ Chí Minh (TPHCM)",(028) 37700689                                ,Tp Hcm,"Phụ Tùng Ô Tô, Phụ Tùng Xe Hơi"
Âu Châu - Công Ty Cổ Phần Ô Tô (BMW) Âu Châu,"165 Pasteur, P. 6, Q. 3, Tp. Hồ Chí Minh (TPHCM)",(028) 38207799                                ,Tp Hcm,"Phụ Tùng Ô Tô, Phụ Tùng Xe Hơi"
Công Ty TNHH Thương Mại Trung Thịnh,"Số 706 Trần Phú , P. 6 , TP. Vũng Tàu, Bà Rịa-Vũng Tàu",(0254) 3838193                                 ,Bà Rịa-Vũng Tàu,"Phụ Tùng Ô Tô, Phụ Tùng Xe Hơi"
Gamma - Công Ty Cổ Phần Kỹ Nghệ Gamma,"Tầng9, 299 Tòa Nhà CTM,Cầu Giấy, Q. Cầu Giấy, Hà Nội",(024) 22201688                                ,Hà Nội,"Phụ Tùng Ô Tô, Phụ Tùng Xe Hơi"
Đại Việt - Công Ty Cổ Phần Đại Việt,"385B3 Nguyễn Trãi, P. Nguyễn Cư Trinh, Q. 1, Tp. Hồ Chí Minh (TPHCM)",(028) 38377308                                ,Tp Hcm,"Phụ Tùng Ô Tô, Phụ Tùng Xe Hơi"
Bencom - Công Ty TNHH Thương Mại Bencom,"11A D74 Ngách 379 Ngõ 22,Văn Cao, Q. Ba Đình, Hà Nội",(024) 37612389                                ,Hà Nội,"Phụ Tùng Ô Tô, Phụ Tùng Xe Hơi"
Cửa Hàng Liêm Tuyết,"20 Phó Đức Chính, P. Nguyễn Thái Bình, Q. 1, Tp. Hồ Chí Minh (TPHCM)",(028) 38211730                                ,Tp Hcm,"Phụ Tùng Ô Tô, Phụ Tùng Xe Hơi"
Cửa Hàng Aphua Phụ Tùng Xe Ô Tô,"5 Thái Phiên, P. 16, Q. 11, Tp. Hồ Chí Minh (TPHCM)",(028) 39690697                                ,Tp Hcm,"Phụ Tùng Ô Tô, Phụ Tùng Xe Hơi"
Doanh Nghiệp Tư Nhân Thơ Phượng,"226C Tổ 3,Khu Phố 3, P. Long Bình, Tp. Biên Hòa, Đồng Nai",(0251) 3891760                                 ,Đồng Nai,"Phụ Tùng Ô Tô, Phụ Tùng Xe Hơi"
Doanh Nghiệp Tư Nhân Châu Hân Thương Mại Dịch Vụ,"147 Lê Độ, Q. Thanh Khê, Tp. Đà Nẵng",(0236) 3811758                                 ,Đà Nẵng,"Phụ Tùng Ô Tô, Phụ Tùng Xe Hơi"
Doanh Nghiệp Tư Nhân D & C,"515 Nguyễn Lương Bằng, Q. Liên Chiểu, Tp. Đà Nẵng",(0236) 3770670                                 ,Đà Nẵng,"Phụ Tùng Ô Tô, Phụ Tùng Xe Hơi"
Quang Doanh - Công Ty TNHH Thương Mại Sản Xuất & Dịch Vụ Quang Doanh,"54R Điện Biên Phủ, P. 25, Q. Bình Thạnh, Tp. Hồ Chí Minh (TPHCM)",(028) 38035170                                ,Tp Hcm,"Phụ Tùng Ô Tô, Phụ Tùng Xe Hơi"
Doanh Nghiệp Tư Nhân Anh Tường,"116 Triệu Nữ Vương, Q. Hải Châu, Tp. Đà Nẵng",(0236) 3865012                                 ,Đà Nẵng,"Phụ Tùng Ô Tô, Phụ Tùng Xe Hơi"
Hyundai - Cty Cổ Phần Dịch Vụ & Phụ Tùng,"131 Quốc Lộ 1A, X. Long Hiệp, H. Bến Lức, Long An",(0272) 3642574                                 ,Long An,"Phụ Tùng Ô Tô, Phụ Tùng Xe Hơi"
Thành Trung - Công Ty TNHH Thương Mại Ô Tô Thành Trung,"162 Lò Đúc, Q. Hai Bà Trưng, Hà Nội",(024) 38210368                                ,Hà Nội,"Phụ Tùng Ô Tô, Phụ Tùng Xe Hơi"
Cơ Sở Thanh Cường Phụ Tùng Ô Tô,"161 Hà Huy Giáp, X. Thạnh Lộc Dân, Q. 12, Tp. Hồ Chí Minh (TPHCM)",(028) 37160293                                ,Tp Hcm,"Phụ Tùng Ô Tô, Phụ Tùng Xe Hơi"
Cơ Sở Lê Hùng,"301 Kinh Dương Vương, P. An Lạc, Q. Bình Tân, Tp. Hồ Chí Minh (TPHCM)",(028) 38750304                                ,Tp Hcm,"Phụ Tùng Ô Tô, Phụ Tùng Xe Hơi"
Công Ty ứng Dụng Công Nghệ Ô Tô (Cuonghieu Auto),"330 Phan Văn Trị, P.5, Q. Gò Vấp, Tp. Hồ Chí Minh (TPHCM)",(028) 66749853                                ,Tp Hcm,"Phụ Tùng Ô Tô, Phụ Tùng Xe Hơi"
Tân Trung Hiếu - Công Ty TNHH Thương Mại Xuất Nhập Khẩu & Dịch Vụ Tân Trung Hiếu,"153 Bà Triệu, P. Lê Đại Hành, Q. Hai Bà Trưng, Hà Nội",(024) 38218196                                ,Hà Nội,"Phụ Tùng Ô Tô, Phụ Tùng Xe Hơi"
Huynh Đệ - Công Ty TNHH Thương Mại Tổng Hợp Huynh Đệ,"7B/331 Trần Khát Chân, Q. Hai Bà Trưng, Hà Nội",(024) 39724434                                ,Hà Nội,"Phụ Tùng Ô Tô, Phụ Tùng Xe Hơi"
Công ty TNHH TUTTO Việt Nam,"611/27 Điện Biên Phủ, P. 1, Q. 3, Tp. Hồ Chí Minh (TPHCM)",(028) 39381470 - 118                          ,Tp Hcm,"Phụ Tùng Ô Tô, Phụ Tùng Xe Hơi"
Cửa Hàng Anh Tuấn,"174 Phố Huế, Q. Hoàn Kiếm, Hà Nội",(024) 39141352                                ,Hà Nội,"Phụ Tùng Ô Tô, Phụ Tùng Xe Hơi"
Công Ty Trách Nhiệm Hữu Hạn Thương Mại Và Xuất Nhập Khẩu Song Trần,"Ngõ 355 Ngách 403/2 Nguyễn Văn Linh, Phường Phúc Đồng, Quận Long Biên Hà Nội",0916064644                              ,Hà Nội,"Phụ Tùng Ô Tô, Phụ Tùng Xe Hơi"
BTC - Công Ty Cổ Phần Ô Tô BTC,"562 Nguyễn Văn Cừ, Q. Long Biên, Hà Nội",(024) 62913239                                ,Hà Nội,"Phụ Tùng Ô Tô, Phụ Tùng Xe Hơi"
Công Ty TNHH Thương Mại Và Công Nghiệp Trường An Việt,"B9/164 Nguyễn Văn Cừ, Q. Long Biên, Hà Nội",(024) 38725566                                ,Hà Nội,"Phụ Tùng Ô Tô, Phụ Tùng Xe Hơi"
Công Ty Cổ Phần Phụ Tùng Ô Tô HANOIAUTO,"Số 34, Ngõ 84/1 Võ Thị Sáu, P. Thanh Nhàn, Q. Hai Bà Trưng, Hà Nội",(024) 36781888                                ,Hà Nội,"Phụ Tùng Ô Tô, Phụ Tùng Xe Hơi"
Mỹ Thuận - Công Ty TNHH Đắc Lập,"318 Điện Biên Phủ, P. 17, Q. Bình Thạnh, Tp. Hồ Chí Minh (TPHCM)",(028) 35124075                                ,Tp Hcm,"Phụ Tùng Ô Tô, Phụ Tùng Xe Hơi"
Trung Tâm Phụ Tùng Ô Tô HT,"461 Minh Khai, Hai Bà Trưng, Hà Nội",(024) 66862342                                ,Hà Nội,"Phụ Tùng Ô Tô, Phụ Tùng Xe Hơi"
Tân Trung Hiếu - Công Ty TNHH Thương Mại Xuất Nhập Khẩu & Dịch Vụ Tân Trung Hiếu,"153 Bà Triệu, P. Lê Đại Hành, Q. Hai Bà Trưng, Hà Nội",(024) 38218196                                ,Hà Nội,"Phụ Tùng Ô Tô, Phụ Tùng Xe Hơi"
Công Ty Cổ Phần Xuất Nhập Khẩu Quang Hoàng,"Số 8 Trương Định, Tp. Đông Hà, Tp. Hồ Chí Minh (TPHCM)",(028) 3554154                                 ,Tp Hcm,"Phụ Tùng Ô Tô, Phụ Tùng Xe Hơi"
Doanh Nghiệp Tư Nhân Vũ Nguyễn,"131 Ký Con, P. Nguyễn Thái Bình, Q. 1, Tp. Hồ Chí Minh (TPHCM)",(028) 38210988                                ,Tp Hcm,"Phụ Tùng Ô Tô, Phụ Tùng Xe Hơi"
Công Ty ứng Dụng Công Nghệ Ô Tô (Cuonghieu Auto),"330 Phan Văn Trị, P.5, Q. Gò Vấp, Tp. Hồ Chí Minh (TPHCM)",(028) 66749853                                ,Tp Hcm,"Phụ Tùng Ô Tô, Phụ Tùng Xe Hơi"
Nghĩa Hiếu - Công Ty TNHH Nghĩa Hiếu,"150 Núi Thành, Q. Hải Châu, Tp. Đà Nẵng",(0236) 3620752                                 ,Đà Nẵng,"Phụ Tùng Ô Tô, Phụ Tùng Xe Hơi"
Isuzu Long Biên,"Số 449, Đường Nguyễn Văn Linh, Phường Phúc Đồng, Quận Long Biên, Hà Nội",0919486296                              ,Hà Nội,"Phụ Tùng Ô Tô, Phụ Tùng Xe Hơi"
Công Ty TNHH Thương Mại Ô Tô Lucky,"Số 21, Nhà B2, Giảng Võ, Trần Huy Liệu, Ba Đình, Hà Nội",(024) 62669922                                ,Hà Nội,"Phụ Tùng Ô Tô, Phụ Tùng Xe Hơi"
Công Ty TNHH Linh Kiện Ô Tô Hữu Thái,"09 Yersin, Phường Cầu Ông Lãnh, Q. 1, Tp. Hồ Chí Minh (TPHCM)",(028) 62910540                                ,Tp Hcm,"Phụ Tùng Ô Tô, Phụ Tùng Xe Hơi"
Thập Toàn - Công Ty TNHH Thương Mại Thập Toàn,"61/10 Đường 1, P. 10, Q. Tân Bình, Tp. Hồ Chí Minh (TPHCM)",(028) 38355572                                ,Tp Hcm,"Phụ Tùng Ô Tô, Phụ Tùng Xe Hơi"
Chi Nhánh Cần Thơ -  Công Ty TNHH Đắc Yến,"K2,3,4 Lô 20, Đường Võ Nguyên Giáp KV, Thanh Thuận, P. Phú Thứ, Q. Cái Răng, TP. Cần Thơ",0908 068 083                            ,TP. Cần Thơ,"Phụ Tùng Ô Tô, Phụ Tùng Xe Hơi"
Huynh Đệ - Công Ty TNHH Thương Mại Tổng Hợp Huynh Đệ,"7B/331 Trần Khát Chân, Q. Hai Bà Trưng, Hà Nội",(024) 39724434                                ,Hà Nội,"Phụ Tùng Ô Tô, Phụ Tùng Xe Hơi"
Phước Tài - Công Ty TNHH Thương Mại & Dịch Vụ Ô Tô Phước Tài,"738 Quốc Lộ 52, P. Hiệp Phú, Q. 9, Tp. Hồ Chí Minh (TPHCM)",(028) 37305387                                ,Tp Hcm,"Phụ Tùng Ô Tô, Phụ Tùng Xe Hơi"
Ô Tô Đại Lợi - Công Ty TNHH Thương Mại Đại Lợi,"474 Lũy Bán Bích, P. Hòa Thạnh, Q. Tân Phú, Tp. Hồ Chí Minh (TPHCM)","(028) 39733896, 0918247088                    ",Tp Hcm,"Phụ Tùng Ô Tô, Phụ Tùng Xe Hơi"
Công Ty TNHH Đại Chung Trí,"431 An Dương Vương, Phường 3, Quận 5, Tp. Hồ Chí Minh (TPHCM)","(028) 38398402, Hotline : 0983 584 169        ",Tp Hcm,"Phụ Tùng Ô Tô, Phụ Tùng Xe Hơi"
Công Ty TNHH Thương Mại Dịch Vụ Và Sản Xuất Hoàng Kim,"Số 11/43/310 Nghi Tàm, Tây Hồ, Hà Nội","0968273735, 0987513877                  ",Hà Nội,"Phụ Tùng Ô Tô, Phụ Tùng Xe Hơi"
Hải Thành - Công Ty TNHH Sản Xuất-Thương Mại Hải Thành,"Khu Phú Xá, Đường Nguyễn Bỉnh Khiêm, P. Đông Hải, Q. Hải An, Tp. Hải Phòng",(0225) 3829505                                 ,Hải Phòng,"Phụ Tùng Ô Tô, Phụ Tùng Xe Hơi"
Cty Robert Bosch Việt Nam TNHH-Cn Đồng Nai,"Khu Công Nghiệp Long Thành, H. Long Thành, Đồng Nai",(0251) 6280340                                 ,Đồng Nai,"Phụ Tùng Ô Tô, Phụ Tùng Xe Hơi"
Ngọc Anh - Công Ty TNHH Ngọc Anh,"215 Đường Trường Chinh, P. Lê Lợi, TP Vinh, Nghệ An",(0238) 3838668                                 ,Nghệ An,"Phụ Tùng Ô Tô, Phụ Tùng Xe Hơi"
Dương Duy - Công Ty TNHH Thương Mại Và  Dịch Vụ Dương Duy,"212A3 Nguyễn Trãi, P. Nguyễn Cư Trinh, Q. 1, Tp. Hồ Chí Minh (TPHCM)",(028) 39202206Hotline: 0903 874 225       ,Tp Hcm,"Phụ Tùng Ô Tô, Phụ Tùng Xe Hơi"
Công Ty TNHH Thương Mại Duy Linh,"Số 797 - 799, Đường Giải Phóng, Q. Hoàng Mai, Hà Nội",(024) 36649899                                ,Hà Nội,"Phụ Tùng Ô Tô, Phụ Tùng Xe Hơi"
Công Ty TNHH Phát Triển Thương Mại Việt Phát,"Tầng 2 Tòa Nhà Kinh Đô, Số 93 Lò Đúc, Q. Hai Bà Trưng, Hà Nội",(024) 39722468                                ,Hà Nội,"Phụ Tùng Ô Tô, Phụ Tùng Xe Hơi"
Công Ty TNHH Phim Cách Nhiệt An Huy,"417/26/39 Quang Trung, P.10, Q.Gò Vấp, Tp. Hồ Chí Minh (TPHCM)",0866836097                              ,Tp Hcm,"Phụ Tùng Ô Tô, Phụ Tùng Xe Hơi"
Doanh Nghiệp Tư Nhân Thương Mại Lợi,"59 Yên Báy, Q. Hải Châu, Tp. Đà Nẵng",(0236) 3561841                                 ,Đà Nẵng,"Phụ Tùng Ô Tô, Phụ Tùng Xe Hơi"
Công Ty Cổ Phần Thiên Thành An,"Tầng 4, Tòa Nhà ATS, Số 8 Phạm Hùng, Q. Nam Từ Liêm, Hà Nội",(024) 32005997                                ,Hà Nội,"Phụ Tùng Ô Tô, Phụ Tùng Xe Hơi"
Trung Tâm Tư Vấn Xe Hơi,"Lê Văn Việt, Q. 9, Tp. Hồ Chí Minh (TPHCM)",0974842500                              ,Tp Hcm,"Phụ Tùng Ô Tô, Phụ Tùng Xe Hơi"
Công Ty TNHH Dầu Nhớt Minh Nhi,"Thôn 8, Xã Hòa Trung, Huyện Di Linh, Lâm Đồng",0932081652                              ,Lâm Đồng,"Phụ Tùng Ô Tô, Phụ Tùng Xe Hơi"
Công Ty TNHH Hồng Sơn,"Tổ Dân Phố Trường Thọ Đông A, P. Trương Quang Trọng, TP. Quảng Ngãi, Quảng Ngãi",(0255) 3830830                                 ,Quảng Ngãi,"Phụ Tùng Ô Tô, Phụ Tùng Xe Hơi"
Công Ty TNHH Phụ Tùng Ô Tô ACB,"12-14 Dãy nhà 2A, KĐT   Louis City, Đại Mỗ, Nam Từ liêm, Hà Nội",(024) 39729272Hotline: 0983 991 661       ,Hà Nội,"Phụ Tùng Ô Tô, Phụ Tùng Xe Hơi"
Công Ty TNHH VIONE,"1036 QL. 1A, KP. 3, P. Tân Tạo A, Q. Bình Tân, Tp. Hồ Chí Minh (TPHCM)",(028) 66764628                                ,Tp Hcm,"Phụ Tùng Ô Tô, Phụ Tùng Xe Hơi"
Hiệp Phú - Công Ty TNHH Thương Mại Hiệp Phú,"Số 28 Đường 53, P. Bình Thuận, Q. 7, Tp. Hồ Chí Minh (TPHCM)",(028) 39910881                                ,Tp Hcm,"Phụ Tùng Ô Tô, Phụ Tùng Xe Hơi"
Công Ty TNHH Thương Mại Dịch Vụ Đồng Khánh,"Số 6X Siêu Thị Ô Tô Thiên Thanh, Xa Lộ Hà Nội, TX. Dĩ An, Bình Dương",(0274) 3774538Hotline:08-66798699          ,Bình Dương,"Phụ Tùng Ô Tô, Phụ Tùng Xe Hơi"
Bắc Sơn - Công Ty TNHH Bắc Sơn,"194 Phố Huế, Q. Hai Bà Trưng, Hà Nội",(024) 39780122                                ,Hà Nội,"Phụ Tùng Ô Tô, Phụ Tùng Xe Hơi"
Công Ty TNHH TM DV Châu Chương Thủy,"CC Phú Mỹ, Hoàng Quốc Việt, Phường Phú Mỹ, Quận 7, Tp. Hồ Chí Minh (TPHCM)",0979901111                              ,Tp Hcm,"Phụ Tùng Ô Tô, Phụ Tùng Xe Hơi"
Công Ty TNHH Hỗ Trợ Ven Đường Việt,"178 Đường Lê Chí Dân, P. Hiệp An, Tp. Thủ Dầu, Bình Dương",(0274) 3585322                                 ,Bình Dương,"Phụ Tùng Ô Tô, Phụ Tùng Xe Hơi"
Cơ Khí Tiến Thành - Công Ty TNHH Sản Xuất Và Thương Mại Cơ Khí Tiến Thành,"Khu Công Nghiệp Thanh Thùy, Thôn Rùa Hạ 1, X. Thanh Thuỳ, H. Thanh Oai, Hà Nội",0986132374                              ,Hà Nội,"Phụ Tùng Ô Tô, Phụ Tùng Xe Hơi"
Công Ty Cổ Phần Phú Khang Nam,"102 Phan Văn Hớn, P. Tân Thới Nhất, Q. 12, Tp. Hồ Chí Minh (TPHCM)",(028) 62557812                                ,Tp Hcm,"Phụ Tùng Ô Tô, Phụ Tùng Xe Hơi"
Doanh Nghiệp Tư Nhân Thương Mại Hùng Tuyến,"Số 614 Phan Đình Phùng, P. Ngô Mây, Tp. Kon Tum, Kon Tum",(0260) 3856959                                 ,Kon Tum,"Phụ Tùng Ô Tô, Phụ Tùng Xe Hơi"
Công Ty Cổ Phần Ô Tô Quang Phi Hùng,"875 Nguyễn Hữu Thọ, P. Khuê Trung, Q. Cẩm Lệ, TP. Đà Nẵng, Tp. Đà Nẵng",0935536365                              ,Đà Nẵng,"Phụ Tùng Ô Tô, Phụ Tùng Xe Hơi"
Công Ty TNHH Thương Mại Dịch Vụ Và Sản Xuất Hoàng Kim,"Số 11/43/310 Nghi Tàm, Tây Hồ, Hà Nội","0968273735, 0987513877                  ",Hà Nội,"Phụ Tùng Ô Tô, Phụ Tùng Xe Hơi"
Hồng Phi - Công Ty TNHH Cơ Khí & Thương Mại Hồng Phi,"Tổ Quyết Tiến, Khu La Dương, P. Dương Nội, Q. Hoài Đức, Hà Nội",(024) 38390551                                ,Hà Nội,"Phụ Tùng Ô Tô, Phụ Tùng Xe Hơi"
Chân Phương - Công Ty TNHH Một Thành Viên Chân Phương,"126 Đường 284, P. 4, Q. 8, Tp. Hồ Chí Minh (TPHCM)",(028) 62630615                                ,Tp Hcm,"Phụ Tùng Ô Tô, Phụ Tùng Xe Hơi"
Chevrolet Nam Thái Bình Dương,"T6/27 QL13, TX. Thuận An, Bình Dương",(0274) 3769625                                 ,Bình Dương,"Phụ Tùng Ô Tô, Phụ Tùng Xe Hơi"
Công Ty ứng Dụng Công Nghệ Ô Tô (Cuonghieu Auto),"330 Phan Văn Trị, P.5, Q. Gò Vấp, Tp. Hồ Chí Minh (TPHCM)",(028) 66749853                                ,Tp Hcm,"Phụ Tùng Ô Tô, Phụ Tùng Xe Hơi"
Công Ty TNHH Phim Cách Nhiệt An Huy,"417/26/39 Quang Trung, P.10, Q.Gò Vấp, Tp. Hồ Chí Minh (TPHCM)",0866836097                              ,Tp Hcm,"Phụ Tùng Ô Tô, Phụ Tùng Xe Hơi"
Công Ty Cổ Phần Phú Khang Nam,"102 Phan Văn Hớn, P. Tân Thới Nhất, Q. 12, Tp. Hồ Chí Minh (TPHCM)",(028) 62557812                                ,Tp Hcm,"Phụ Tùng Ô Tô, Phụ Tùng Xe Hơi"
Cty Robert Bosch Việt Nam TNHH-Cn Đồng Nai,"Khu Công Nghiệp Long Thành, H. Long Thành, Đồng Nai",(0251) 6280340                                 ,Đồng Nai,"Phụ Tùng Ô Tô, Phụ Tùng Xe Hơi"
Công Ty TNHH Hồng Sơn,"Tổ Dân Phố Trường Thọ Đông A, P. Trương Quang Trọng, TP. Quảng Ngãi, Quảng Ngãi",(0255) 3830830                                 ,Quảng Ngãi,"Phụ Tùng Ô Tô, Phụ Tùng Xe Hơi"
Vĩnh Hùng - Công Ty TNHH Một Thành Viên Vĩnh Hùng,"357/3B Trịnh Đình Thảo, P. Hòa Thạnh, Q. Tân Phú, Tp. Hồ Chí Minh (TPHCM)",(028) 39737283                                ,Tp Hcm,"Phụ Tùng Ô Tô, Phụ Tùng Xe Hơi"
Công Ty TNHH Linh Kiện Ô Tô Hữu Thái,"09 Yersin, Phường Cầu Ông Lãnh, Q. 1, Tp. Hồ Chí Minh (TPHCM)",(028) 62910540                                ,Tp Hcm,"Phụ Tùng Ô Tô, Phụ Tùng Xe Hơi"
Công Ty Cổ Phần Vận Tải Thương Mại & Du Lịch Đông Anh,"Trung Tâm Thương Mại Thị Trấn Đông Anh, Hà Nội",(024) 3881235Hotline: 0909 11 0000        ,Hà Nội,"Phụ Tùng Ô Tô, Phụ Tùng Xe Hơi"
Công ty TNHH Phụ Tùng Ô Tô & Xe Máy HongAn Hà Bắc,"Phía Bắc đường Dazhai, quận Qinghe, Thành phố Xingtai, Hà Bắc",(+86) 13931919601                             ,Hà Bắc,"Phụ Tùng Ô Tô, Phụ Tùng Xe Hơi"
Xuân Kiên - Công Ty Cổ Phần Xuân Kiên,"2 Hoàng Quốc Việt, Q. Hoàn Kiếm, Hà Nội",(024) 39425969                                ,Hà Nội,"Phụ Tùng Ô Tô, Phụ Tùng Xe Hơi"
Ngọc Anh - Công Ty TNHH Ngọc Anh,"215 Đường Trường Chinh, P. Lê Lợi, TP Vinh, Nghệ An",(0238) 3838668                                 ,Nghệ An,"Phụ Tùng Ô Tô, Phụ Tùng Xe Hơi"
Thập Toàn - Công Ty TNHH Thương Mại Thập Toàn,"61/10 Đường 1, P. 10, Q. Tân Bình, Tp. Hồ Chí Minh (TPHCM)",(028) 38355572                                ,Tp Hcm,"Phụ Tùng Ô Tô, Phụ Tùng Xe Hơi"
Mỹ Thuận - Công Ty TNHH Đắc Lập,"318 Điện Biên Phủ, P. 17, Q. Bình Thạnh, Tp. Hồ Chí Minh (TPHCM)",(028) 35124075                                ,Tp Hcm,"Phụ Tùng Ô Tô, Phụ Tùng Xe Hơi"
Công Ty Lifan,"Nghĩa Hiệp, Yên Mỹ, Hưng Yên",(0221) 3397543                                 ,Hưng Yên,"Phụ Tùng Ô Tô, Phụ Tùng Xe Hơi"
BTC - Công Ty Cổ Phần Ô Tô BTC,"562 Nguyễn Văn Cừ, Q. Long Biên, Hà Nội",(024) 62913239                                ,Hà Nội,"Phụ Tùng Ô Tô, Phụ Tùng Xe Hơi"
Công Ty Cổ Phần Phụ Tùng Ô Tô Trường Phát,"30/76 Đường Trung Văn, Nam Từ Liêm, Hà Nội",(024) 66862728                                ,Hà Nội,"Phụ Tùng Ô Tô, Phụ Tùng Xe Hơi"
Doanh Nghiệp Tư Nhân Thương Mại Và Dịch Vụ Tiến Thành,"33 Lê Hồng Phong, P. Thành Công, TP. Buôn Mê Thuột, ĐắK LắK",(050) 3877788                                 ,ĐắK LắK,"Phụ Tùng Ô Tô, Phụ Tùng Xe Hơi"
CRS Teflon Vina - Công Ty TNHH CRS Teflon Vina,"90/2 Phan Huy ích, P. 12, Q. Gò Vấp, Tp. Hồ Chí Minh (TPHCM)",(028) 38959267                                ,Tp Hcm,"Phụ Tùng Ô Tô, Phụ Tùng Xe Hơi"
Hiệp Phú - Công Ty TNHH Thương Mại Hiệp Phú,"Số 28 Đường 53, P. Bình Thuận, Q. 7, Tp. Hồ Chí Minh (TPHCM)",(028) 39910881                                ,Tp Hcm,"Phụ Tùng Ô Tô, Phụ Tùng Xe Hơi"
Chi Nhánh Công Ty Phim Cách Nhiệt Ô Tô Biên Hòa,"160 Khu Phố Hồ Văn Leo, Biên Hòa, Đồng Nai",0902738297                              ,Đồng Nai,"Phụ Tùng Ô Tô, Phụ Tùng Xe Hơi"
Doanh Nghiệp Tư Nhân Thương Mại Hùng Tuyến,"Số 614 Phan Đình Phùng, P. Ngô Mây, Tp. Kon Tum, Kon Tum",(0260) 3856959                                 ,Kon Tum,"Phụ Tùng Ô Tô, Phụ Tùng Xe Hơi"
Dương Duy - Công Ty TNHH Thương Mại Và  Dịch Vụ Dương Duy,"212A3 Nguyễn Trãi, P. Nguyễn Cư Trinh, Q. 1, Tp. Hồ Chí Minh (TPHCM)",(028) 39202206Hotline: 0903 874 225       ,Tp Hcm,"Phụ Tùng Ô Tô, Phụ Tùng Xe Hơi"
Công Ty Cổ Phần Thiên Thành An,"Tầng 4, Tòa Nhà ATS, Số 8 Phạm Hùng, Q. Nam Từ Liêm, Hà Nội",(024) 32005997                                ,Hà Nội,"Phụ Tùng Ô Tô, Phụ Tùng Xe Hơi"
Bắc Sơn - Công Ty TNHH Bắc Sơn,"194 Phố Huế, Q. Hai Bà Trưng, Hà Nội",(024) 39780122                                ,Hà Nội,"Phụ Tùng Ô Tô, Phụ Tùng Xe Hơi"
Công Ty Cổ Phần Phụ Tùng Ô Tô HANOIAUTO,"Số 34, Ngõ 84/1 Võ Thị Sáu, P. Thanh Nhàn, Q. Hai Bà Trưng, Hà Nội",(024) 36781888                                ,Hà Nội,"Phụ Tùng Ô Tô, Phụ Tùng Xe Hơi"
Công Ty TNHH Phát Triển Thương Mại Việt Phát,"Tầng 2 Tòa Nhà Kinh Đô, Số 93 Lò Đúc, Q. Hai Bà Trưng, Hà Nội",(024) 39722468                                ,Hà Nội,"Phụ Tùng Ô Tô, Phụ Tùng Xe Hơi"
Công Ty Cổ Phần Xuất Nhập Khẩu Quang Hoàng,"Số 8 Trương Định, Tp. Đông Hà, Tp. Hồ Chí Minh (TPHCM)",(028) 3554154                                 ,Tp Hcm,"Phụ Tùng Ô Tô, Phụ Tùng Xe Hơi"
Trung Tâm Tư Vấn Xe Hơi,"Lê Văn Việt, Q. 9, Tp. Hồ Chí Minh (TPHCM)",0974842500                              ,Tp Hcm,"Phụ Tùng Ô Tô, Phụ Tùng Xe Hơi"
Công Ty TNHH Thương Mại Dịch Vụ Đồng Khánh,"Số 6X Siêu Thị Ô Tô Thiên Thanh, Xa Lộ Hà Nội, TX. Dĩ An, Bình Dương",(0274) 3774538Hotline:08-66798699          ,Bình Dương,"Phụ Tùng Ô Tô, Phụ Tùng Xe Hơi"
Công Ty TNHH Thương Mại Và Dịch Vụ Quốc Tế á Đông,"276/8 Đường Cây Da, Khu Phố Tân Phú 2, Phường Tân Bình, Thị Xã Dĩ An, Bình Dương",090751000                               ,Bình Dương,"Phụ Tùng Ô Tô, Phụ Tùng Xe Hơi"
Ô Tô Đại Lợi - Công Ty TNHH Thương Mại Đại Lợi,"474 Lũy Bán Bích, P. Hòa Thạnh, Q. Tân Phú, Tp. Hồ Chí Minh (TPHCM)","(028) 39733896, 0918247088                    ",Tp Hcm,"Phụ Tùng Ô Tô, Phụ Tùng Xe Hơi"
Doanh Nghiệp Tư Nhân Thương Mại Lợi,"59 Yên Báy, Q. Hải Châu, Tp. Đà Nẵng",(0236) 3561841                                 ,Đà Nẵng,"Phụ Tùng Ô Tô, Phụ Tùng Xe Hơi"
Phước Tài - Công Ty TNHH Thương Mại & Dịch Vụ Ô Tô Phước Tài,"738 Quốc Lộ 52, P. Hiệp Phú, Q. 9, Tp. Hồ Chí Minh (TPHCM)",(028) 37305387                                ,Tp Hcm,"Phụ Tùng Ô Tô, Phụ Tùng Xe Hơi"
Công Ty Hoàng Kim,"11/43/310 Nghi Tàm, Quận Tây Hồ, Hà Nội",0968273735                              ,Hà Nội,"Phụ Tùng Ô Tô, Phụ Tùng Xe Hơi"
Thiện Nghi - Công Ty TNHH Thiện Nghi,"19/11 I6 Bình Thới, P. 11, Q. 11, Tp. Hồ Chí Minh (TPHCM)",(028) 39629170                                ,Tp Hcm,"Phụ Tùng Ô Tô, Phụ Tùng Xe Hơi"
Thủy Nam - Công Ty Cổ Phần Thủy Nam,"360 Lĩnh Nam, P. Trần Phú, Q. Hoàng Mai, Hà Nội",(024) 36446132                                ,Hà Nội,"Phụ Tùng Ô Tô, Phụ Tùng Xe Hơi"
Công Ty TNHH Dầu Nhớt Minh Nhi,"Thôn 8, Xã Hòa Trung, Huyện Di Linh, Lâm Đồng",0932081652                              ,Lâm Đồng,"Phụ Tùng Ô Tô, Phụ Tùng Xe Hơi"
Isuzu Long Biên,"Số 449, Đường Nguyễn Văn Linh, Phường Phúc Đồng, Quận Long Biên, Hà Nội",0919486296                              ,Hà Nội,"Phụ Tùng Ô Tô, Phụ Tùng Xe Hơi"
Công ty TNHH TUTTO Việt Nam,"611/27 Điện Biên Phủ, P. 1, Q. 3, Tp. Hồ Chí Minh (TPHCM)",(028) 39381470 - 118                          ,Tp Hcm,"Phụ Tùng Ô Tô, Phụ Tùng Xe Hơi"
Tân Trung Hiếu - Công Ty TNHH Thương Mại Xuất Nhập Khẩu & Dịch Vụ Tân Trung Hiếu,"153 Bà Triệu, P. Lê Đại Hành, Q. Hai Bà Trưng, Hà Nội",(024) 38218196                                ,Hà Nội,"Phụ Tùng Ô Tô, Phụ Tùng Xe Hơi"
Công Ty Cổ Phần Phụ Tùng Ô Tô Trường Phát,"30/76 Đường Trung Văn, Nam Từ Liêm, Hà Nội",(024) 66862728                                ,Hà Nội,"Phụ Tùng Ô Tô, Phụ Tùng Xe Hơi"
Nhựa Composite - Công Ty TNHH Nexpia,"Lô 26A, Đường 9, KCN Tân Đức, X. Đức Hòa Hạ, H. Đức Hòa, Long An",(0272) 627 8989 - Hotline: 0979.679.494        ,Long An,"Phụ Tùng Ô Tô, Phụ Tùng Xe Hơi"
Công Ty TNHH Thiết Bị Phụ Tùng Ngô Văn,"Số 41, Đường 22, P. Bình An, Q. 2, Tp. Hồ Chí Minh (TPHCM)",(028) 54021308                                ,Tp Hcm,"Phụ Tùng Ô Tô, Phụ Tùng Xe Hơi"
Công Ty TNHH Thương Mại Và Dịch Vụ Quốc Tế á Đông,"276/8 Đường Cây Da, Khu Phố Tân Phú 2, Phường Tân Bình, Thị Xã Dĩ An, Bình Dương",090751000                               ,Bình Dương,"Phụ Tùng Ô Tô, Phụ Tùng Xe Hơi"
Công Ty Cổ Phần Thương Mại Kylin-Gx668,"Số 68 Phạm Văn Đồng, Dương Kinh, Tp. Hải Phòng",(0225) 01237668668                             ,Hải Phòng,"Phụ Tùng Ô Tô, Phụ Tùng Xe Hơi"
