Name,Address,Phone,Province,Service
Gara Vico - Công Ty Cổ Phần Vi Auto,"Lô A2-CN3, KCN Vừa Và Nhỏ Từ Liêm, Phường Minh Khai, Quận Bắc Từ Liêm, Hà Nội","(024) 62933533, 093 66 80 115, 098 63 60 678  ",Hà Nội,Gara
Garage Ô Tô Sáu Thanh - Công Ty TNHH MTV Thương Mại Dịch Vụ Ô Tô Sáu Thanh,"Số 20A, Tổ 1, KP. Khánh Long, P. Tân Phước Khánh, TX. Tân Uyên, Bình Dương","(0274) 652 0528, 0934 771 255                  ",Bình Dương,Gara
Toyota Long Biên - Công Ty TNHH Toyota Long Biên,"Số 7-9 Đường Nguyễn Văn Linh, Tổ 17, P. Gia Thụy, Q. Long Biên, Hà Nội",098 722 3379                            ,Hà Nội,Gara
Ô Tô Phú Khang - Công Ty TNHH Thương Mại Và Dịch Vụ Phú Khang,"Số 2699 Trần Hưng Đạo, P. Mỹ Thạnh, Tp. Long Xuyên, An Giang","(0296) 3933337, 0913 777 717                   ",An Giang,Gara
Cải Tạo Thiết Kế Đóng Mới Thùng Tải - Công Ty TNHH Hồng Khải Nguyễn,"195 Lê Hồng Phong, P. Phú Lợi, TP. Thủ Dầu Một, Bình Dương","(0274) 3636936, Hotline: 0906 37 54 55         ",Bình Dương,Gara
Garage Lê Trí - Cứu Hộ Giao Thông 920,"920 Tổ 33, Quốc Lộ 20, Thị Trấn Liên Nghĩa, Huyện Đức Trọng, Lâm Đồng","0982 998 920, 0817 647 777              ",Lâm Đồng,Gara
Phụ Tùng Ô Tô Sinh Tân - Công Ty TNHH Thương Mại Dịch Vụ Sinh Tân,"124-126 Lê Hoàng Phái, P. 17, Q. Gò Vấp, Tp. Hồ Chí Minh (TPHCM)","(028) 38942133, 090.999.2830                  ",Tp Hcm,Gara
Công Ty TNHH Kỹ Nghệ Trần Quang,"Số 9, Ngõ 538 Đường Láng, Q. Đống Đa, Hà Nội",(024) 37760737                                ,Hà Nội,Gara
Công Ty TNHH Nissan Việt Nam,"Tầng 3, Toà Nhà PVI Tower, Số 01, Phố Phạm Văn Bạch, P. Yên Hoà, Q. Cầu Giấy, Hà Nội",(024) 73011333                                ,Hà Nội,Gara
Công Ty TNHH Toyota An Thành Fukushima,"C4/4B, KP. 3, Đường Bùi Thanh Khiết, TT. Tân Túc, Q. Bình Chánh, Tp. Hồ Chí Minh (TPHCM)",(028) 36364040                                ,Tp Hcm,Gara
Cứu Hộ Ô Tô Hưng Yên - Gara ÔTÔ Thời Đại,"Đường Phạm Bạch Hổ, P. Hiến Nam, Tp. Hưng Yên, Hưng Yên",Hotline: 0966 154 898                   ,Hưng Yên,Gara
Công Ty TNHH Thương Mại Dịch Vụ Ô Tô Tây Sài Gòn,"63 Võ Văn Kiệt, P. 10, Q. 5, Tp. Hồ Chí Minh (TPHCM)",0901030030                              ,Tp Hcm,Gara
Trung Tâm Ô Tô Tải & Bus Thaco Trọng Thiện Hải Phòng - Công Ty TNHH Trọng Thiện,"Km27, QL10, Thôn 6, X. Bắc Sơn, H. An Dương, Tp. Hải Phòng",0911113394                              ,Hải Phòng,Gara
Công Ty TNHH Ô Tô Trường Lộc,"37 QL 13, Khu Phố Tây, P. Vĩnh Phú, TP. Thuận An, Bình Dương",(028) 37273427 - 0968 66 1979                 ,Bình Dương,Gara
Kia Giải Phóng - Công Ty Cổ Phần Xây Dựng Và Vật Tư Thiết Bị,"Km 10 Đường Giải Phóng, X. Tứ Hiệp, H.Thanh Trì, Hà Nội",(024) 0915557229                              ,Hà Nội,Gara
Công Ty CP Ô Tô An Thái,"464 Kinh Dương Vương, P. An Lạc A, Q. Bình Tân, Tp. Hồ Chí Minh (TPHCM)",0909285684                              ,Tp Hcm,Gara
Gỗ Phú Tài - Công Ty CP Phú Tài,"278 Nguyễn Thị Định, P. Nguyễn Văn Cừ, TP. Quy Nhơn, Bình Định",(0256) 3847668                                 ,Bình Định,Gara
City Ford Bình Triệu - Công Ty Cổ Phần City Auto,"216 - 218 Quốc Lộ 13, P. Hiệp Bình Chánh, Q. Thủ Đức, Tp. Hồ Chí Minh (TPHCM)",0898689076                              ,Tp Hcm,Gara
Gara Ô Tô Kim Sang,"Số 69 D1, Khu Dân Cư Việt Sing, P. An Phú, TX. Thuận An Bình Dương",0934 771 255                            ,Bình Dương,Gara
Sửa Chữa Xe Minh Nhựt - Công Ty TNHH Thương Mại Dịch Vụ Đầu Tư Minh Nhựt,"356 Hoàng Hữu Nam, KP. Giản Dân, P. Long Thạnh Mỹ, Q. 9, Tp. Hồ Chí Minh (TPHCM)",0902915871                              ,Tp Hcm,Gara
Công Ty TNHH Toyota Thanh Xuân,"Số 315 Trường Chinh, P. Khương Mai, Q. Thanh Xuân, Hà Nội",0936088246                              ,Hà Nội,Gara
Peugeot Quảng Ninh,"Km103, QL18A, Hà Khẩu, TP. Hạ Long, Quảng Ninh", ,Quảng Ninh,Gara
Công Ty TNHH TM DV Ô Tô Tân Hoàn Cầu,"252 QL 13, P. Hiệp Bình Chánh, Q. Thủ Đức, Tp. Hồ Chí Minh (TPHCM)",19007027                                ,Tp Hcm,Gara
Garage Ô Tô Bảo Khoa,"499 Nguyễn Hữu Thọ, Cẩm Lệ, Tp. Đà Nẵng",(0236) 3787878                                 ,Đà Nẵng,Gara
Công Ty TNHH Ô Tô Hiệp Lợi,"557 Lê Hồng Phong, P. Phú Hòa, TX. Thủ Dầu Một, Bình Dương",(0274) 3838222                                 ,Bình Dương,Gara
Ô Tô Ngọc Phương - Công Ty TNHH Ô Tô Ngọc Phương,"611 QL. 51, KP. Hương Sơn, P. Long Hương, Tp. Bà Rịa, Bà Rịa-Vũng Tàu","(0254) 3741777, 0933904908                     ",Bà Rịa-Vũng Tàu,Gara
Công Ty TNHH Việt Nam SUZUKI,"Đường Số 2, KCN Long Bình, P. Long Bình, TP. Biên Hòa, Đồng Nai",(0251) 3838707                                 ,Đồng Nai,Gara
Ô Tô Nguyên Gia Phát - Công Ty Cổ Phần Nguyên Gia Phát,"Sô 39 Đại Lộ Bình Dương, P. Vĩnh Phú, TP. Thuận An, Bình Dương",(028) 62950081                                ,Bình Dương,Gara
KMC - Công Ty TNHH Khang Minh,"KM 9, Cao Tốc Bắc Thăng Long, Nội Bài, Mê Linh, Hà Nội","(024) 39653222, 0943 139 889                  ",Hà Nội,Gara
Mercedes - Ben Văn Tân,"Số 30, ngõ 107, Đường Võ Chí Công, Q. Tây Hồ, Hà Nội",(024) 37196995                                ,Hà Nội,Gara
Garage Sài Gòn Kim Tín,"35/6B QL.13, KP. Hòa Long, P. Lái Thiêu, TX. Thuận An, Bình Dương",0907749888                              ,Bình Dương,Gara
Doanh Nghiệp Tư Nhân Garage Ô Tô Đà Nẵng,"Tổ 6, Khu 2, P. Cửa Ông, Tp. Cẩm Phả, Quảng Ninh",(0203) 3950756                                 ,Quảng Ninh,Gara
Công Ty Cổ Phần Ô Tô Thành Tâm,"Tổ 1, Bồ Đề, Q. Long Biên, Hà Nội",(024) 38725340                                ,Hà Nội,Gara
Volkswagen Đà Nẵng - Công Ty TNHH Quang Ngọc ánh,"875 Nguyễn Hữu Thọ, P. Khuê Trung, Q. Cẩm Lệ, Tp. Đà Nẵng",0908529898                              ,Đà Nẵng,Gara
Bình Dương Ford,"Lô C13, Đường Hùng Vương, Khu Liên Hợp, P. Hòa Phú, TP. Thủ Dầu Một, Bình Dương",0774681879                              ,Bình Dương,Gara
Công Ty CP Đầu Tư Và TM Tây Ô Tô - Chi Nhánh Western Ford An Giang,"Số 26/2A Trần Hưng Đạo, P. Mỹ Thới, TP. Long Xuyên, An Giang","(0396) 3933121, 0939085008                     ",An Giang,Gara
Công ty TNHH TM & DV Sửa Chữa Ô Tô Ngọc Thắng/Gara Trường Thành,"Số 4, Lô 3B Lê Hồng Phong, Đông Khê, Ngô Quyền,			 Tp. Hải Phòng",0934888333                              ,Hải Phòng,Gara
Hyundai Hải Phòng - Công Ty CP Công Nghiệp Ô Tô Thành Công,"742 Nguyễn Văn Linh, Niệm Nghĩa, Lê Chân, Tp. Hải Phòng",0916986622                              ,Hải Phòng,Gara
Công Ty Cổ Phần Đầu Tư Và TMDV Ô Tô Miền Bắc,"Ngõ 720, Nguyễn Văn Cừ, P. Gia Thụy, Q. Long Biên, Hà Nội",0984085899                              ,Hà Nội,Gara
Công Ty TNHH TM DV XNK  Ô Tô Thanh Hậu,"520A Hà Huy Giáp, P Thạnh Lộc, Q12, Tp. Hồ Chí Minh (TPHCM)",(028) 37164219                                ,Tp Hcm,Gara
Công Ty TNHH Ô Tô Ngọc Phát,"26/6 Khu Phố 1, Bửu Long, Tp. Biên Hòa, Đồng Nai",0908972299                              ,Đồng Nai,Gara
Công Ty CP Toyota Bình Dương,"Lô C13A, Đường Hùng Vương, P. Hòa Phú, TP. Thủ Dầu Một, Bình Dương",1900633697                              ,Bình Dương,Gara
Showroom KIA Bình Tân,"309A Kinh Dương Vương, P. An Lạc, Q. Bình Tân, Tp. Hồ Chí Minh (TPHCM)",0988806868                              ,Tp Hcm,Gara
Cứu Hộ Giao Thông - Công Ty TNHH Đầu Tư & Xây Lắp An Đạt,"05 Tân Thái 3, P. Mân Thái, Q. Sơn Trà. Tp. Đà Nẵng",0903530223                              ,Đà Nẵng,Gara
Haxaco Kim Giang,"256 Kim Giang, P. Đại Kim, Q. Hoàng Mai, Hà Nội",(024) 35590350                                ,Hà Nội,Gara
Cửa Hàng Phụ Tùng Ô Tô Dương Gia,"53 Kinh Dương Vương, P. 12, Q. 6, Tp. Hồ Chí Minh (TPHCM)",(028) 38750187                                ,Tp Hcm,Gara
Xưởng Dịch Vụ Toyota Thăng Long,"Số 316, Đường Cầu Giấy, P. Dịch Vọng, Q. Cầu Giấy, Hà Nội",(024) 38338888                                ,Hà Nội,Gara
Chi Nhánh Công Ty Cổ Phần Phụ Tùng Và Tư Vấn Ô Tô - VW Hải Phòng,"Số 356A Đường Đà Nẵng, P. Đông Hải 1, Q. Hải An, Tp. Hải Phòng",0968723888                              ,Hải Phòng,Gara
Công Ty TNHH XNK Thiết Bị An Mai,"Tòa nhà Diamond, Số 4, Đường 2D Nối Dài, KDC Nam Hùng Vương, P. An Lạc, Q. Bình Tân, Tp. Hồ Chí Minh (TPHCM)",(028) 6677 5174                               ,Tp Hcm,Gara
Công Ty Cổ Phần Ô Tô KCV Thăng Long,"Km 6 Đường Võ Văn Kiệt, X. Nam Hồng, H. Đông Anh, Hà Nội",(024) 39585188                                ,Hà Nội,Gara
Isuzu Green Ka - Công Ty Cổ Phần Thương Mại Green Ka,"1691/3N QL. 1A, KP. 3, P. An Phú Đông, Q. 12, Tp. Hồ Chí Minh (TPHCM)",0912619774                              ,Tp Hcm,Gara
Ô tô Suzuki Trọng Thiện - Công Ty TNHH Trọng Thiện,"KĐT Mới, P. Sở Dầu, Q. Hồng Bàng, Tp. Hải Phòng",0911959289                              ,Hải Phòng,Gara
Bình Dương Ford,"Lô C13, Đường Hùng Vương, Khu Liên Hợp, P. Hòa Phú, TP. Thủ Dầu Một, Bình Dương",0774681879                              ,Bình Dương,Gara
Công Ty TNHH SX TM DV Trường Tuấn,"159 Tên Lửa, Q. Bình Tân, Tp. Hồ Chí Minh (TPHCM)",0908341902                              ,Tp Hcm,Gara
Trung Tâm Sửa Chữa Ô Tô Bảo Khoa,"Số 499, Nguyễn Hữu Thọ, P. Khuê Trung, Q. Cẩm Lệ, Tp. Đà Nẵng",0905153797                              ,Đà Nẵng,Gara
Công Ty TNHH Thương Mại Dịch Vụ Ngọc ẩn,"26 Gò Dưa, P. Tam Bình, Q. Thủ Đức, Tp. Hồ Chí Minh (TPHCM)",0903805462                              ,Tp Hcm,Gara
Công Ty CP Đầu Tư Thương Mại và Dịch Vụ Ô Tô Liên Việt,"Số 344 Phúc Diễn, P. Xuân Phương, Q. Nam Từ Liêm, Hà Nội",(024) 73088806                                ,Hà Nội,Gara
Công Ty TNHH Ô Tô Nam Long,"TT Như Quỳnh, H. Văn Lâm, Hưng Yên",0984549446                              ,Hưng Yên,Gara
Công Ty TNHH TM Và DV Công Nghiệp Phượng Hoàng,"27 Lê Văn Thịnh, P. Bình Trưng Đông, Tp. Thủ Đức, Tp. Hồ Chí Minh (TPHCM)","(028) 62628844, 0932742578, 0982043629        ",Tp Hcm,Gara
Công Ty CP Đầu Tư Huy Trung,"Lô 19B, Số 3 – 5 Nguyễn Văn Linh, Q. Long Biên, Hà Nội","0898835835, 0853532011                  ",Hà Nội,Gara
Công Ty TNHH TM Và Đầu Tư Đức Hùng,"Đường Quang Trung, TK Diêm Hải, P. Phú Hải, TP. Đồng Hới, Quảng Bình",0943112255                              ,Quảng Bình,Gara
Công Ty Trách Nhiệm Hữu Hạn Xe Hơi Vũng Tàu,"688 Trương Công Định, P. Nguyễn An Ninh, TP Vũng Tàu , Bà Rịa-Vũng Tàu",(0254) 3833899                                 ,Bà Rịa-Vũng Tàu,Gara
Công Ty Cổ Phần Thương Mại Dịch Vụ Phú Mẫn - CN Bình Dương,"10/9 Quốc Lộ 13, P. Vĩnh Phú, TX. Thuận An, Bình Dương","0902630366, 0902992366, 1900252534      ",Bình Dương,Gara
Dịch vụ Chăm Sóc Và Sửa Chữa Ô Tô - Garage Ô Tô Minh Trí,"472 Tỉnh lộ 9, X. Đức Hòa Đông, H. Đức Hòa, Long An",0932179489                              ,Long An,Gara
Công Ty TNHH Ô Tô Ngọc Phát,"26/6 Khu Phố 1, Bửu Long, Tp. Biên Hòa, Đồng Nai",0908972299                              ,Đồng Nai,Gara
Hyundai Phạm Văn Đồng - Công Ty Cổ Phần Hyundai Phạm Văn Đồng,"138 Phạm Văn Đồng, P.  Xuân Đỉnh, Q. Bắc Từ Liêm, Hà Nội",0936259289                              ,Hà Nội,Gara
Công Ty TNHH Thương Mại Ô Tô An Phước,"100 Võ Nguyên Giáp, KP. Tân Cang, P. Phước Tân, TP. Biên Hòa, Đồng Nai",0909771388                              ,Đồng Nai,Gara
Gara Ô Tô Đà Nẵng,"Lô 29-30 Trung Nghĩa 9 , Quận Liên Chiêu , Tp. Đà Nẵng",0935055487                              ,Đà Nẵng,Gara
Volkswagen Đà Nẵng - Công Ty TNHH Quang Ngọc ánh,"875 Nguyễn Hữu Thọ, P. Khuê Trung, Q. Cẩm Lệ, Tp. Đà Nẵng",0908529898                              ,Đà Nẵng,Gara
Doanh Nghiệp Tư Nhân Toyota Biên Hòa - CN Đồng Nai,"Số 1 Xa Lộ Hà Nội, P. An Bình,  Tp. Biên Hòa, Đồng Nai",(0251) 3831669                                 ,Đồng Nai,Gara
Cứu Hộ Giao Thông - Công Ty TNHH Đầu Tư & Xây Lắp An Đạt,"05 Tân Thái 3, P. Mân Thái, Q. Sơn Trà. Tp. Đà Nẵng",0903530223                              ,Đà Nẵng,Gara
Công Ty TNHH Hoàng Phi Hải,"112/4C Đường HT48, Tổ 3, Khu Phố 1, Phường Hiệp Thành, Quận 12, Tp. Hồ Chí Minh (TPHCM)",0707196197                              ,Tp Hcm,Gara
Garage Thiết Hằng,"Lô 302 Hồ Tùng Mậu, Quận Liên Chiểu, Tp. Đà Nẵng",0977356909                              ,Đà Nẵng,Gara
Đại Lý ISUZU Giải Phóng - Công Ty Cổ Phần Vận Tải Thương Mại Và Đầu Tư An Việt,"Km 12+300 QL. 1A, X. Vĩnh Quỳnh, H. Thanh Trì, Hà Nội",0966667534                              ,Hà Nội,Gara
Công ty TNHH TM & DV Sửa Chữa Ô Tô Ngọc Thắng/Gara Trường Thành,"Số 4, Lô 3B Lê Hồng Phong, Đông Khê, Ngô Quyền,			 Tp. Hải Phòng",0934888333                              ,Hải Phòng,Gara
Honda Long Biên,"447 Nguyễn Văn Linh, P. Phúc Đồng, Q. Long Biên, Hà Nội",0934682589                              ,Hà Nội,Gara
Công Ty TNHH Hyundai Bình Dương,"48A Đại Lộ Bình Dương, P. Phú Hòa, TP. Thủ Dầu Một, Bình Dương",0933819219                              ,Bình Dương,Gara
Toyota Tây Ninh - Công Ty TNHH Toyota Lý Thường Kiệt Tại Tây Ninh,"50 Đường Hoàng Lê Kha, P. 3, TP. Tây Ninh, Tây Ninh",0901232696                              ,Tây Ninh,Gara
Công Ty TNHH X.E Việt Nam,"Số 10 ngõ 15 Ngọc Hồi, Hoàng Mai, Hà Nội",(024) 36815722                                ,Hà Nội,Gara
Công Ty TNHH Đầu Tư Thương Mại Và Dịch Vụ Ô Tô Hà Thành,"500 Võ Chí Công, Q. Tây Hồ, Hà Nội",0945860505                              ,Hà Nội,Gara
Công Ty TNHH Một Thành Viên Như Triệu,"44/4/2, Phạm Văn Chiêu, P. 8, Q. Gò Vấp, Tp. Hồ Chí Minh (TPHCM)",(028) 36203635                                ,Tp Hcm,Gara
Garage Ô Tô Thanh Tuấn,"17, Tổ 1, KP. 4. P. Thới Hòa, TX. Bến Cát, Bình Dương",01228844444                             ,Bình Dương,Gara
Hyundai Kinh Công Ty TNHH Sài Gòn Ô Tô Nguyễn Quang,"701 Kinh Dương Vương, P. An Lạc, Q. Bình Tân, Tp. Hồ Chí Minh (TPHCM)",(028) 37555599                                ,Tp Hcm,Gara
Mạnh Thành - Công Ty TNHH Thương Mại Dịch Vụ Du Lịch & Vận Tải Mạnh Thành,"106 Nguyễn Cửu Vân, P. 17, Q. Bình Thạnh, Tp. Hồ Chí Minh (TPHCM)",(028) 36002920                                ,Tp Hcm,Gara
Showroom KIA Bình Tân,"309A Kinh Dương Vương, P. An Lạc, Q. Bình Tân, Tp. Hồ Chí Minh (TPHCM)",0988806868                              ,Tp Hcm,Gara
Haxaco Kim Giang,"256 Kim Giang, P. Đại Kim, Q. Hoàng Mai, Hà Nội",(024) 35590350                                ,Hà Nội,Gara
Công Ty Cổ Phần Đầu Tư Và TMDV Ô Tô Miền Bắc,"Ngõ 720, Nguyễn Văn Cừ, P. Gia Thụy, Q. Long Biên, Hà Nội",0984085899                              ,Hà Nội,Gara
Công Ty Cổ Phần Đầu Tư Thương Mại Tây Ford,"530 Kinh Dương Vương, P. An Lạc, Q. Bình Tân, Tp. Hồ Chí Minh (TPHCM)",(028) 38776732                                ,Tp Hcm,Gara
Công Ty TNHH Sài Gòn Ô Tô,"61A Cao Thắng, P. 3, Q. 3, Tp. Hồ Chí Minh (TPHCM)",(028) 38181458                                ,Tp Hcm,Gara
Ô Tô Việt - Công Ty Cổ Phần Ô Tô Việt,"336 Lê Trọng Tấn, P. Tây Thạnh, Q. Tân Phú, Tp. Hồ Chí Minh (TPHCM)",(028) 38127979                                ,Tp Hcm,Gara
Garage Thiết Hằng,"Lô 302 Hồ Tùng Mậu, Quận Liên Chiểu, Tp. Đà Nẵng",0977356909                              ,Đà Nẵng,Gara
Công Ty Cổ Phần Toyota Vũng Tàu,"168 Đường 3 Tháng 2, P. 10, Bà Rịa-Vũng Tàu",(0254) 3627888                                 ,Bà Rịa-Vũng Tàu,Gara
Công Ty TNHH Dịch Vụ Ô Tô Sài Gòn,"450-452-454-456 Điện Biên Phủ, Q. Thanh Khê, Tp. Đà Nẵng",(0236) 3723277                                 ,Đà Nẵng,Gara
Toyota Tây Ninh - Công Ty TNHH Toyota Lý Thường Kiệt Tại Tây Ninh,"50 Đường Hoàng Lê Kha, P. 3, TP. Tây Ninh, Tây Ninh",0901232696                              ,Tây Ninh,Gara
Doanh Nghiệp Tư Nhân Toyota Biên Hòa - CN Đồng Nai,"Số 1 Xa Lộ Hà Nội, P. An Bình,  Tp. Biên Hòa, Đồng Nai",(0251) 3831669                                 ,Đồng Nai,Gara
Công Ty Trách Nhiệm Hữu Hạn Xe Hơi Vũng Tàu,"688 Trương Công Định, P. Nguyễn An Ninh, TP Vũng Tàu , Bà Rịa-Vũng Tàu",(0254) 3833899                                 ,Bà Rịa-Vũng Tàu,Gara
Công Ty TNHH Thương Mại Ô Tô An Phước,"100 Võ Nguyên Giáp, KP. Tân Cang, P. Phước Tân, TP. Biên Hòa, Đồng Nai",0909771388                              ,Đồng Nai,Gara
Gara Ô Tô Đình Thắng,"QL 1A, P. Yên Bình, Tam Điệp, Ninh Bình",0965433316                              ,Ninh Bình,Gara
Hyundai Phạm Văn Đồng - Công Ty Cổ Phần Hyundai Phạm Văn Đồng,"138 Phạm Văn Đồng, P.  Xuân Đỉnh, Q. Bắc Từ Liêm, Hà Nội",0936259289                              ,Hà Nội,Gara
Công Ty Cổ Phần TOYOTA Nha Trang,"Km Số 5, Đường 23 Tháng 10, Vĩnh Hiệp, Nha Trang, Khánh Hòa",(0258) 3891888                                 ,Khánh Hòa,Gara
Công Ty TNHH TM DV XNK  Ô Tô Thanh Hậu,"520A Hà Huy Giáp, P Thạnh Lộc, Q12, Tp. Hồ Chí Minh (TPHCM)",(028) 37164219                                ,Tp Hcm,Gara
Công Ty TNHH Đầu Tư Thương Mại Và Dịch Vụ Ô Tô Hà Thành,"500 Võ Chí Công, Q. Tây Hồ, Hà Nội",0945860505                              ,Hà Nội,Gara
Gara Ô Tô Đà Nẵng,"Lô 29-30 Trung Nghĩa 9 , Quận Liên Chiêu , Tp. Đà Nẵng",0935055487                              ,Đà Nẵng,Gara
Hyundai Hải Phòng - Công Ty CP Công Nghiệp Ô Tô Thành Công,"742 Nguyễn Văn Linh, Niệm Nghĩa, Lê Chân, Tp. Hải Phòng",0916986622                              ,Hải Phòng,Gara
Công Ty TNHH Dịch Vụ Ô Tô BKCP,"243 Tôn Đức Thắng, Q. Liên Chiểu, Tp. Đà Nẵng",0905071973                              ,Đà Nẵng,Gara
Công Ty CP Vận Tải TM Và ĐT An Việt,"Km 12+300 Quốc Lộ 1A, X. Vĩnh Quỳnh, H. Thanh Trì, Hà Nội","(024) 38615380, 36870004                      ",Hà Nội,Gara
Công Ty TNHH HZ,"Tổ 14, TT Cầu Diễn, H. Từ Liêm, Hà Nội",(024) 37633910                                ,Hà Nội,Gara
Công Ty XNK Ô Tô Miền Nam Đông Dương,"138 QL1A Tam Bình, Q. Thủ Đức, Tp. Hồ Chí Minh (TPHCM)",0929235352                              ,Tp Hcm,Gara
Dầu Nhớt Bardahl - Công Ty TNHH Hyundai Nam Việt,"Số 1 Bis, Đường 16A, KCN Biên Hòa 2, P. An Bình, TP. Biên Hòa, Đồng Nai",(0251) 3932331                                 ,Đồng Nai,Gara
Công Ty TNHH Liên Hợp Vận Tải & Du Lịch Vitraco,"Tòa Nhà 394B Điện Biên Phủ, Q. Thanh Khê, Tp. Đà Nẵng",(0236) 3726726                                 ,Đà Nẵng,Gara
Ô Tô Việt - Công Ty Cổ Phần Ô Tô Việt,"336 Lê Trọng Tấn, P. Tây Thạnh, Q. Tân Phú, Tp. Hồ Chí Minh (TPHCM)",(028) 38127979                                ,Tp Hcm,Gara
Công Ty Cổ Phần Thương Mại Dịch Vụ Phú Mẫn - CN Bình Dương,"10/9 Quốc Lộ 13, P. Vĩnh Phú, TX. Thuận An, Bình Dương","0902630366, 0902992366, 1900252534      ",Bình Dương,Gara
Công Ty TNHH Auto HTM,"C7/27C2 Phạm Hùng ấp 04A, X. Bình Hưng, H. Bình Chánh, Tp. Hồ Chí Minh (TPHCM)",(028) 37583113                                ,Tp Hcm,Gara
Ô Tô Đại Thành Công - Công Ty TNHH Thương Mại Dịch Vụ Ô Tô Đại Thành Công,"47/44 Nguyễn Tư Giản, P. 12, Q. Gò Vấp, Tp. Hồ Chí Minh (TPHCM)",(028) 62691979                                ,Tp Hcm,Gara
Bình Dương Ford - Công Ty Cổ Phần Dịch Vụ Ô Tô Thành Phố Mới Bình Dương,"Lô C13, Đường Hùng Vương, KLH. Thành Phố Mới Bình Dương, P. Hòa Phú, TP. Thủ Dầu Một, Bình Dương",0938585739                              ,Bình Dương,Gara
Doanh Nghiệp Tư Nhân Toyota Biên Hòa - CN Bình Dương,"7/30C, Đại Lộ Bình Dương,KP. Bình Đức 2, P. Bình Hòa, TX. Thuận An, Bình Dương",(0274) 3786786                                 ,Bình Dương,Gara
Công Ty Ô Tô Trung Thượng,"Km 6 Đại Lộ Thăng Long, Hoài Đức, Hà Nội",0903865589                              ,Hà Nội,Gara
Ô Tô Shineray Việt Nam - Công Ty TNHH Ô Tô Shineray Việt Nam,"KCN Đại Đồng,  Hoàn Sơn, X. Hoàn Sơn, H. Tiên Du, Bắc Ninh",(0222) 3847833                                 ,Bắc Ninh,Gara
Ô Tô Hải Âu - Công Ty TNHH Ô Tô Hải Âu,"Tầng 5, Tháp Tây, Toà Nhà Hancorp, 72 Trần Đăng Ninh, Q. Cầu Giấy, Hà Nội",(024) 35372816                                ,Hà Nội,Gara
Công Ty TNHH Một Thành Viên Thương Mại Và Dịch Vụ Hương Hùng Thúy,"Số 502 Đường Ngọc Hồi, Ga Văn Điển, H. Thanh Trì, Hà Nội",(024) 36815891                                ,Hà Nội,Gara
Cứu Hộ Ô Tô Minh Chí - Công Ty TNHH TM DV XD Minh Chí,"698A Bình Giã, P. 10, TP. Vũng Tàu, Bà Rịa-Vũng Tàu",0909 684 269                            ,Bà Rịa-Vũng Tàu,Gara
Công ty TNHH Nam Hàn,"39A/11, Xa Lộ Hà Nội, KP. Ngãi Thắng, P. Bình Thắng, TX Dĩ An, Bình Dương",(0274) 3739379                                 ,Bình Dương,Gara
Công Ty TNHH Xây Dựng Và Thương Mại Tuấn Tú,"149 Lê Thành Phương, P. 8, Tp. Tuy Hòa, Phú Yên",(0257) 2220444                                 ,Phú Yên,Gara
Công Ty TNHH Đệ Nhất Ô Tô,"2454 QL 1A, P. An Phú Đông, Q. 12, Tp. Hồ Chí Minh (TPHCM)",0944906111                              ,Tp Hcm,Gara
Chevrolet Nam Thái - Công Ty TNHH Nam Thái Bình Dương,"T6/27 Đại Lộ Bình Dương, KP. Bình Đức, P. Bình Hòa, TX. Thuận An, Bình Dương",0902727555                              ,Bình Dương,Gara
Công Ty CP Ô Tô Con Đường Mới,"Số 358 Đường Láng, Phường Thịnh Quang, Q. Đống Đa, Hà Nội",(024) 35627777                                ,Hà Nội,Gara
Ford Gia Lai - Công Ty Cổ Phần DANA Chi Nhánh Gia Lai,"284 Lê Duẩn, P. Thắng Lợi, Tp. Pleiku, Gia Lai",0935511404                              ,Gia Lai,Gara
Công Ty TNHH Sản Xuất Thương Mại Xuất Nhập Khẩu Đông Tây,"1137 QL 1A, KP. 5, P. Tân Tạo, Q. Bình Tân, Tp. Hồ Chí Minh (TPHCM)","(028) 38779123, 0975041074                    ",Tp Hcm,Gara
Công Ty TNHH Mua Bán Và Sửa Chữa Ô Tô Bảy Long,"80-82 Phạm Ngũ Lão, P. 3, Q. Gò Vấp, Tp. Hồ Chí Minh (TPHCM)",(028) 39855091                                ,Tp Hcm,Gara
Ford Bình Định - Công Ty Cổ Phần DANA Chi Nhánh Bình Định,"73 Tây Sơn, P. Quang Trung, Tp. Quy Nhơn, Bình Định",(0256) 3546555                                 ,Bình Định,Gara
Công Ty TNHH MTV Dragon Auto Speed,"435Q Phạm Văn Đồng, P. 11,Q. Bình Thạnh, Tp. Hồ Chí Minh",0906329986                              ,Tp Hcm,Gara
Honda Kim Thanh - Công Ty Cổ Phần Ô Tô Honda Kim Thanh,"6 Đường 3/2, P. 15, Q. 11, Tp. Hồ Chí Minh (TPHCM)",0982900708                              ,Tp Hcm,Gara
Showroom ô tô KIA Nam Định,"Số 19, Đường Trần Hưng Đạo, P. Trần Hưng Đạo, TP Nam Định, Nam Định",(0228) 3849508                                 ,Nam Định,Gara
Mazda Biên Hòa,"Số 19 Đờng 2A, P. An Bình, TP.Biên Hòa, Đồng Nai",(0251) 3993737                                 ,Đồng Nai,Gara
Ford Biên Hòa - Công Ty TNHH DV TM Tấn Phát Đạt,"Số B04, KP 3, Khu Thương Mại Amata, P. Long Bình, TP. Biên Hoà, Đồng Nai",0912623179                              ,Đồng Nai,Gara
Công Ty TNHH Ô Tô Hợp Nhất Miền Nam,"918 Quốc Lộ 13, P. Hiệp Bình Phước, TP. Thủ Đức, Tp. Hồ Chí Minh (TPHCM)",0931597898                              ,Tp Hcm,Gara
Công Ty Ô Tô Trung Thượng,"Km 6 Đại Lộ Thăng Long, Hoài Đức, Hà Nội",0903865589                              ,Hà Nội,Gara
Công Ty TNHH Thương Mại Và Dịch Vụ Hợp Phát Phú Thọ,"Tổ 11, Khu Núi Trang, TT. Phong Châu, H. Phù Ninh, Phú Thọ",0967737393                              ,Phú Thọ,Gara
Showroom ô tô KIA Nam Định,"Số 19, Đường Trần Hưng Đạo, P. Trần Hưng Đạo, TP Nam Định, Nam Định",(0228) 3849508                                 ,Nam Định,Gara
Đại Lý Mitsubishi Trung Thượng,"Km 6, Đại lộ Thăng Long, Hoài Đức, Hà Nội",0932145666                              ,Hà Nội,Gara
Toyota Bắc Ninh,"Lô A Lê Thái Tổ, P. Võ Cường, Bắc Ninh",(0222) 3686666                                 ,Bắc Ninh,Gara
Ô Tô Miền Nam - Công Ty TNHH Xuất Nhập Khẩu Ô Tô Miền Nam,"68 QL 1A, P. An Phú Đông, Q.12, Tp. Hồ Chí Minh (TPHCM)",0917071798                              ,Tp Hcm,Gara
Doanh Nghiệp Tư Nhân Toyota Biên Hòa - CN Bình Dương,"7/30C, Đại Lộ Bình Dương,KP. Bình Đức 2, P. Bình Hòa, TX. Thuận An, Bình Dương",(0274) 3786786                                 ,Bình Dương,Gara
Hoàng Mỹ Workshop,"Số 17 Đường Số 28, P. Cát Lái, TP. Thủ Đức, Tp. Hồ Chí Minh (TPHCM)",0911710911                              ,Tp Hcm,Gara
Chevrolet Nam Thái - Công Ty TNHH Nam Thái Bình Dương,"T6/27 Đại Lộ Bình Dương, KP. Bình Đức, P. Bình Hòa, TX. Thuận An, Bình Dương",0902727555                              ,Bình Dương,Gara
Ô Tô Hồng Sơn Star Đà Nẵng - Công Ty TNHH Ô Tô Hồng Sơn Star Đà Nẵng,"Quốc Lộ 1 A, X. Hòa Phước, H. Hòa Vang, Tp. Đà Nẵng",(0236) 3687878                                 ,Đà Nẵng,Gara
Công Ty TNHH Thương Mại Ô Tô Chiến Quốc,"Số 9 Đ.CN6, P. Sơn Kỳ, Q. Tân Phú, Tp. Hồ Chí Minh (TPHCM)",(028) 38127817                                ,Tp Hcm,Gara
Ô Tô Việt Đăng - Công Ty TNHH Thương Mại Cơ Khí Ô Tô Việt Đăng,"Km 2, Đường Phan Trọng Tuệ, H. Thanh Trì, Hà Nội",0902113929                              ,Hà Nội,Gara
Công Ty TNHH Mua Bán Và Sửa Chữa Ô Tô Bảy Long,"80-82 Phạm Ngũ Lão, P. 3, Q. Gò Vấp, Tp. Hồ Chí Minh (TPHCM)",(028) 39855091                                ,Tp Hcm,Gara
Công Ty Cổ Phần Auto Hyundai MPC Miền Đông,"44C Xa Lộ Hà Nội, P. Bình Thắng, TX. Dĩ An, Bình Dương",0918977688                              ,Bình Dương,Gara
Ô Tô Thuận Phát - Công Ty TNHH TM DV XD Ô Tô Thuận Phát,"785, QL 13, P. Hiệp bình Phước, Q.Thủ Đức, Bình Dương",0906787175                              ,Bình Dương,Gara
Showroom Chevrolet Biên Hòa,"463, Qu&#7889c Lộ 1A, KP. 2, P. Long Bình , TP. Biên Hòa, Đồng Nai",(0251) 8877900                                 ,Đồng Nai,Gara
Ford Biên Hòa - Công Ty TNHH DV TM Tấn Phát Đạt,"Số B04, KP 3, Khu Thương Mại Amata, P. Long Bình, TP. Biên Hoà, Đồng Nai",0912623179                              ,Đồng Nai,Gara
TRACIMEXCO - Công Ty Cổ Phần Xuất Nhập Khẩu Và Hợp Tác Đầu Tư Giao Thông Vận Tải,"1454 QL 1A, P. Thới An, Q. 12, Tp. Hồ Chí Minh (TPHCM)",0902904039                              ,Tp Hcm,Gara
VinaMotor - Tổng Công Ty Công Nghiệp Ô Tô Việt Nam - CTCP,"120 Hàng Trống, Q. Hoàn Kiếm, Hà Nội",0961162255                              ,Hà Nội,Gara
Công Ty TNHH Ô Tô Trần Gia,"Số 651, QL 13, P. Hiệp thành, TP. Thủ Dầu Một, Bình Dương",0933411059                              ,Bình Dương,Gara
Ô Tô G-STARS - Công Ty TNHH  Ô Tô G-STARS,"DH1 - DH2 Võ Nguyên Giáp, P. Hưng Thạnh, Q. Cái Răng, TP. Cần Thơ",0965195976                              ,TP. Cần Thơ,Gara
Ô Tô Shineray Việt Nam - Công Ty TNHH Ô Tô Shineray Việt Nam,"KCN Đại Đồng,  Hoàn Sơn, X. Hoàn Sơn, H. Tiên Du, Bắc Ninh",(0222) 3847833                                 ,Bắc Ninh,Gara
Công Ty CP Ô Tô Con Đường Mới,"Số 358 Đường Láng, Phường Thịnh Quang, Q. Đống Đa, Hà Nội",(024) 35627777                                ,Hà Nội,Gara
HUYNDAI AN PHÚ - Công Ty Cổ Phần MPC Auto An Phú,"Số 5A Nguyễn Thị Minh Khai, P. Bến Nghé, Q. 1, Tp. Hồ Chí Minh (TPHCM)",0778078878                              ,Tp Hcm,Gara
Chi Nhánh Công Ty TNHH Việt Nam Suzuki,"2 Phổ Quang, P. 2, Q. Tân Bình, Tp. Hồ Chí Minh (TPHCM)",0903003617                              ,Tp Hcm,Gara
Công Ty TM & DV EUPARTS,"10B Võ Chí Công, Q. Tây Hồ, Hà Nội", ,Hà Nội,Gara
Công Ty TNHH MTV Thanh Phong Auto,"68B Nguyễn Hữu Thọ, Phường Tân Hưng, Quận 7, Tp. Hồ Chí Minh (TPHCM)",0934222763                              ,Tp Hcm,Gara
Ô Tô Đạt Tấn Phát - Công Ty TNHH Dịch Vụ Thương Mại Ô Tô Đạt Tấn Phát,"Số 795, KP. 4, Xa Lộ Hà Nội, P. Long Bình, TP. Biên Hòa, Đồng Nai",0937622860                              ,Đồng Nai,Gara
Công Ty TNHH Xuất Nhập Khẩu Ô Tô Đại Đô Thành,"47 Điện Biên Phủ, Đakao, Q. 1, Tp. Hồ Chí Minh (TPHCM)",(028) 39117788                                ,Tp Hcm,Gara
Công Ty TNHH Đệ Nhất Ô Tô,"2454 QL 1A, P. An Phú Đông, Q. 12, Tp. Hồ Chí Minh (TPHCM)",0944906111                              ,Tp Hcm,Gara
Công Ty TNHH Thương Mại Vinh Tùng,"524 Trần Hưng Đạo, Tp. Quy Nhơn, Bình Định","(0256) 3827090, 0888666279                     ",Bình Định,Gara
Chi Nhánh Công ty Cổ phần Sài Gòn Ô Tô,"6A Trần Hưng Đạo, P. Phạm Ngũ Lão, Q. 1, Tp. Hồ Chí Minh (TPHCM)",(028) 39153244                                ,Tp Hcm,Gara
Công Ty TNHH Thương Mại & Dịch Vụ Hân Hoàng Hà,"79 Tôn Đức Thắng, P. Hòa Minh, Q. Liên Chiểu, Tp. Đà Nẵng",0917778008                              ,Đà Nẵng,Gara
Ford Bình Triệu - Công Ty CP City Auto,"218 QL 13, P. Hiệp Bình Chánh, Q. Thủ Đức, Tp. Hồ Chí Minh (TPHCM)",0778078878                              ,Tp Hcm,Gara
Lốp Ô Tô Tâm Nguyên Phát,"61 Nguyễn Thương Hiền, P. Tân An, Tp. Buôn Ma Thuột, Đắk Lắk",0783355678                              ,Đắk Lắk,Gara
Ford Gia Lai - Công Ty Cổ Phần DANA Chi Nhánh Gia Lai,"284 Lê Duẩn, P. Thắng Lợi, Tp. Pleiku, Gia Lai",0935511404                              ,Gia Lai,Gara
Ô Tô Kim Thanh - Công Ty Cổ Phần Ô Tô Kim Thanh,"Số 6, Đường 3 Tháng 2, P. 15, Q. 11, Tp. Hồ Chí Minh (TPHCM)",(028) 38662222                                ,Tp Hcm,Gara
Công Ty TNHH Phát Triển Xây Dựng Và Thương Mại DCC,"Số 10, Đường 2A, KCN Biên Hòa II, Tp. Biên Hòa., Đồng Nai Tp. Hồ Chí Minh (TPHCM)",(028) 37273285                                ,Tp Hcm,Gara
Phụ Tùng Ô Tô Thành Danh,"Ngã 3 Dầu Giây, X. Bàu Hàm 2, H. Thống Nhất, Đồng Nai",0972128424                              ,Đồng Nai,Gara
Công Ty TNHH Một Thành Viên Thương Mại Và Dịch Vụ Hương Hùng Thúy,"Số 502 Đường Ngọc Hồi, Ga Văn Điển, H. Thanh Trì, Hà Nội",(024) 36815891                                ,Hà Nội,Gara
Hyundai Đông Nam - Chi Nhánh Mê Linh,"Km 09, Võ Văn Kiệt, TT. Quang Minh, H. Mê Linh, Hà Nội",0903410268                              ,Hà Nội,Gara
Phụ Tùng Ô Tô Gia Khoa - Công Ty TNHH Gia Khoa,"Số 2A/436 Đường Bạch Đằng, P. Chương Dương, Q. Hoàn Kiếm, Hà Nội",Hotline: 0983 380 969                   ,Hà Nội,Gara
Công Ty TNHH MTV Dragon Auto Speed,"435Q Phạm Văn Đồng, P. 11,Q. Bình Thạnh, Tp. Hồ Chí Minh",0906329986                              ,Tp Hcm,Gara
Công ty TNHH Phát Triển Xây Dựng và Thương Mại,"Số 10, Đường 2A, KCN Biên Hoà 2, P. Long Bình Tân, TP. Biên Hoà, Đồng Nai",0967779886                              ,Đồng Nai,Gara
Ô Tô Hải Âu - Công Ty TNHH Ô Tô Hải Âu,"Tầng 5, Tháp Tây, Toà Nhà Hancorp, 72 Trần Đăng Ninh, Q. Cầu Giấy, Hà Nội",(024) 35372816                                ,Hà Nội,Gara
Showroom ô tô KIA Nam Định,"Số 19, Đường Trần Hưng Đạo, P. Trần Hưng Đạo, TP Nam Định, Nam Định",(0228) 3849508                                 ,Nam Định,Gara
Ô Tô Đạt Tấn Phát - Công Ty TNHH Dịch Vụ Thương Mại Ô Tô Đạt Tấn Phát,"Số 795, KP. 4, Xa Lộ Hà Nội, P. Long Bình, TP. Biên Hòa, Đồng Nai",0937622860                              ,Đồng Nai,Gara
Lốp Ô Tô Tâm Nguyên Phát,"61 Nguyễn Thương Hiền, P. Tân An, Tp. Buôn Ma Thuột, Đắk Lắk",0783355678                              ,Đắk Lắk,Gara
Hyundai Đông Nam - Chi Nhánh Mê Linh,"Km 09, Võ Văn Kiệt, TT. Quang Minh, H. Mê Linh, Hà Nội",0903410268                              ,Hà Nội,Gara
HTX Sửa Chữa Ô Tô Đông Hải,"20 Đặng Quốc Chinh, P. Lê Thanh Nghị, Tp. Hải Dương, Hải Dương",(0220) 3861341                                 ,Hải Dương,Gara
Garage ô Tô Gia Hưng,"Mỹ Phước 3, Bến Cát, Bình Dương",0975949592                              ,Bình Dương,Gara
Công Ty TNHH Dịch Vụ Và Thương Mại Trác Thành Phương Nam,"Số 18 phố cầu Ngà, Phường Vân Dương, TP.Bắc Ninh, Bắc Ninh",0978 592 919                            ,Bắc Ninh,Gara
Hợp Tá Xã Dịch Vụ Thương Mại Và Sửa Chữa Xe Hơi Đồng Tiến,"495/2 Tô Hiến Thành, P. 14, Q. 10, Tp. Hồ Chí Minh (TPHCM)",(028) 3666701                                 ,Tp Hcm,Gara
Công Ty TNHH Thương Mại Xuất Nhập Khẩu C9 Vina,"1358/3C An Phú Đông, P. 12, Q. 12, Tp. Hồ Chí Minh (TPHCM)",(028) 0909769985                              ,Tp Hcm,Gara
Công Ty TNHH Saigon Dynamic,"122/41 Đường Nguyễn Văn Tạo, ấp 3, X. Long Thới, H. Nhà Bè, Tp. Hồ Chí Minh (TPHCM)",0355699411                              ,Tp Hcm,Gara
Cơ Sở Mâm Lốp Ô Tô Sáu Thuấn,"Thị Trấn Phù Mỹ, Bình Định",0988039584                              ,Bình Định,Gara
Công Ty CP Ô Tô Miền Đồng AUTO,"79 Lý Thường Kiệt, Tân Bình, Tp. Hồ Chí Minh (TPHCM)","(028) 62737278, 0934074506                    ",Tp Hcm,Gara
Doanh Nghiệp Tư Nhân  Ô Tô Ngọc Châu,"325 Hùng Vương, P. Nhơn Phú,Tp. Quy Nhơn, Bình Định",(0256) 3848289                                 ,Bình Định,Gara
Công Ty Cổ Phần Giải Pháp Dịch Vụ Công Nghệ Ahagara,"Số Nhà 29 Tổ 1, P. Quan Hoa, Q. Cầu Giấy, Hà Nội",0816404444                              ,Hà Nội,Gara
Doanh Nghiệp Tư Nhân Garage Chí Cường,"QL1A, Lê Duẩn, P. Phước Mỹ , TP. Phan Rang, Tháp Chàm, Ninh Thuận",(0259) 3836.983                                ,Ninh Thuận,Gara
Công Ty TNHH Phụ Tùng Ô Tô Bến Thành,"26/3TL26 Thạnh Lộc, Q. 12, Tp. Hồ Chí Minh (TPHCM)",(028) 66767665                                ,Tp Hcm,Gara
Công Ty TNHH MTV Dịch Vụ Vận Tải Và Vỏ Xe Vạn Thành,"42A Đường Tỉnh Lộ 15, ấp 08, Xã Bình Mỹ, Huyện Củ Chi, Tp. Hồ Chí Minh (TPHCM)",(028) 62873599                                ,Tp Hcm,Gara
Công Ty TNHH Kỹ Thuật Thương Mại Và Dịch Vụ Quốc Sinh,"Tổ 1, Khối Mỗ Lao, P. Mỗ Lao, Q. Hà Đông, Hà NộiVPGD: Tổ 36 Phú Đô, Từ Liêm, Hà Nội",(024) 66546149Hotline: 0983601654         ,Hà Nội,Gara
Công Ty TNHH Giải Pháp Ô Tô,"X11, Ba Vì, P. 15, Q. 10, Tp. Hồ Chí Minh (TPHCM)",(028) 62860156                                ,Tp Hcm,Gara
Công Ty Cổ Phần An Thái Coneco,"58 Đường Thiên Đức,TT. Yên Viên, H. Gia Lâm, Hà Nội",(024) 38780015                                ,Hà Nội,Gara
Cơ Sở Sài Thành Auto,"89C Tô Ngọc Vân, Q. 12, Tp. Hồ Chí Minh (TPHCM)",0908828482                              ,Tp Hcm,Gara
Gara Trường Thịnh,"C5, Đường N4, KDC. Tân Lại, KP2, Phường Bử Long, Tp. Biên Hòa, Đồng Nai",(0251) 3951818                                 ,Đồng Nai,Gara
Công Ty TNHH Vận Tải Việt Hoàng,"Số 217/1, Tổ 2, Khu Phố 1A, Phường An Phú, Thành Phố Thuận An, Bình Dương",(0274) 6283720                                 ,Bình Dương,Gara
Hyundai Sông Hàn Đà Nẵng,"86 Duy Tân, Q. Hải Châu, Tp. Đà Nẵng",0899871368                              ,Đà Nẵng,Gara
Dũng Hoàng - Doanh Nghiệp Tư Nhân Thương Mại & Dịch Vụ Dũng Hoàng,"450 Nguyễn Lương Bằng, Q. Liên Chiểu, Tp. Đà Nẵng",(0236) 3841119                                 ,Đà Nẵng,Gara
Công Ty TNHH Vận Tải Và Sửa Chữa Ô Tô Trường Thành,"562 Đường Láng, Q. Đống Đa, Hà Nội",(024) 0913566330                              ,Hà Nội,Gara
Công Ty Cổ Phần Huyndai Thái Nguyên,"Bắc Sơn, Hoàng Văn Thụ, Thái Nguyên",0972075358                              ,Thái Nguyên,Gara
Chi Nhánh Công Ty Cổ Phần Phụ Tùng Và Tư Vấn Ô Tô Tại Nam Định,"Thôn Hồng Phúc, Xã Mỹ Tân, Huyện Mỹ Lộc, Nam Định",(0228) 3632667                                 ,Nam Định,Gara
Doanh Nghiệp Tư Nhân Trần Ai,"Quốc Lộ 51, TT. Long Thành, H. Long Thành, Đồng Nai",(0251) 3844198                                 ,Đồng Nai,Gara
Vĩnh Tuy - Công Ty Cổ Phần Vận Tải Vĩnh Tuy,"3-5 Ngõ 27,Vĩnh Tuy, Q. Hai Bà Trưng, Hà Nội",(024) 39876092                                ,Hà Nội,Gara
Xí Nghiệp Sửa Chữa Ô Tô Tây Mỗ - Chi Nhánh Công Ty Cổ Phần Ford Thăng Long,"Đường 70, X. Tây Mỗ, H. Từ Liêm, Hà Nội",(024) 37653489                                ,Hà Nội,Gara
Xe Hơi Việt Nam,"831 Trường Chinh, P. Tây Thạnh, Q. Tân Phú, Tp. Hồ Chí Minh (TPHCM)", ,Tp Hcm,Gara
Công Ty TNHH Ô Tô Khánh Huy - ISUZU D-SQUARE Bình Dương,"Số 5B/4A Đại Lộ Bình Dương, Tổ 5B, KP. Bình Đức 2, P. Bình Hòa, TX. Thuận An, Bình Dương",0909134692                              ,Bình Dương,Gara
Hoa Điệp,"235 Võ Thị Sáu, P. Thắng Tam, Tp. Vũng Tàu Bà Rịa-Vũng Tàu",(+84) 834020285                               ,Bà Rịa-Vũng Tàu,Gara
Doanh Nghiệp Tư Nhân Vĩnh Trình,"Khu Quy Hoạch Nguyễn Văn Linh, Phường An Hòa, Thừa Thiên Huế",(0234) 3626345                                 ,Tt Huế,Gara
Công Ty TNHH Ô Tô Sài Gòn,"ấp Hiệp Thắng,X. Bình Thắng, H. Dĩ An, Bình Dương",(0274) 3774121                                 ,Bình Dương,Gara
Cơ Sở Hiệp Lợi,"55 Phó Đức Chính, P. Nguyễn Thái Bình, Q. 1, Tp. Hồ Chí Minh (TPHCM)",(028) 38211060                                ,Tp Hcm,Gara
Đỗ Thành Đạt - Công Ty TNHH Đỗ Thành Đạt,"2/49/5 Đường 120, ấp Cây Dầu, P. Tân Phú, Q. 9, Tp. Hồ Chí Minh (TPHCM)","(028) 38889130, 0903.823.427, 0982.110.427    ",Tp Hcm,Gara
Kim Thiên - Công Ty TNHH Một Thành Viên Thương Mại Và Xuất Nhập Khẩu Kim Thiên,"5/31 Khu Dân Cư Và TM Sóng Thần, Đại Lộ Độc Lập, Huyện Dĩ An, Bình Dương",(0274) 3732679                                 ,Bình Dương,Gara
Thiết Bị Kiểm Định Ô Tô,"601 Trường Chinh, Q. 12, Tp. Hồ Chí Minh (TPHCM)",0909666861                              ,Tp Hcm,Gara
Lê Hùng - Công Ty TNHH Cơ Khí Sửa Chữa Ô Tô Lê Hùng,"ấp Phước Thái, X. Thái Hòa, H. Tân Uyên, Bình Dương",(0274) 3658697                                 ,Bình Dương,Gara
Công Ty TNHH Sửa Chữa Ô Tô Thành Long Phát,"Số 511, Tổ 3, Khu 12, X. Long Đức, H. Long Thành, Đồng Nai",0941040045                              ,Đồng Nai,Gara
Công Ty TNHH Toyota Hải Dương,"Số 1 Ngô Quyền, P. Cẩm Thượng, TP. Hải Dương, Hải Dương",0909983555                              ,Hải Dương,Gara
Vinh Quang - Công Ty TNHH Ô Tô Vinh Quang,"805 Giải Phóng, Q. Hoàng Mai, Hà Nội",(024) 38643390                                ,Hà Nội,Gara
Công Ty TNHH Dịch Vụ Và Thương Mại Trác Thành Phương Nam,"Số 18 phố cầu Ngà, Phường Vân Dương, TP.Bắc Ninh, Bắc Ninh",0978 592 919                            ,Bắc Ninh,Gara
Garage ô Tô Gia Hưng,"Mỹ Phước 3, Bến Cát, Bình Dương",0975949592                              ,Bình Dương,Gara
Hợp Tá Xã Dịch Vụ Thương Mại Và Sửa Chữa Xe Hơi Đồng Tiến,"495/2 Tô Hiến Thành, P. 14, Q. 10, Tp. Hồ Chí Minh (TPHCM)",(028) 3666701                                 ,Tp Hcm,Gara
Công Ty TNHH Saigon Dynamic,"122/41 Đường Nguyễn Văn Tạo, ấp 3, X. Long Thới, H. Nhà Bè, Tp. Hồ Chí Minh (TPHCM)",0355699411                              ,Tp Hcm,Gara
Công Ty Cổ Phần Đầu Tư Thương Mại Ford An Đô,"168 Phạm Văn Đồng, Xuân Đỉnh, Bắc Từ Liêm, Hà Nội",0237 505 055                            ,Hà Nội,Gara
Công Ty CP Dịch Vụ Ben Group - Trung Tâm Sửa Chữa Ô Tô Cao Cấp Auto Ben,"458 Xa Lộ Hà Nội, P. Tân Hiệp, TP. Biên Hòa, Đồng Nai",(0251) 2860168                                 ,Đồng Nai,Gara
Doanh Nghiệp Tư Nhân Trần Ai,"Quốc Lộ 51, TT. Long Thành, H. Long Thành, Đồng Nai",(0251) 3844198                                 ,Đồng Nai,Gara
Công Ty Cổ Phần Huyndai Thái Nguyên,"Bắc Sơn, Hoàng Văn Thụ, Thái Nguyên",0972075358                              ,Thái Nguyên,Gara
Công Ty CP Ô Tô Miền Đồng AUTO,"79 Lý Thường Kiệt, Tân Bình, Tp. Hồ Chí Minh (TPHCM)","(028) 62737278, 0934074506                    ",Tp Hcm,Gara
Hùng - Công Ty TNHH Sửa Chữa Ô Tô Hùng,"549-551 Phan Văn Trị, P. 7, Q. 5, Tp. Hồ Chí Minh (TPHCM)",(028) 39234698                                ,Tp Hcm,Gara
Garage Huế Hải Phòng 3,"Phố Hoàng Hoa Thám, TT. Quảng Hà, Hải Hà, Quảng Ninh",(0203) 3765268                                 ,Quảng Ninh,Gara
Công Ty TNHH SR AUTO,"100 Đường Liên Khu 2-5, Phường Bình Trị Đông, Quận Bình Tân, Tp. Hồ Chí Minh (TPHCM)",0969035979                              ,Tp Hcm,Gara
Cơ Sở Sửa Chữa Ô Tô Trường Thịnh,"295/91B Đường Nguyễn Văn Linh, P. Long Tuyền, Q. Bình Thủy, TP. Cần Thơ",0907132000                              ,TP. Cần Thơ,Gara
Kim Thiên - Công Ty TNHH Một Thành Viên Thương Mại Và Xuất Nhập Khẩu Kim Thiên,"5/31 Khu Dân Cư Và TM Sóng Thần, Đại Lộ Độc Lập, Huyện Dĩ An, Bình Dương",(0274) 3732679                                 ,Bình Dương,Gara
Công Ty TNHH Phụ Tùng Ô Tô Bến Thành,"26/3TL26 Thạnh Lộc, Q. 12, Tp. Hồ Chí Minh (TPHCM)",(028) 66767665                                ,Tp Hcm,Gara
Vĩnh Tuy - Công Ty Cổ Phần Vận Tải Vĩnh Tuy,"3-5 Ngõ 27,Vĩnh Tuy, Q. Hai Bà Trưng, Hà Nội",(024) 39876092                                ,Hà Nội,Gara
Chi Nhánh Công Ty Cổ Phần Phụ Tùng Và Tư Vấn Ô Tô Tại Nam Định,"Thôn Hồng Phúc, Xã Mỹ Tân, Huyện Mỹ Lộc, Nam Định",(0228) 3632667                                 ,Nam Định,Gara
Công Ty TNHH Giải Pháp Ô Tô,"X11, Ba Vì, P. 15, Q. 10, Tp. Hồ Chí Minh (TPHCM)",(028) 62860156                                ,Tp Hcm,Gara
Đại Lý Xe Tải IZUZU Việt Nam,"175 Đại Lộ Bình Dương, KP. Trung, P. Vĩnh Phú, Tp. Thuận An, Bình Dương",0793153295                              ,Bình Dương,Gara
Công Ty TNHH MTV Toyota Quảng Ninh,"Tổ 94, Khu Đồn Điền, P. Hà Khẩu, TP. Hạ Long, Quảng Ninh",0984437230                              ,Quảng Ninh,Gara
Sửa Chữa Ô Tô Hoàng Hà D.L - Công Ty TNHH Dịch Vụ Du Lịch Hoàng Hà D.L,"Số 8D, Đường Nguyễn Ái Quốc, Khu Phố 3, P. Quang Vinh, Biên Hòa, Đồng Nai",(0251) 2221778                                 ,Đồng Nai,Gara
Công Ty Cổ Phần Mercedes Haxaco Hà Nội,"46 Láng Hạ, Đống Đa, Hà Nội",0936003199                              ,Hà Nội,Gara
Công Ty Cổ Phần GM Thăng Long,"Số 8, Lê Quang Đạo, Phú Đô, Từ Liêm, Hà Nội",(024) 73008866                                ,Hà Nội,Gara
Công Ty TNHH Tùng Lâm Express,"Số 3 Lê Thánh Tông, P. Máy Tơ, Q. Ngô Quyền, Tp. Hải Phòng",0983419928                              ,Hải Phòng,Gara
Trung Tâm Ô Tô Ngọc Anh,"111 Lý Thường Kiệt, Phường 6, Thành Phố Cà Mau, Cà Mau",0943456794                              ,Cà Mau,Gara
Công ty Cổ phần Đầu tư và Thương mại Nam Auto,"322 Nguyễn Văn Linh, P. Bình Thuận, Quận 7, Tp. Hồ Chí Minh (TPHCM)",0946051991                              ,Tp Hcm,Gara
Công Ty TNHH TM DV SUA Auto,"157-159 161 Đường 45, Phương Tân Quy, Quận 7, Tp. Hồ Chí Minh (TPHCM)",0913628635                              ,Tp Hcm,Gara
Quốc Đạt - Công Ty TNHH Quốc Đạt,"1A Láng Hạ, Q. Ba Đình, Hà Nội",(024) 38563973                                ,Hà Nội,Gara
Garage Ô Tô Phố 24h,"37A Nayder, Phù Đổng, Pleiku, Gia Lai",0789581581                              ,Gia Lai,Gara
Xí Nghiệp Công Nghiệp & Dịch Vụ Ô Tô-Cn,"295 Kinh Dương Vương, P. An Lạc, Q. Bình Tân, Tp. Hồ Chí Minh (TPHCM)",(028) 37523311                                ,Tp Hcm,Gara
Công Ty TNHH Dịch Vụ Vận Tải Trọng Anh,"38B, Đường số 3, Phường Tăng Nhơn Phú B, Quận 9, Tp. Hồ Chí Minh (TPHCM)",0907540550                              ,Tp Hcm,Gara
Công Ty Minh Thành-Bộ Quốc Phòng,"2Bis Nguyễn Thị Minh Khai, P. Đa Kao, Q. 1, Tp. Hồ Chí Minh (TPHCM)",(028) 39102475                                ,Tp Hcm,Gara
Cơ Sở Hưng Ký,"382/31 Nguyễn Thị Minh Khai, P. 5, Q. 3, Tp. Hồ Chí Minh (TPHCM)",(028) 38323293                                ,Tp Hcm,Gara
Thành Hoa - Công Ty TNHH Thương Mại Dịch Vụ Thành Hoa,"1/25 ấp Bình Thuận, X. Thuận Giao, H. Thuận An, Bình Dương",(0274) 3715527                                 ,Bình Dương,Gara
Trường Phúc - Công Ty Cổ Phần Sản Xuất Thương Mại Dịch Vụ Trường Phúc,"109 Cộng Hòa, P. 12, Q. Tân Bình, Tp. Hồ Chí Minh (TPHCM)",(028) 38116882                                ,Tp Hcm,Gara
Long Bảo - Công Ty Cổ Phần Đầu Tư & Thương Mại Long Bảo,"10B Sương Nguyệt ánh, P. Bến Thành, Q. 1, Tp. Hồ Chí Minh (TPHCM)",(028) 39253991                                ,Tp Hcm,Gara
Toàn Lực - Công Ty TNHH Sửa Chữa Ôtô Toàn Lực,"264 Đường Láng, Q. Đống Đa, Hà Nội",(024) 38534983                                ,Hà Nội,Gara
Năm Nghĩa - Công Ty TNHH Thương Mại & Dịch Vụ Năm Nghĩa,"377 Tổ 14, Khu 1,Đại Lộ Bình Dương, P. Phú Hòa, TX. Thủ Dầu Một, Bình Dương",(0274) 3829461                                 ,Bình Dương,Gara
Đại An - Công Ty TNHH Cơ Khí Ô Tô Đại An,"70 Quốc Bảo, TT. Văn Điển, H. Thanh Trì, Hà Nội",(024) 36873915                                ,Hà Nội,Gara
Xưởng Ô Tô Sài Gòn Số 1,"29/19 Phan Văn Hớn, P. Tân Thới Nhất, Q. 12, Tp. Hồ Chí Minh (TPHCM)",(028) 62557766                                ,Tp Hcm,Gara
Phúc Hải Sơn - Công Ty TNHH Phúc Hải Sơn,"Khối Phố 9, P. An Mỹ,Tp. Tam Kỳ, Quảng Nam",(0235) 2210563                                 ,Quảng Nam,Gara
Kim Minh Quang - Công Ty TNHH Kim Minh Quang,"144 Cộng Hòa, P. 12, Q. Tân Bình, Tp. Hồ Chí Minh (TPHCM)",(028) 62936546                                ,Tp Hcm,Gara
Cơ Sở Hai Thanh,"448 An Dương Vương, P. 4, Q. 5, Tp. Hồ Chí Minh (TPHCM)",(028) 38350998                                ,Tp Hcm,Gara
Toàn Tâm - Công Ty Cổ Phần Ô Tô Toàn Tâm,"39A Nguyễn Hữu Cảnh, P. 22, Q. Bình Thạnh, Tp. Hồ Chí Minh (TPHCM)",(028) 35142428                                ,Tp Hcm,Gara
Garage Việt Tiến,"124/9F Ung Văn Khiêm, P. 25, Q. Bình Thạnh, Tp. Hồ Chí Minh (TPHCM)",(028) 38040663                                ,Tp Hcm,Gara
Công Ty CP Goodi,"Số 59 Xuân La, Q. Tây Hồ, Hà Nội",(024) 33505758                                ,Hà Nội,Gara
Doanh Nghiệp Tư Nhân Th.Sơn,"Tổ 16,P. Hòa Thọ Tây, Q. Cẩm Lệ, Tp. Đà Nẵng",(0236) 3670882                                 ,Đà Nẵng,Gara
Vinh Tân - Công Ty TNHH Thương Mại & Dịch Vụ Ô Tô Vinh Tân,"174 Tôn Đức Thắng, Q. Liên Chiểu, Tp. Đà Nẵng",(0236) 3830019                                 ,Đà Nẵng,Gara
Xưởng Ô Tô Sài Gòn Số 1,"29/19 Phan Văn Hớn, P. Tân Thới Nhất, Q. 12, Tp. Hồ Chí Minh (TPHCM)",(028) 62557766                                ,Tp Hcm,Gara
Hợp Tác Xã Yên Viên Sửa Chữa Ô Tô,"61 Hà Huy Tập, Yên Viên, H. Gia Lâm, Hà Nội",(024) 38272409                                ,Hà Nội,Gara
Doanh Nghiệp Tư Nhân Tân Thịnh Vượng,"1624 Quốc Lộ 1A, P. Thới An, Q. 12, Tp. Hồ Chí Minh (TPHCM)",(028) 37173952                                ,Tp Hcm,Gara
Toàn Lực - Công Ty TNHH Sửa Chữa Ôtô Toàn Lực,"264 Đường Láng, Q. Đống Đa, Hà Nội",(024) 38534983                                ,Hà Nội,Gara
Dịch Vụ Tuyết Mai Cho Thuê Xe Du Lịch,"241 Chung Cư Ngô Gia Tự, Lô B, P. 3, Q. 10, Tp. Hồ Chí Minh (TPHCM)",(028) 38398073                                ,Tp Hcm,Gara
Cty Tây Ford Cổ Phần Đầu Tư Thương Mại-Cn Đà Lạt,"10A Nguyễn Công Trứ, P. 8, Tp. Đà Lạt, Lâm Đồng",(0263) 3554090                                 ,Lâm Đồng,Gara
Đông Phong - Công Ty Cổ Phần Ô Tô Đông Phong,"85 Xa Lộ Hà Nội, P. Thảo Điền, Q. 2, Tp. Hồ Chí Minh (TPHCM)",(028) 37446152                                ,Tp Hcm,Gara
Trung Tâm Dịch Vụ Kỹ Thuật Công Đoàn Giáo Dục Hà Nội,"20 Hàn Thuyên, Q. Hai Bà Trưng, Hà Nội",(024) 38254301                                ,Hà Nội,Gara
Cơ Sở Hiệp Thắng,"Tổ 53, Khu Phố 5,Đại Lộ Bình Dương, P. Hiệp Thành, TX. Thủ Dầu Một, Bình Dương",(0274) 3872255                                 ,Bình Dương,Gara
Nhà Máy Cơ khí Cầu Diễn Z157,"P. Cầu Diễn, H. Từ Liêm, Hà Nội",(024) 37644463                                ,Hà Nội,Gara
Cơ Sở Nam Hưng,"76 Đề Thám, P. Cầu Ông Lãnh, Q. 1, Tp. Hồ Chí Minh (TPHCM)",(028) 38369234                                ,Tp Hcm,Gara
Hải Hoàng - Công Ty TNHH Hải Hoàng,"50A Phan Đình Phùng, P. Trần Hưng Đạo, Tp. Quy Nhơn, Bình Định",(0256) 3821006                                 ,Bình Định,Gara
Xưởng Trung Hưng Sửa Chữa Ô Tô,"200 Huỳnh Văn Bánh, P. 12, Q. Phú Nhuận, Tp. Hồ Chí Minh (TPHCM)",(028) 38443581                                ,Tp Hcm,Gara
Cửa Hàng Thành Ký,"125/87 Âu Dương Lân, P. 3, Q. 8, Tp. Hồ Chí Minh (TPHCM)",(028) 38515149                                ,Tp Hcm,Gara
Nhà Máy Ô Tô Hải Phòng,"274 Lạch Tray, P. Lạch Tray, Q. Ngô Quyền, Tp. Hải Phòng",(0225) 3640484                                 ,Hải Phòng,Gara
Công Ty TNHH Minh Khánh Garage Minh Khánh Auto,"KP 4, Phờng Thới Hòa, TX. Bến Cát, Bình Dương",0931240650                              ,Bình Dương,Gara
Đồng Phát - Công Ty Cổ Phần Dịch Vụ Ô Tô Đồng Phát,"479 Nguyễn Tam Trinh, Q. Hoàng Mai, Hà Nội",(024) 38621265                                ,Hà Nội,Gara
Công Ty Phụ Tùng & Tư Vấn Ô Tô,"461 Trần Khát Chân, Q. Hai Bà Trưng, Hà Nội",(024) 36250842                                ,Hà Nội,Gara
Cửa Hàng Tin Cậy,"1083 Đường 3 Tháng 2, P. 6, Q. 11, Tp. Hồ Chí Minh (TPHCM)",(028) 39553826                                ,Tp Hcm,Gara
Doanh Nghiệp Tư Nhân Thành Chiến,"Tổ 18,P. Khuê Trung, Q. Cẩm Lệ, Tp. Đà Nẵng",(0236) 3697361                                 ,Đà Nẵng,Gara
Quảng Độ - Cty Cổ Phần,"153 Yên Phụ, Q. Tây Hồ, Hà Nội",(024) 37191088                                ,Hà Nội,Gara
Doanh Nghiệp Tư Nhân Vinh Phát Thương Mại Dịch Vụ,"25Bis Nguyễn Thị Minh Khai, P. Bến Thành, Q. 1, Tp. Hồ Chí Minh (TPHCM)",(028) 38220997                                ,Tp Hcm,Gara
Cơ Sở Huỳnh Văn Sáu,"977 Hậu Giang, P. 11, Q. 6, Tp. Hồ Chí Minh (TPHCM)",(028) 38750315                                ,Tp Hcm,Gara
Quang Vinh - Công Ty TNHH Thương Mại & Sửa Chữa Ô Tô Quang Vinh,"31N4 Ngõ 58,Phố Triều Khúc, Q. Thanh Xuân, Hà Nội",(024) 36407762                                ,Hà Nội,Gara
Đức Thịnh - Công Ty TNHH Cơ Khí Ô Tô Đức Thịnh,"56 Giải Phóng, Q. Đống Đa, Hà Nội",(024) 36453074                                ,Hà Nội,Gara
Hợp Tác Xã Diên Hồng Thanh Niên Cơ Khí,"207 Lý Thái Tổ, P. Diên Hồng, Tp. Plây Cu, Gia Lai",(0269) 3823039                                 ,Gia Lai,Gara
Công Ty Thanh Xuân Cơ Khí Ô Tô-Xe Máy,"105 Nguyễn Tuân, Q. Thanh Xuân, Hà Nội",(024) 38587453                                ,Hà Nội,Gara
Tư Thuận - Công Ty TNHH Tư Thuận,"7/1 Thành Thái, P. 14, Q. 10, Tp. Hồ Chí Minh (TPHCM)",(028) 38638088                                ,Tp Hcm,Gara
Tân Đức - Công Ty TNHH Công Nghệ Tân Đức,"11 Lô 2A,Trung Yên, Q. Cầu Giấy, Hà Nội",(024) 37832581                                ,Hà Nội,Gara
Đức Cường - Công Ty TNHH Đức Cường,"Tổ 7, Nguyễn Du Nối Dài,P. Tân Thạnh, Tp. Tam Kỳ, Quảng Nam",(0235) 3811092                                 ,Quảng Nam,Gara
Cửa Hàng Thành Lư,"1/135 Đại Lộ Bình Dương, X. Thuận Giao, H. Thuận An, Bình Dương",(0274) 3823241                                 ,Bình Dương,Gara
Cơ Sở Xuân Lập Sửa Chữa Ô Tô,"108/1B Điện Biên Phủ, P. 17, Q. Bình Thạnh, Tp. Hồ Chí Minh (TPHCM)",(028) 38992389                                ,Tp Hcm,Gara
Tân Trọng Nghĩa - Công Ty TNHH Thương Mại Dịch Vụ Tân Trọng Nghĩa,"150/8 Khu 6, P. Đông Hưng Thuận, Q. 12, Tp. Hồ Chí Minh (TPHCM)",(028) 37177109                                ,Tp Hcm,Gara
Cửa Hàng Công Thắng Điện,"101 Nơ Trang Long, P. 11, Q. Bình Thạnh, Tp. Hồ Chí Minh (TPHCM)",(028) 38060939                                ,Tp Hcm,Gara
Garage Minh Hồng,"13/8 Quốc Lộ 1A, ấp 3, X. Tân Quý Tây, H. Bình Chánh, Tp. Hồ Chí Minh (TPHCM)",(028) 35379230                                ,Tp Hcm,Gara
Xí Nghiệp Sửa Chữa Ô Tô Bưu Điện,"Yên Viên, H. Gia Lâm, Hà Nội",(024) 38780362                                ,Hà Nội,Gara
Xưởng Sửa Chữa Ô Tô Vũng Tàu Công Xưởng-Cty CP Nhật Nhật Tân,"147 Trương Công Định, P. 7, Tp. Vũng Tàu, Bà Rịa-Vũng Tàu",(0254) 3858431                                 ,Bà Rịa-Vũng Tàu,Gara
Phúc Anh - Công Ty TNHH Thương Mại Dịch Vụ & Du Lịch Phúc Anh,"14 Đường 2,Cư Xá Lữ Gia, P. 15, Q. 11, Tp. Hồ Chí Minh (TPHCM)",(028) 38661943                                ,Tp Hcm,Gara
Thành Hoa - Công Ty TNHH Thương Mại Dịch Vụ Thành Hoa,"1/25 ấp Bình Thuận, X. Thuận Giao, H. Thuận An, Bình Dương",(0274) 3715527                                 ,Bình Dương,Gara
Doanh Nghiệp Tư Nhân Thuận Hòa,"74A Quốc Lộ 15, P. Long Bình, Tp. Biên Hòa, Đồng Nai",(0251) 3991688                                 ,Đồng Nai,Gara
Garage Việt Tiến,"124/9F Ung Văn Khiêm, P. 25, Q. Bình Thạnh, Tp. Hồ Chí Minh (TPHCM)",(028) 38040663                                ,Tp Hcm,Gara
Toyota Đông Sài Gòn - Công Ty Cổ Phần Đại Lý Toyota Việt Nam Toyota Đông Sài Gòn,"507 Xa Lộ Hà Nội, P. An Phú, Q. 2, Tp. Hồ Chí Minh (TPHCM)",(028) 38989261                                ,Tp Hcm,Gara
Công Ty Cổ Phần Đầu Tư & Công Nghệ Ô Tô Việt,"316 Lê Trọng Tấn, Q. Hoàng Mai, Hà Nội",(024) 36403777                                ,Hà Nội,Gara
Trường Thành - Công Ty TNHH Thương Mại Dịch Vụ Ô Tô Trường Thành,"D6/34 Khu Phố 4, TT. Tân Túc, H. Bình Chánh, Tp. Hồ Chí Minh (TPHCM)",(028) 37602117                                ,Tp Hcm,Gara
Garage Hồng Đức,"490D Điện Biên Phủ, P. 21, Q. Bình Thạnh, Tp. Hồ Chí Minh (TPHCM)",(028) 38999432                                ,Tp Hcm,Gara
Toyota Đông Sài Gòn - Công Ty Cổ Phần Đại Lý Toyota Việt Nam Toyota Đông Sài Gòn,"507 Xa Lộ Hà Nội, P. An Phú, Q. 2, Tp. Hồ Chí Minh (TPHCM)",(028) 38989261                                ,Tp Hcm,Gara
Công Ty TNHH Một Thành Viên Thương Mại Ô Tô Vũ Hùng,"144 Nguyễn Cửu Đàm, P. Tân Sơn Nhì, Q. Tân Phú, Tp. Hồ Chí Minh (TPHCM)",0984155386                              ,Tp Hcm,Gara
Hải Hoàng - Công Ty TNHH Hải Hoàng,"50A Phan Đình Phùng, P. Trần Hưng Đạo, Tp. Quy Nhơn, Bình Định",(0256) 3821006                                 ,Bình Định,Gara
Công Ty Cổ Phần 3/2 Đắc Lắc,"54 Nguyễn Chí Thanh, P. Tân An, Tp. Buôn Ma Thuột, Đắk Lắk",(0262) 3876384                                 ,Đắk Lắk,Gara
Xí Nghiệp Hòa Bình-Việt Nam Liên Doanh Sản Xuất Ô Tô,"22 Cộng Hòa, P. 4, Q. Tân Bình, Tp. Hồ Chí Minh (TPHCM)",(028) 38454285                                ,Tp Hcm,Gara
Kim Vạn Hưng - Công Ty TNHH Một Thành Viên Kim Vạn Hưng,"Tổ 10, Khu Phố Đông Nhì,Đại Lộ Bình Dương, TT. Lái Thiêu, H. Thuận An, Bình Dương",(0274) 3762036                                 ,Bình Dương,Gara
Cơ Sở Nghệ Toàn,"991 Hậu Giang, P. 11, Q. 6, Tp. Hồ Chí Minh (TPHCM)",(028) 38754413                                ,Tp Hcm,Gara
Cửa Hàng Tiến Dũng,"D3/38A ấp 4, X. Bình Chánh, H. Bình Chánh, Tp. Hồ Chí Minh (TPHCM)",(028) 37605267                                ,Tp Hcm,Gara
Danimex Denmark - Vpđd Công ty TNHH Danimex Denmark,"Phòng 903, Tòa Nhà Việt Âu, 205 Giảng Võ, Q. Ba Đình, Hà Nội",(024) 35122406                                ,Hà Nội,Gara
KAT Việt Nam - Công Ty Cổ Phần KAT Việt Nam,"Khu Tập Thể Cty 49 Bộ Tư Lệnh Công Binh, Xã Mễ Trì,H. Từ Liêm, Hà Nội",(024) 38394819                                ,Hà Nội,Gara
Xưởng Trung Hưng Sửa Chữa Ô Tô,"200 Huỳnh Văn Bánh, P. 12, Q. Phú Nhuận, Tp. Hồ Chí Minh (TPHCM)",(028) 38443581                                ,Tp Hcm,Gara
Xưởng Cửu Long Sửa Chữa Ô Tô,"504 Kinh Dương Vương, P. An Lạc A, Q. Bình Tân, Tp. Hồ Chí Minh (TPHCM)",(028) 38750016                                ,Tp Hcm,Gara
Hoàng Diệu - Công Ty TNHH Thương Mại Dịch Vụ & Đầu Tư Hoàng Diệu,"306 Phạm Văn Đồng, Tp. Plây Cu, Gia Lai",(0269) 3868868                                 ,Gia Lai,Gara
Doanh Nghiệp Tư Nhân Thành Chiến,"Tổ 18,P. Khuê Trung, Q. Cẩm Lệ, Tp. Đà Nẵng",(0236) 3697361                                 ,Đà Nẵng,Gara
Trung Thượng - Cty Cổ Phần Sửa Chữa Ô Tô,"80 Tôn Thất Tùng, Q. Đống Đa, Hà Nội",(024) 38524765                                ,Hà Nội,Gara
Nguyễn Minh - Công Ty TNHH Thương Mại Dịch Vụ Nguyễn Minh,"143/4A Ung Văn Khiêm, P. 25, Q. Bình Thạnh, Tp. Hồ Chí Minh (TPHCM)",(028) 35111216                                ,Tp Hcm,Gara
Cơ Sở Hưng Ký,"382/31 Nguyễn Thị Minh Khai, P. 5, Q. 3, Tp. Hồ Chí Minh (TPHCM)",(028) 38323293                                ,Tp Hcm,Gara
Xí Nghiệp Sửa Chữa Ô Tô Bưu Điện,"Yên Viên, H. Gia Lâm, Hà Nội",(024) 38780362                                ,Hà Nội,Gara
Doanh Nghiệp Tư Nhân Hữu Phú,"202/2 Nguyễn Xí, P. 26, Q. Bình Thạnh, Tp. Hồ Chí Minh (TPHCM)",(028) 38984899                                ,Tp Hcm,Gara
Năm Nghĩa - Công Ty TNHH Thương Mại & Dịch Vụ Năm Nghĩa,"377 Tổ 14, Khu 1,Đại Lộ Bình Dương, P. Phú Hòa, TX. Thủ Dầu Một, Bình Dương",(0274) 3829461                                 ,Bình Dương,Gara
Xí Nghiệp Cơ Khí Sửa Chữa,"Khu Định Cư Định Công, Giải Phóng, P. Phương Liệt, Q. Thanh Xuân, Hà Nội",(024) 38641976                                ,Hà Nội,Gara
Đức Thanh - Công Ty TNHH Đức Thanh,"131 Thái Thịnh, Q. Đống Đa, Hà Nội",(024) 38560805                                ,Hà Nội,Gara
Cơ Sở Xuân Lập Sửa Chữa Ô Tô,"108/1B Điện Biên Phủ, P. 17, Q. Bình Thạnh, Tp. Hồ Chí Minh (TPHCM)",(028) 38992389                                ,Tp Hcm,Gara
Cơ Sở Thanh Bình,"233 Trần Phú, P. 9, Q. 5, Tp. Hồ Chí Minh (TPHCM)",(028) 38356373                                ,Tp Hcm,Gara
Nhà Máy Ô Tô Hải Phòng,"274 Lạch Tray, P. Lạch Tray, Q. Ngô Quyền, Tp. Hải Phòng",(0225) 3640484                                 ,Hải Phòng,Gara
Hồng Đức - Công Ty TNHH Hồng Đức,"456 Nguyễn Văn Luông, P. 12, Q. 6, Tp. Hồ Chí Minh (TPHCM)",(028) 37518681                                ,Tp Hcm,Gara
Hoàng Xương - Công Ty TNHH Thương Mại Dịch Vụ Hoàng Xương,"2250/20 Khu Phố 1, P. An Phú Đông, Q. 12, Tp. Hồ Chí Minh (TPHCM)",(028) 37197498                                ,Tp Hcm,Gara
Công Ty Thanh Xuân Cơ Khí Ô Tô-Xe Máy,"105 Nguyễn Tuân, Q. Thanh Xuân, Hà Nội",(024) 38587453                                ,Hà Nội,Gara
Công Ty TNHH Thương Mại Dịch Vụ Việt Phú Cường,"787 KHP3, QL13, P. Hiệp Bình Phước, Q. Thủ Đức, Tp. Hồ Chí Minh (TPHCM)",(028) 37273363                                ,Tp Hcm,Gara
Xưởng Thành Công Sữa Chữa Ô Tô,"59 Nguyễn Văn Quỳ, P. Tân Thuận Đông, Q. 7, Tp. Hồ Chí Minh (TPHCM)",(028) 38733335                                ,Tp Hcm,Gara
Ngọc Phú - Công Ty TNHH Một Thành Viên Thương Mại Dịch Vụ Du Lịch & Vận Tải Ngọc Phú,"207/1 Phan Văn Trị, P. 14, Q. Bình Thạnh, Tp. Hồ Chí Minh (TPHCM)",(028) 38433834                                ,Tp Hcm,Gara
Hợp Tác Xã Bình Minh Sữa Chữa Ô Tô Cơ Giới,"163 Ung Văn Khiêm, P. 25, Q. Bình Thạnh, Tp. Hồ Chí Minh (TPHCM)",(028) 38996631                                ,Tp Hcm,Gara
Sơn Hà - Công Ty Cổ Phần Ô Tô Sơn Hà,"150 Quốc Lộ 1A, P. Thạnh Lộc, Q. 12, Tp. Hồ Chí Minh (TPHCM)",(028) 38856465                                ,Tp Hcm,Gara
Kiều Mây - Công Ty TNHH Thương Mại Kiều Mây,"164 Nguyễn Văn Cừ, Q. Long Biên, Hà Nội",(024) 38720241                                ,Hà Nội,Gara
Hồng An - Công Ty TNHH Sản Xuất Thương Mại & Dịch Vụ Hồng An,"Tôn Đức Thắng, Tổ 6, Khối 6, P. Tân An, Tp. Buôn Ma Thuột, Đắk Lắk",(0262) 3954104                                 ,Đắk Lắk,Gara
Toàn Tâm - Công Ty Cổ Phần Ô Tô Toàn Tâm,"39A Nguyễn Hữu Cảnh, P. 22, Q. Bình Thạnh, Tp. Hồ Chí Minh (TPHCM)",(028) 35142428                                ,Tp Hcm,Gara
Doanh Nghiệp Tư Nhân Đại Việt Tiến,"255B Đào Duy Anh, P. 9, Q. Phú Nhuận, Tp. Hồ Chí Minh (TPHCM)",(028) 38479489                                ,Tp Hcm,Gara
Doanh Nghiệp Tư Nhân Vinh Phát Thương Mại Dịch Vụ,"25Bis Nguyễn Thị Minh Khai, P. Bến Thành, Q. 1, Tp. Hồ Chí Minh (TPHCM)",(028) 38220997                                ,Tp Hcm,Gara
Doanh Nghiệp Tư Nhân Phước Long Sửa Chữa Ô Tô & Cơ Giới,"284 Xa Lộ Hà Nội, P. Phước Long A, Q. 9, Tp. Hồ Chí Minh (TPHCM)",(028) 37313634                                ,Tp Hcm,Gara
Cơ Sở Hiệp Tín,"196F Trần Bình Trọng, P. 4, Q. 5, Tp. Hồ Chí Minh (TPHCM)",(028) 38352054                                ,Tp Hcm,Gara
Năm Tuấn - Công Ty Cổ Phần Dịch Vụ Ô Tô Năm Tuấn,"18ABis Hoàng Hoa Thám, P. 12, Q. Tân Bình, Tp. Hồ Chí Minh (TPHCM)",(028) 22450063                                ,Tp Hcm,Gara
Doanh Nghiệp Tư Nhân Nguyễn Văn Điệt,"300 Đống Đa, Q. Hải Châu, Tp. Đà Nẵng",(0236) 3820193                                 ,Đà Nẵng,Gara
Hợp Tác Xã Tân Phú Cơ Khí,"74 Khu Phố 3,Tân Lập 1, P. Hiệp Phú, Q. 9, Tp. Hồ Chí Minh (TPHCM)",(028) 54090372                                ,Tp Hcm,Gara
Phùng Nguyễn - Công Ty TNHH Kỹ Thuật Phùng Nguyễn,"300 Điện Biên Phủ, P. 22, Q. Bình Thạnh, Tp. Hồ Chí Minh (TPHCM)",(028) 62945806                                ,Tp Hcm,Gara
Hợp Tác Xã Bình Minh Sữa Chữa Ô Tô Cơ Giới,"163 Ung Văn Khiêm, P. 25, Q. Bình Thạnh, Tp. Hồ Chí Minh (TPHCM)",(028) 38996631                                ,Tp Hcm,Gara
Hồng An - Công Ty TNHH Sản Xuất Thương Mại & Dịch Vụ Hồng An,"Tôn Đức Thắng, Tổ 6, Khối 6, P. Tân An, Tp. Buôn Ma Thuột, Đắk Lắk",(0262) 3954104                                 ,Đắk Lắk,Gara
Phú Khang - Công Ty Cổ Phần Ô Tô Phú Khang,"195/10E Điện Biên Phủ, P. 15, Q. Bình Thạnh, Tp. Hồ Chí Minh (TPHCM)",(028) 35124323                                ,Tp Hcm,Gara
Cơ Sở Đoàn Kết,"13 Nguyễn Xí, P. 26, Q. Bình Thạnh, Tp. Hồ Chí Minh (TPHCM)",(028) 38997599                                ,Tp Hcm,Gara
Cơ Sở Nghệ Quang Tiện Gia Công,"480-482 An Dương Vương, P. 4, Q. 5, Tp. Hồ Chí Minh (TPHCM)",(028) 38358342                                ,Tp Hcm,Gara
Hồng Đức - Công Ty TNHH Hồng Đức,"456 Nguyễn Văn Luông, P. 12, Q. 6, Tp. Hồ Chí Minh (TPHCM)",(028) 37518681                                ,Tp Hcm,Gara
Âu Mỹ - Công Ty Cổ Phần Nội Thất Ô Tô Âu Mỹ,"191 Nam Kỳ Khởi Nghĩa, P. 7, Q. 3, Tp. Hồ Chí Minh (TPHCM)",(028) 39322801                                ,Tp Hcm,Gara
Cơ Sở Mười Phải Sửa Chửa Ô Tô,"87 Võ Văn Ngân, P. Linh Chiểu, Q. Thủ Đức, Tp. Hồ Chí Minh (TPHCM)",(028) 38963572                                ,Tp Hcm,Gara
Sinh Nam - Công Ty TNHH Dịch Vụ Vận Tải Sinh Nam,"394/54 Khu Phố 1,Quốc Lộ 15, P. Trung Dũng, Tp. Biên Hòa, Đồng Nai",(0251) 3824389                                 ,Đồng Nai,Gara
Xưởng Sửa Chữa Ô Tô Quốc Toàn,"Tổ 32,P. Minh Khai, TX. Hà Giang, Hà Giang",(0219) 3866061                                 ,Hà Giang,Gara
Hà Dung - Công Ty TNHH Hà Dung,"614A Hoàng Hoa Thám, Q. Ba Đình, Hà Nội",(024) 37611432                                ,Hà Nội,Gara
Trung Tâm Văn Hiền Bảo Trì Ôtô,"13/5L Đường 30 Tháng 4, P. Phú Hòa, TX. Thủ Dầu Một, Bình Dương",(0274) 3898198                                 ,Bình Dương,Gara
Bảo Long - Công Ty TNHH Phát Triển Kinh Tế Kỹ Thuật Bảo Long,"Lô 73-74/B6 Khu Dân Cư Thanh Lộc Đán,Q. Thanh Khê, Tp. Đà Nẵng",(0236) 3757463                                 ,Đà Nẵng,Gara
Công Ty Minh Thành-Bộ Quốc Phòng,"2Bis Nguyễn Thị Minh Khai, P. Đa Kao, Q. 1, Tp. Hồ Chí Minh (TPHCM)",(028) 39102475                                ,Tp Hcm,Gara
Hợp Tác Xã Sửa Chữa Xe Hơi 23/9,"11 Tân Hóa, P. 14, Q. 6, Tp. Hồ Chí Minh (TPHCM)",(028) 39126053                                ,Tp Hcm,Gara
Cty Tây Ford Cổ Phần Đầu Tư Thương Mại-Cn Đà Lạt,"10A Nguyễn Công Trứ, P. 8, Tp. Đà Lạt, Lâm Đồng",(0263) 3554090                                 ,Lâm Đồng,Gara
Xí Nghiệp Hòa Bình-Việt Nam Liên Doanh Sản Xuất Ô Tô,"22 Cộng Hòa, P. 4, Q. Tân Bình, Tp. Hồ Chí Minh (TPHCM)",(028) 38454285                                ,Tp Hcm,Gara
Đức Thanh - Công Ty TNHH Đức Thanh,"131 Thái Thịnh, Q. Đống Đa, Hà Nội",(024) 38560805                                ,Hà Nội,Gara
Xí Nghiệp Cơ Khí Sửa Chữa,"Khu Định Cư Định Công, Giải Phóng, P. Phương Liệt, Q. Thanh Xuân, Hà Nội",(024) 38641976                                ,Hà Nội,Gara
Doanh Nghiệp Tư Nhân 18 Tháng 4,"27 Tây Sơn, P. Quang Trung, Tp. Quy Nhơn, Bình Định",(0256) 3823280                                 ,Bình Định,Gara
Công Ty Cổ Phần Cơ Khí Ô Tô Cần Thơ,"102 Cách Mạng Tháng Tám, P. Cái Khế, Q. Ninh Kiều, Tp. Cần Thơ",(0292) 3827714                                 ,Cần Thơ,Gara
Công Ty Cổ Phần Thương Mại Ô - tô Việt Hàn,"KM14, Ngọc Hồi, H. Thanh Trì, Hà Nội",0934456687                              ,Hà Nội,Gara
Xưởng Cửu Long Sửa Chữa Ô Tô,"504 Kinh Dương Vương, P. An Lạc A, Q. Bình Tân, Tp. Hồ Chí Minh (TPHCM)",(028) 38750016                                ,Tp Hcm,Gara
Cơ Sở Thanh Hiền Ô Tô,"75 Bà Hom, P. 13, Q. 6, Tp. Hồ Chí Minh (TPHCM)",(028) 38764069                                ,Tp Hcm,Gara
Tổ Hợp Tác Thắng Lợi Sửa Chữa Cơ Khí,"566 Nguyễn Văn Cừ, Q. Long Biên, Hà Nội",(024) 38274856                                ,Hà Nội,Gara
Trung Thượng - Cty Cổ Phần Sửa Chữa Ô Tô,"80 Tôn Thất Tùng, Q. Đống Đa, Hà Nội",(024) 38524765                                ,Hà Nội,Gara
Tân Trọng Nghĩa - Công Ty TNHH Thương Mại Dịch Vụ Tân Trọng Nghĩa,"150/8 Khu 6, P. Đông Hưng Thuận, Q. 12, Tp. Hồ Chí Minh (TPHCM)",(028) 37177109                                ,Tp Hcm,Gara
Minh Nguyệt - Công Ty TNHH Ô Tô Minh Nguyệt,"297A Ung Văn Khiêm, P. 25, Q. Bình Thạnh, Tp. Hồ Chí Minh (TPHCM)",(028) 35127269                                ,Tp Hcm,Gara
Cơ Sở Hoàng Thành,"ấp Hưng Nhơn,Quốc Lộ 1A, X. Hưng Lộc, H. Thống Nhất, Đồng Nai",(0251) 3770997                                 ,Đồng Nai,Gara
Doanh Nghiệp Tư Nhân Thuận Hòa,"74A Quốc Lộ 15, P. Long Bình, Tp. Biên Hòa, Đồng Nai",(0251) 3991688                                 ,Đồng Nai,Gara
Công Ty Cổ Phần Cơ Khí Giao Thông Vận Tải Đồng Nai,"Khu Công Nghiệp Biên Hòa 2, 24 Đường 2A, Tp. Biên Hòa, Đồng Nai",(0251) 3891353                                 ,Đồng Nai,Gara
Garage Trường Thịnh,"14H Phan Văn Trị, P. 7, Q. Gò Vấp, Tp. Hồ Chí Minh (TPHCM)",(028) 35880794                                ,Tp Hcm,Gara
Công Ty Cổ Phần Cơ Khí Thương Mại & Vận Tải Số 2,"Tổ 17,P. Sài Đồng, Q. Long Biên, Hà Nội",(024) 38750526                                ,Hà Nội,Gara
Hoàng Diệu - Công Ty TNHH Thương Mại Dịch Vụ & Đầu Tư Hoàng Diệu,"306 Phạm Văn Đồng, Tp. Plây Cu, Gia Lai",(0269) 3868868                                 ,Gia Lai,Gara
Doanh Nghiệp Tư Nhân Thuận Lợi,"Lô D6,Phan Đăng Lưu, Q. Hải Châu, Tp. Đà Nẵng",(0236) 3643753                                 ,Đà Nẵng,Gara
Cơ Sở Thành Công Sửa Chữa Ô Tô,"342 Nơ Trang Long, P. 13, Q. Bình Thạnh, Tp. Hồ Chí Minh (TPHCM)",(028) 38055632                                ,Tp Hcm,Gara
Doanh Nghiệp Tư Nhân Trần Ngọc ấn,"1A ấp 3,Nguyễn Bình, X. Phú Xuân, H. Nhà Bè, Tp. Hồ Chí Minh (TPHCM)",(028) 37827738                                ,Tp Hcm,Gara
Kim Vạn Hưng - Công Ty TNHH Một Thành Viên Kim Vạn Hưng,"Tổ 10, Khu Phố Đông Nhì,Đại Lộ Bình Dương, TT. Lái Thiêu, H. Thuận An, Bình Dương",(0274) 3762036                                 ,Bình Dương,Gara
Chế Trường Sơn - Công Ty TNHH Một Thành Viên Chế Trường Sơn,"74/47 Hẻm 249,Tân Kỳ Tân Quý, P. Tân Sơn Nhì, Q. Tân Phú, Tp. Hồ Chí Minh (TPHCM)",(028) 38120239                                ,Tp Hcm,Gara
Cty Trường Hải Cổ Phần Ô Tô-Cn Đà Nẵng,"405 P. Hòa Minh,Tôn Đức Thắng, Q. Liên Chiểu, Tp. Đà Nẵng",(0236) 3764495                                 ,Đà Nẵng,Gara
Trường Phát - Công Ty Cổ Phần Dịch Vụ & Thương Mại Trường Phát,"11 Ngõ 538,Đường Láng, Q. Đống Đa, Hà Nội",(024) 37763161                                ,Hà Nội,Gara
Garage Hai Chánh,"1056 Hậu Giang, P. 12, Q. 6, Tp. Hồ Chí Minh (TPHCM)",(028) 38750430                                ,Tp Hcm,Gara
Doanh Nghiệp Tư Nhân Vinh Quang Ô Tô,"718Bis Kinh Dương Vương, P. 13, Q. 6, Tp. Hồ Chí Minh (TPHCM)",(028) 37516320                                ,Tp Hcm,Gara
Duy Thành - Công Ty TNHH Thương Mại & Dịch Vụ Duy Thành,"38 Nhà A10, Tập Thể 8/3,Quỳnh Mai, P. Quỳnh Lôi, Q. Hai Bà Trưng, Hà Nội",(024) 36332759                                ,Hà Nội,Gara
LSH Việt Nam - Công Ty TNHH LSH Việt Nam,"Phòng 616, Tầng 6, Tòa Nhà Mê Linh Point2 Ngô Đức Kế, P. Bến Nghé, Q. 1, Tp. Hồ Chí Minh (TPHCM)",(028) 38237850                                ,Tp Hcm,Gara
Hồng Đức - Công Ty TNHH Hồng Đức,"456 Nguyễn Văn Luông, P. 12, Q. 6, Tp. Hồ Chí Minh (TPHCM)",(028) 37518681                                ,Tp Hcm,Gara
Hà Dung - Công Ty TNHH Hà Dung,"614A Hoàng Hoa Thám, Q. Ba Đình, Hà Nội",(024) 37611432                                ,Hà Nội,Gara
Ngọc Phú - Công Ty TNHH Một Thành Viên Thương Mại Dịch Vụ Du Lịch & Vận Tải Ngọc Phú,"207/1 Phan Văn Trị, P. 14, Q. Bình Thạnh, Tp. Hồ Chí Minh (TPHCM)",(028) 38433834                                ,Tp Hcm,Gara
Công Ty TNHH Thương Mại Và Dịch Vụ Thiên Trường An,"KCN Lai Xá, Kim Chung, Hòa Đức, Hà Nội",(024) 33662566                                ,Hà Nội,Gara
Liên Diệp - Công Ty TNHH Liên Diệp,"575 Kinh Dương Vương, P. 6, Q. 12, Tp. Hồ Chí Minh (TPHCM)",(028) 38777231                                ,Tp Hcm,Gara
Doanh Nghiệp Tư Nhân Trần Ngọc ấn,"1A ấp 3,Nguyễn Bình, X. Phú Xuân, H. Nhà Bè, Tp. Hồ Chí Minh (TPHCM)",(028) 37827738                                ,Tp Hcm,Gara
Nam Sơn - Công Ty Cổ Phần Dịch Vụ & Thương Mại Nam Sơn,"Phòng 108, TầngB19, Khu Tập Thể Kim Liên,Kim Liên, Q. Đống Đa, Hà Nội",(024) 38526243                                ,Hà Nội,Gara
Long Hải - Công Ty Cổ Phần Thương Mại Dịch Vụ Long Hải,"109 Trường Chinh, Q. Đống Đa, Hà Nội",(024) 38688388                                ,Hà Nội,Gara
Hoàng Xương - Công Ty TNHH Thương Mại Dịch Vụ Hoàng Xương,"2250/20 Khu Phố 1, P. An Phú Đông, Q. 12, Tp. Hồ Chí Minh (TPHCM)",(028) 37197498                                ,Tp Hcm,Gara
Tân Đức - Công Ty TNHH Công Nghệ Tân Đức,"11 Lô 2A,Trung Yên, Q. Cầu Giấy, Hà Nội",(024) 37832581                                ,Hà Nội,Gara
N-Huynh - Công Ty TNHH N-Huynh,"562 Đường 2 Tháng 9, Q. Hải Châu, Tp. Đà Nẵng",(0236) 3612950                                 ,Đà Nẵng,Gara
Cơ Sở Nghệ Toàn,"991 Hậu Giang, P. 11, Q. 6, Tp. Hồ Chí Minh (TPHCM)",(028) 38754413                                ,Tp Hcm,Gara
Hải Thanh Thanh - Công Ty TNHH Hải Thanh Thanh,"Km7 Xa Lộ Hà Nội, P. Trường Thọ, Q. Thủ Đức, Tp. Hồ Chí Minh (TPHCM)",(028) 38962513                                ,Tp Hcm,Gara
Toàn Lực - Công Ty TNHH Sửa Chữa Ôtô Toàn Lực,"264 Đường Láng, Q. Đống Đa, Hà Nội",(024) 38534983                                ,Hà Nội,Gara
A.M.C - Công Ty Cổ Phần Đầu Tư & Thương Mại-Phòng Trưng Bày 1 A.M.C,"130 Hàm Nghi, P. Bến Thành, Q. 1, Tp. Hồ Chí Minh (TPHCM)",(028) 38217971                                ,Tp Hcm,Gara
Năm Nghĩa - Công Ty TNHH Thương Mại & Dịch Vụ Năm Nghĩa,"377 Tổ 14, Khu 1,Đại Lộ Bình Dương, P. Phú Hòa, TX. Thủ Dầu Một, Bình Dương",(0274) 3829461                                 ,Bình Dương,Gara
Xí Nghiệp Cơ Khí Sửa Chữa,"Khu Định Cư Định Công, Giải Phóng, P. Phương Liệt, Q. Thanh Xuân, Hà Nội",(024) 38641976                                ,Hà Nội,Gara
Mai Linh - Công Ty Cổ Phần Sản Xuất & Thương Mại Mai Linh,"74Bis Điện Biên Phủ, P. 17, Q. Bình Thạnh, Tp. Hồ Chí Minh (TPHCM)",(028) 38990888                                ,Tp Hcm,Gara
Tân Mỹ Hoa - Công Ty TNHH Thương Mại & Sản Xuất Tân Mỹ Hoa,"4/5 Hậu Giang, P. 4, Q. Tân Bình, Tp. Hồ Chí Minh (TPHCM)",(028) 38118608                                ,Tp Hcm,Gara
Doanh Nghiệp Tư Nhân Đỗ Phú Hùng,"68/8 Lê Đình Lý, Q. Thanh Khê, Tp. Đà Nẵng",(0236) 3615745                                 ,Đà Nẵng,Gara
Tạo Thành - Công Ty TNHH Tạo Thành,"540 Nguyễn Trãi, P. Thanh Xuân Trung, Q. Thanh Xuân, Hà Nội",(024) 38541405                                ,Hà Nội,Gara
Doanh Nghiệp Tư Nhân Hữu Phú,"202/2 Nguyễn Xí, P. 26, Q. Bình Thạnh, Tp. Hồ Chí Minh (TPHCM)",(028) 38984899                                ,Tp Hcm,Gara
Cơ Sở Mười Phải Sửa Chửa Ô Tô,"87 Võ Văn Ngân, P. Linh Chiểu, Q. Thủ Đức, Tp. Hồ Chí Minh (TPHCM)",(028) 38963572                                ,Tp Hcm,Gara
Toàn Tâm - Công Ty Cổ Phần Ô Tô Toàn Tâm,"39A Nguyễn Hữu Cảnh, P. 22, Q. Bình Thạnh, Tp. Hồ Chí Minh (TPHCM)",(028) 35142428                                ,Tp Hcm,Gara
Doanh Nghiệp Tư Nhân Thuận Hòa,"74A Quốc Lộ 15, P. Long Bình, Tp. Biên Hòa, Đồng Nai",(0251) 3991688                                 ,Đồng Nai,Gara
Trung Tâm Văn Hiền Bảo Trì Ôtô,"13/5L Đường 30 Tháng 4, P. Phú Hòa, TX. Thủ Dầu Một, Bình Dương",(0274) 3898198                                 ,Bình Dương,Gara
Cơ Sở Tấn Phát Sửa Chữa Ô Tô,"260 Bến Chương Dương, P. Cô Giang, Q. 1, Tp. Hồ Chí Minh (TPHCM)",(028) 38367538                                ,Tp Hcm,Gara
Hợp Tác Xã Hiệp Lực Sửa Chữa Cơ Khí,"161 Lê Hồng Phong, P. 3, Q. 5, Tp. Hồ Chí Minh (TPHCM)",(028) 39234497                                ,Tp Hcm,Gara
Doanh Nghiệp Tư Nhân Tân Thịnh Vượng,"1624 Quốc Lộ 1A, P. Thới An, Q. 12, Tp. Hồ Chí Minh (TPHCM)",(028) 37173952                                ,Tp Hcm,Gara
Cơ Sở Xuân Lập Sửa Chữa Ô Tô,"108/1B Điện Biên Phủ, P. 17, Q. Bình Thạnh, Tp. Hồ Chí Minh (TPHCM)",(028) 38992389                                ,Tp Hcm,Gara
Kim Vạn Hưng - Công Ty TNHH Một Thành Viên Kim Vạn Hưng,"Tổ 10, Khu Phố Đông Nhì,Đại Lộ Bình Dương, TT. Lái Thiêu, H. Thuận An, Bình Dương",(0274) 3762036                                 ,Bình Dương,Gara
Định Quốc - Công Ty TNHH Dịch Vụ Cơ Khí Định Quốc,"211 Nguyễn Xí, P. 13, Q. Bình Thạnh, Tp. Hồ Chí Minh (TPHCM)",(028) 22163390                                ,Tp Hcm,Gara
Doanh Nghiệp Tư Nhân Tao Ngộ Cơ Khí Sữa Chữa Ô Tô,"1759 Quốc Lộ 1A, P. Tân Thới Hiệp, Q. 12, Tp. Hồ Chí Minh (TPHCM)",(028) 62952068                                ,Tp Hcm,Gara
Tây Ford An Giang - Công Ty Cổ Phần Tây Ford An Giang,"42A Quốc Lộ 91, P. Mỹ Thới, Tp. Long Xuyên, An Giang",(0296) 3933151                                 ,An Giang,Gara
Hải Long - Công Ty TNHH Hải Long,"42 Ngô Quyền, TX. Vĩnh Yên, Vĩnh Phúc",(0211) 3861088                                 ,Vĩnh Phúc,Gara
Doanh Nghiệp Tư Nhân Thuận Lợi,"Lô D6,Phan Đăng Lưu, Q. Hải Châu, Tp. Đà Nẵng",(0236) 3643753                                 ,Đà Nẵng,Gara
Công Ty Cổ Phần Thương Mại Ô - tô Việt Hàn,"KM14, Ngọc Hồi, H. Thanh Trì, Hà Nội",0934456687                              ,Hà Nội,Gara
Công Ty CP Goodi,"Số 59 Xuân La, Q. Tây Hồ, Hà Nội",(024) 33505758                                ,Hà Nội,Gara
Văn Phòng Đại Diện - Công Ty Mê Kông Auto,"120 Trần Hưng Đạo, P. Phạm Ngũ Lão, Q. 1, Tp. Hồ Chí Minh (TPHCM)",(028) 38371656                                ,Tp Hcm,Gara
Doanh Nghiệp Tư Nhân Phương Mai Thương Mại Dịch Vụ Du Lịch,"821 Hưng Phú, P. 9, Q. 8, Tp. Hồ Chí Minh (TPHCM)",(028) 38595367                                ,Tp Hcm,Gara
Hoàng Mai - Công Ty Cổ Phần Dịch Vụ Sửa Chữa Ô Tô Hoàng Mai,"Tổ 1,P. Yên Sở, Q. Hoàng Mai, Hà Nội",(024) 36452773                                ,Hà Nội,Gara
Cửa Hàng Công Thắng Điện,"101 Nơ Trang Long, P. 11, Q. Bình Thạnh, Tp. Hồ Chí Minh (TPHCM)",(028) 38060939                                ,Tp Hcm,Gara
An Phú Hiệp - Công Ty TNHH Dịch Vụ & Thương Mại An Phú Hiệp,"70 P. Ghềnh Ráng,Tây Sơn, Tp. Quy Nhơn, Bình Định",(0256) 3847222                                 ,Bình Định,Gara
Tân Trọng Nghĩa - Công Ty TNHH Thương Mại Dịch Vụ Tân Trọng Nghĩa,"150/8 Khu 6, P. Đông Hưng Thuận, Q. 12, Tp. Hồ Chí Minh (TPHCM)",(028) 37177109                                ,Tp Hcm,Gara
Thái Hoàng - Công Ty Cổ Phần Thái Hoàng,"24/189 Hoàng Hoa Thám, Q. Ba Đình, Hà Nội",(024) 39189525                                ,Hà Nội,Gara
Thanh Long - Công Ty TNHH Ôtô Thanh Long,"C7/27A1 ấp 4,Phạm Hùng, X. Bình Hưng, H. Bình Chánh, Tp. Hồ Chí Minh (TPHCM)",(028) 37584542                                ,Tp Hcm,Gara
Chế Trường Sơn - Công Ty TNHH Một Thành Viên Chế Trường Sơn,"74/47 Hẻm 249,Tân Kỳ Tân Quý, P. Tân Sơn Nhì, Q. Tân Phú, Tp. Hồ Chí Minh (TPHCM)",(028) 38120239                                ,Tp Hcm,Gara
Doanh Nghiệp Tư Nhân Phương Mai Thương Mại Dịch Vụ Du Lịch,"821 Hưng Phú, P. 9, Q. 8, Tp. Hồ Chí Minh (TPHCM)",(028) 38595367                                ,Tp Hcm,Gara
Doanh Nghiệp Tư Nhân Thiện Phát,"383 Tôn Đản, Q. Cẩm Lệ, Tp. Đà Nẵng",(0236) 3660870                                 ,Đà Nẵng,Gara
Ngọc Phú - Công Ty TNHH Một Thành Viên Thương Mại Dịch Vụ Du Lịch & Vận Tải Ngọc Phú,"207/1 Phan Văn Trị, P. 14, Q. Bình Thạnh, Tp. Hồ Chí Minh (TPHCM)",(028) 38433834                                ,Tp Hcm,Gara
Doanh Nghiệp Tư Nhân Vinh Quang Ô Tô,"718Bis Kinh Dương Vương, P. 13, Q. 6, Tp. Hồ Chí Minh (TPHCM)",(028) 37516320                                ,Tp Hcm,Gara
Thuận Lân - Công Ty TNHH Thương Mại Dịch Vụ Thuận Lân,"163 Đinh Tiên Hoàng, P. Đa Kao, Q. 1, Tp. Hồ Chí Minh (TPHCM)",(028) 38223135                                ,Tp Hcm,Gara
Tiến Thành - Công Ty TNHH Thương Mại Dịch Vụ Tiến Thành,"235 Giải Phóng, Q. Đống Đa, Hà Nội",(024) 38691221                                ,Hà Nội,Gara
Cơ Sở Thanh Bình,"233 Trần Phú, P. 9, Q. 5, Tp. Hồ Chí Minh (TPHCM)",(028) 38356373                                ,Tp Hcm,Gara
Doanh Nghiệp Tư Nhân Phú Gia,"197 P. Nhơn Phú,Hùng Vương, Tp. Yên Bái, Bình Định",(0256) 3848168                                 ,Bình Định,Gara
Cơ Sở Bảy Phú Lâm,"712B Hùng Vương, P. 13, Q. 6, Tp. Hồ Chí Minh (TPHCM)",(028) 38750088                                ,Tp Hcm,Gara
Ony General - Vpđd Công ty TNHH Ony General,"19 Hưng Phú, P. 8, Q. 8, Tp. Hồ Chí Minh (TPHCM)",(028) 39540905                                ,Tp Hcm,Gara
Doanh Nghiệp Tư Nhân Phúc Phú Châu,"525 Nguyễn Lương Bằng, Q. Liên Chiểu, Tp. Đà Nẵng",(0236) 3841291                                 ,Đà Nẵng,Gara
Hiển Vinh - Công Ty TNHH Tư Vấn & Dịch Vụ Ô Tô Hiển Vinh,"21/20 Nguyễn Thiện Thuật, P. 2, Q. 3, Tp. Hồ Chí Minh (TPHCM)",(028) 38305027                                ,Tp Hcm,Gara
Hyundai Vinamotor Trường An - Vpđd Công ty TNHH Hyundai Vinamotor Trường An,"2 Bis Nguyễn Thị Minh Khai, P. Đa Kao, Q. 1, Tp. Hồ Chí Minh (TPHCM)",(028) 39103609                                ,Tp Hcm,Gara
Cơ Sở Trần Hữu Phú Sữa Chữa Ô Tô,"655 Xa Lộ Hà Nội, P. Thảo Điền, Q. 2, Tp. Hồ Chí Minh (TPHCM)",(028) 37444282                                ,Tp Hcm,Gara
Hợp Tác Xã Tân Phong,"23 Ngõ Yên Ninh,Yên Ninh, Q. Ba Đình, Hà Nội",(024) 38294303                                ,Hà Nội,Gara
Kim Loan Anh - Công Ty TNHH Thương Mại & Dịch Vụ Kim Loan Anh,"035 Lô 9,Cư Xá Thanh Đa, P. 27, Q. Bình Thạnh, Tp. Hồ Chí Minh (TPHCM)",(028) 38988272                                ,Tp Hcm,Gara
Xí Nghiệp Hòa Bình-Việt Nam Liên Doanh Sản Xuất Ô Tô,"22 Cộng Hòa, P. 4, Q. Tân Bình, Tp. Hồ Chí Minh (TPHCM)",(028) 38454285                                ,Tp Hcm,Gara
Doanh Nghiệp Tư Nhân T & V Thương Mại Dịch Vụ,"106 Nơ Trang Long, P. 14, Q. Bình Thạnh, Tp. Hồ Chí Minh (TPHCM)",(028) 35103651                                ,Tp Hcm,Gara
Doanh Nghiệp Tư Nhân Tao Ngộ Cơ Khí Sữa Chữa Ô Tô,"1759 Quốc Lộ 1A, P. Tân Thới Hiệp, Q. 12, Tp. Hồ Chí Minh (TPHCM)",(028) 62952068                                ,Tp Hcm,Gara
Hợp Tác Xã Diên Hồng Thanh Niên Cơ Khí,"207 Lý Thái Tổ, P. Diên Hồng, Tp. Plây Cu, Gia Lai",(0269) 3823039                                 ,Gia Lai,Gara
Toyota Buôn Ma Thuột - Công Ty TNHH -Đại Lý Toyota Việt Nam Toyota Buôn Ma Thuột,"29 Trường Chinh, Tp. Buôn Ma Thuột, Đắk Lắk",(0262) 3953344                                 ,Đắk Lắk,Gara
Tân Đức - Công Ty TNHH Công Nghệ Tân Đức,"11 Lô 2A,Trung Yên, Q. Cầu Giấy, Hà Nội",(024) 37832581                                ,Hà Nội,Gara
Cty Tây Ford Cổ Phần Đầu Tư Thương Mại-Cn Đà Lạt,"10A Nguyễn Công Trứ, P. 8, Tp. Đà Lạt, Lâm Đồng",(0263) 3554090                                 ,Lâm Đồng,Gara
Công Ty TNHH Thương Mại Dịch Vụ Việt Phú Cường,"787 KHP3, QL13, P. Hiệp Bình Phước, Q. Thủ Đức, Tp. Hồ Chí Minh (TPHCM)",(028) 37273363                                ,Tp Hcm,Gara
Tổ Hợp Tác Nhân Tài,"101 P. Tân Mai, Q. Hoàng Mai, Hà Nội",(024) 38641854                                ,Hà Nội,Gara
Công Ty Cổ Phần Cơ Khí Giao Thông Vận Tải Đồng Nai,"Khu Công Nghiệp Biên Hòa 2, 24 Đường 2A, Tp. Biên Hòa, Đồng Nai",(0251) 3891353                                 ,Đồng Nai,Gara
Nguyễn Minh - Công Ty TNHH Thương Mại Dịch Vụ Nguyễn Minh,"143/4A Ung Văn Khiêm, P. 25, Q. Bình Thạnh, Tp. Hồ Chí Minh (TPHCM)",(028) 35111216                                ,Tp Hcm,Gara
Trung Tâm Văn Hiền Bảo Trì Ôtô,"13/5L Đường 30 Tháng 4, P. Phú Hòa, TX. Thủ Dầu Một, Bình Dương",(0274) 3898198                                 ,Bình Dương,Gara
Xuyên á - Công Ty TNHH Dịch Vụ Ô Tô Xuyên á,"720 Trường Chinh, P. 15, Q. Tân Bình, Tp. Hồ Chí Minh (TPHCM)",(028) 38151481                                ,Tp Hcm,Gara
Quảng Độ - Cty Cổ Phần,"153 Yên Phụ, Q. Tây Hồ, Hà Nội",(024) 37191088                                ,Hà Nội,Gara
Nhà Máy Cơ khí Cầu Diễn Z157,"P. Cầu Diễn, H. Từ Liêm, Hà Nội",(024) 37644463                                ,Hà Nội,Gara
Cơ Sở Huỳnh Văn Sáu,"977 Hậu Giang, P. 11, Q. 6, Tp. Hồ Chí Minh (TPHCM)",(028) 38750315                                ,Tp Hcm,Gara
Doanh Nghiệp Tư Nhân 18 Tháng 4,"27 Tây Sơn, P. Quang Trung, Tp. Quy Nhơn, Bình Định",(0256) 3823280                                 ,Bình Định,Gara
Cơ Sở Nam Hưng,"76 Đề Thám, P. Cầu Ông Lãnh, Q. 1, Tp. Hồ Chí Minh (TPHCM)",(028) 38369234                                ,Tp Hcm,Gara
Doanh Nghiệp Tư Nhân Thành Chiến,"Tổ 18,P. Khuê Trung, Q. Cẩm Lệ, Tp. Đà Nẵng",(0236) 3697361                                 ,Đà Nẵng,Gara
Công Ty Minh Thành-Bộ Quốc Phòng,"2Bis Nguyễn Thị Minh Khai, P. Đa Kao, Q. 1, Tp. Hồ Chí Minh (TPHCM)",(028) 39102475                                ,Tp Hcm,Gara
Công Ty Cổ Phần Đầu Tư Xây Dựng Công Nghiệp Đông á,"Số 16/34, Phố Thanh Đàm, Pư. Thanh Trì, Q. Hoàng Mai, Hà Nội",(024) 36436385                                ,Hà Nội,Gara
V & K - Công Ty TNHH Thương Mại Dịch Vụ V & K,"52 Đường Hoa Hồng, P. 2, Q. Phú Nhuận, Tp. Hồ Chí Minh (TPHCM)",(028) 35172656                                ,Tp Hcm,Gara
Hợp Tác Xã Vận Tải Sài Gòn,"32 Nguyễn Bỉnh Khiêm, P. Đa Kao, Q. 1, Tp. Hồ Chí Minh (TPHCM)",(028) 35392790                                ,Tp Hcm,Gara
Công Ty Cổ Phần TMDV Ô Tô Suzuki  Cần Thơ,"86 Lê Hồng Phong, Bình Thủy, TP. Cần Thơ",0932929697                              ,TP. Cần Thơ,Gara
Công Ty Cổ Phần Dịch Vụ Sửa Chữa Ô Tô Quốc Tế,"184 Phạm Văn Đồng, Q. Cầu Giấy, Hà Nội",(024) 37649129                                ,Hà Nội,Gara
Long Biên Ford,"Số 3 Đường Nguyễn Văn Linh, Q. Long Biên, Hà Nội",0968699754                              ,Hà Nội,Gara
Công Ty Cổ Phần Ô Tô Quang Phi Hùng,"875 Nguyễn Hữu Thọ, P. Khuê Trung, Q. Cẩm Lệ, TP. Đà Nẵng, Tp. Đà Nẵng",0935536365                              ,Đà Nẵng,Gara
Công Ty TNHH Hồng Sơn,"Tổ Dân Phố Trường Thọ Đông A, P. Trương Quang Trọng, TP. Quảng Ngãi, Quảng Ngãi",(0255) 3830830                                 ,Quảng Ngãi,Gara
Hyundai Bắc Ninh 3S,"Lê Thái Tổ, P. Võ Cường, TP Bắc Ninh, Bắc Ninh",0909575929                              ,Bắc Ninh,Gara
Công Ty Cổ Phần Vận Tải Thương Mại & Du Lịch Đông Anh,"Trung Tâm Thương Mại Thị Trấn Đông Anh, Hà Nội",(024) 3881235Hotline: 0909 11 0000        ,Hà Nội,Gara
Công Ty TNHH Thương Mại Dịch Vụ Nhật Khải,"015 Lô A, Chung Cư Phan  Văn Trị, Đường Lê Hồng Phong, P. 2, Q. 5, Tp. Hồ Chí Minh (TPHCM)",(028) 39240653                                ,Tp Hcm,Gara
Công Ty Cổ Phần Ô Tô Hyundai - Việt Hàn,"158 Cách Mạng Tháng Tám, Q. Cẩm Lệ, Tp. Đà Nẵng",(0236) 3698399                                 ,Đà Nẵng,Gara
Ô Tô Đại Lợi - Công Ty TNHH Thương Mại Đại Lợi,"474 Lũy Bán Bích, P. Hòa Thạnh, Q. Tân Phú, Tp. Hồ Chí Minh (TPHCM)","(028) 39733896, 0918247088                    ",Tp Hcm,Gara
Công Ty TNHH Dịch Vụ Ô Tô Nam Quốc,"Phòng 216, CT1A ĐN 1, Khu Đô Thị Mới Mỹ Đinh 2,H. Từ Liêm, Hà Nội",(024) 62943336                                ,Hà Nội,Gara
Doanh Nghiệp Tư Nhân Hữu Phú Dịch Vụ Thương Mại Ô Tô Cơ Khí,"43A Kỳ Đồng, P. 9, Q. 3, Tp. Hồ Chí Minh (TPHCM)",(028) 39310964                                ,Tp Hcm,Gara
Công Ty TNHH Dịch Vụ Kỹ Thuật Ô Tô Việt Nam,"61/40 Đường Số 59, P. 14, Q. Gò Vấp, Tp. Hồ Chí Minh (TPHCM)",(028) 6885588                                 ,Tp Hcm,Gara
Công Ty TNHH Thương Mại Nguyễn Ngọc Thanh,"12/220 Tô Hiệu, Tp. Hải Phòng",(0225) 3611373                                 ,Hải Phòng,Gara
Công Ty TNHH Hỗ Trợ Ven Đường Việt,"178 Đường Lê Chí Dân, P. Hiệp An, Tp. Thủ Dầu, Bình Dương",(0274) 3585322                                 ,Bình Dương,Gara
Công Ty TNHH Dịch Vụ Tài Lộc 39,"Thửa số 297-297A Đội 4B, Xã Tân Dương, Huyện Thủy Nguyên, Tp. Hải Phòng",(0225) 3972539                                 ,Hải Phòng,Gara
Tây Phú An - Công Ty Cổ Phần Tây Phú An,"199A Nguyễn Trãi, P. Nguyễn Cư Trinh, Q. 1, Tp. Hồ Chí Minh (TPHCM)",(028) 39253543                                ,Tp Hcm,Gara
Công Ty Cổ Phần Đầu Tư Xây Dựng Công Nghiệp Đông á,"Số 16/34, Phố Thanh Đàm, Pư. Thanh Trì, Q. Hoàng Mai, Hà Nội",(024) 36436385                                ,Hà Nội,Gara
Công Ty TNHH Ô Tô Kinh Thành,"Số 74 Đường Vườn Lài, Khu Phố 1, P. An Phú Đông, Q. 12, Tp. Hồ Chí Minh (TPHCM)",0945290446                              ,Tp Hcm,Gara
Isuzu Long Biên,"Số 449, Đường Nguyễn Văn Linh, Phường Phúc Đồng, Quận Long Biên, Hà Nội",0919486296                              ,Hà Nội,Gara
Công Ty Cổ Phần Dịch Vụ Sửa Chữa Ô Tô Quốc Tế,"184 Phạm Văn Đồng, Q. Cầu Giấy, Hà Nội",(024) 37649129                                ,Hà Nội,Gara
Phước Tài - Công Ty TNHH Thương Mại & Dịch Vụ Ô Tô Phước Tài,"738 Quốc Lộ 52, P. Hiệp Phú, Q. 9, Tp. Hồ Chí Minh (TPHCM)",(028) 37305387                                ,Tp Hcm,Gara
Thanh Thanh Lộc - Công Ty TNHH Thanh Thanh Lộc,"53/591 Nguyễn Oanh, P. 17, Q. Gò Vấp, Tp. Hồ Chí Minh (TPHCM)",(028) 39846373                                ,Tp Hcm,Gara
Công Ty TNHH Điện Lạnh Ô Tô Tân Sơn Nhất,"9-10-20 (Phi Long cũ), Trần Quốc Hoàn, P. 4, Q. Tân Bình, Tp. Hồ Chí Minh (TPHCM)",(028) 38421881                                ,Tp Hcm,Gara
V & K - Công Ty TNHH Thương Mại Dịch Vụ V & K,"52 Đường Hoa Hồng, P. 2, Q. Phú Nhuận, Tp. Hồ Chí Minh (TPHCM)",(028) 35172656                                ,Tp Hcm,Gara
Trí Lực - Công Ty TNHH Trí Lực,Khu 8 Hải Hoà - TP Móng Cái - Quảng Ninh Quảng Ninh,(0203) 2462379                                 ,Quảng Ninh,Gara
Công Ty Cổ Phần Phú Khang Nam,"102 Phan Văn Hớn, P. Tân Thới Nhất, Q. 12, Tp. Hồ Chí Minh (TPHCM)",(028) 62557812                                ,Tp Hcm,Gara
Công Ty Cổ Phần TMDV Ô Tô Suzuki  Cần Thơ,"86 Lê Hồng Phong, Bình Thủy, TP. Cần Thơ",0932929697                              ,TP. Cần Thơ,Gara
Công Ty Tư Vấn & ứng Dụng Khoa Học Công Nghệ Giao Thông Vận Tải (Tracoasteco),"2 Đường D3, Văn Thánh Bắc, P. 25, Q. Bình Thạnh, Tp. Hồ Chí Minh (TPHCM)",(028) 35120124                                ,Tp Hcm,Gara
Công Ty TNHH Phú Lực á,"Tổ 21, Khu 3, P. Tam Hoà, Tp. Biên Hoà, Đồng Nai",(0251) 3812114                                 ,Đồng Nai,Gara
Công Ty TNHH Phúc Gia Khang,"471 QL13, kp 5, P. hHệp Binh Phước , Q. thu đức, Tp. Hồ Chí Minh (TPHCM)",(028) 54225919                                ,Tp Hcm,Gara
Ô Tô Nam Việt Anh - Công Ty Cổ Phần Ô Tô Nam Việt Anh,"Số 8A, QL 1A, ấp Hưng Bình, X. Hưng Thịnh, H. Trảng Bom, Đồng Nai",0901295594                              ,Đồng Nai,Gara
Công Ty Cổ Phần Thiên Thành An,"Tầng 4, Tòa Nhà ATS, Số 8 Phạm Hùng, Q. Nam Từ Liêm, Hà Nội",(024) 32005997                                ,Hà Nội,Gara
Công Ty TNHH Thương Mại Dịch Vụ Ô Tô Tuấn Dũng,"125/12/23 An Phú Đông 09, P. An Phú Đông, Q. 12, Tp. Hồ Chí Minh (TPHCM)",(028) 66864879                                ,Tp Hcm,Gara
Minh Toàn - Công Ty TNHH Thương Mại Dịch Vụ Ô Tô Minh Toàn,"351 Đại Lộ Bình Dương, TT. An Thạnh, H. Thuận An, Bình Dương",(0274) 3748728                                 ,Bình Dương,Gara
