Name,Address,Phone,Province,Service
ISUZU Việt Nam - Viet Nam Auto,"916 Quang Trung, Phường 8, Quận Gò Vấp, Tp. Hồ Chí Minh (TPHCM)",Hotline: 0909 134 692                   ,Tp Hcm,Xe Tải - Kinh Doanh và Phân Phối
ISUZU Đạt Tấn Phát - Công Ty TNHH Ô Tô ISUZU Đạt Tấn Phát,"Số 795, KP. 4, Xa lộ Hà Nội, P. Long Bình, TP. Biên Hòa, Đồng Nai",Hotline: 0909 134 692                   ,Đồng Nai,Xe Tải - Kinh Doanh và Phân Phối
Công ty Cổ Phần Xuất Nhập Khẩu An Phú Thành,"56 Tố Hữu, P. Trung Văn, Q. Nam Từ Liêm, Hà Nội","(024) 32595868, Hotline: 0983 565 666         ",Hà Nội,Xe Tải - Kinh Doanh và Phân Phối
Ô Tô Phú Khang - Công Ty TNHH Thương Mại Và Dịch Vụ Phú Khang,"Số 2699 Trần Hưng Đạo, P. Mỹ Thạnh, Tp. Long Xuyên, An Giang","(0296) 3933337, 0913 777 717                   ",An Giang,Xe Tải - Kinh Doanh và Phân Phối
Công ty Cổ Phần Ô tô JAC Việt Nam - Chi nhánh Hà Nội,"761 Nguyễn Văn Linh (Quốc lộ 5 HN - HP - bên cạnh May 10), Q. Long Biên, Hà Nội","(024) 32127366, 0967492036                    ",Hà Nội,Xe Tải - Kinh Doanh và Phân Phối
Công Ty Cổ Phần 19-5 Thanh Hóa,"280 Bà Triệu, P. Đông Thọ, TP. Thanh Hóa, Thanh Hóa",0582992888                              ,Thanh Hóa,Xe Tải - Kinh Doanh và Phân Phối
Ô Tô Nisu - Công Ty TNHH Kinh Doanh ÔTô Nisu,"449 Nguyễn Văn Linh, P. Phúc Đồng, Q. Long Biên, Hà Nội",(024) 38757888                                ,Hà Nội,Xe Tải - Kinh Doanh và Phân Phối
Công Ty TNHH Ô Tô Và Thiết Bị Chuyên Dùng Sao Bắc,"Số 325, QL 13, P. Hiệp Bình Phước, Q. Thủ Đức, Tp. Hồ Chí Minh (TPHCM)",(028) 37261417                                ,Tp Hcm,Xe Tải - Kinh Doanh và Phân Phối
Công Ty TNHH Cơ Khí Ô Tô Phú Cường,"D7/20 Quốc Lộ 1A, Thị Trấn Tân Túc, Q. Bình Chánh, Tp. Hồ Chí Minh (TPHCM)","(028) 62515383, 0906918009                    ",Tp Hcm,Xe Tải - Kinh Doanh và Phân Phối
Công Ty TNHH Thương Mại Ô Tô Hoàng Long,"967 Quốc Lộ 1A, P. Thới An, Q. 12, Tp. Hồ Chí Minh (TPHCM)","0909415145, 0902502228                  ",Tp Hcm,Xe Tải - Kinh Doanh và Phân Phối
Công Ty Cổ Phần Thương Mại Dịch Vụ An Sương,"2450 QL1A, P. Trung Mỹ Tây, Q. 12, Tp. Hồ Chí Minh (TPHCM)",0908541699                              ,Tp Hcm,Xe Tải - Kinh Doanh và Phân Phối
Công Ty TNHH Sản Xuất Và Thương Mại Khang Thịnh,"VPGD: Tòa nhà An Huy, Lô 1+2 GD1, KCN Ngọc Hồi, K14 Đường Ngọc Hồi, H. Thanh Trì, Hà Nội","(024) 38235235, 36811428                      ",Hà Nội,Xe Tải - Kinh Doanh và Phân Phối
Hyundai Đông Nam - Công Ty Cổ Phần Ô Tô Hyundai Đông Nam,"Km 14 Quốc Lộ 1A, Ngọc Hồi, H. Thanh Trì, Hà Nội",0988446169                              ,Hà Nội,Xe Tải - Kinh Doanh và Phân Phối
Công Ty Cổ Phần Ô Tô Kinh Bắc,"Km 8, Đường Võ Văn Kiệt, TT. Quang Minh, H. Mê Linh, Hà Nội",(024) 22178922                                ,Hà Nội,Xe Tải - Kinh Doanh và Phân Phối
Ô Tô Trường Long - Công Ty Cổ Phần Kỹ Thuật Và Ô Tô Trường Long,"KCN Tân Tạo, Lô 46, Đường Số 3, P. Tân Tạo A, Q. Bình Tân, Tp. Hồ Chí Minh (TPHCM)",(028) 37543188                                ,Tp Hcm,Xe Tải - Kinh Doanh và Phân Phối
Công Ty Cổ Phần Thương Mại Dịch Vụ Phú Mẫn,"Số 79/43 Đường Số 51, P. 14, Q. Gò Vấp, Tp. Hồ Chí Minh (TPHCM)",0896619768                              ,Tp Hcm,Xe Tải - Kinh Doanh và Phân Phối
Ô Tô Nguyên Gia Phát - Công Ty Cổ Phần Nguyên Gia Phát,"Sô 39 Đại Lộ Bình Dương, P. Vĩnh Phú, TP. Thuận An, Bình Dương",(028) 62950081                                ,Bình Dương,Xe Tải - Kinh Doanh và Phân Phối
Công Ty TNHH Thương Mại Dịch Vụ Ô Tô Đông Anh,"2975 QL 1A, P. Tân Thới Hiệp, Q. 12, Tp. Hồ Chí Minh (TPHCM)",0932100277                              ,Tp Hcm,Xe Tải - Kinh Doanh và Phân Phối
Isuzu Green Ka - Công Ty Cổ Phần Thương Mại Green Ka,"1691/3N QL. 1A, KP. 3, P. An Phú Đông, Q. 12, Tp. Hồ Chí Minh (TPHCM)",0912619774                              ,Tp Hcm,Xe Tải - Kinh Doanh và Phân Phối
Công Ty Cổ Phần Đầu Tư Ô Tô Đông Nam,"Km9, Võ Văn Kiệt, KCN Quang Minh, TT. Quang Minh, Mê Linh, Hà Nội",0981032808                              ,Hà Nội,Xe Tải - Kinh Doanh và Phân Phối
Ô Tô Tuấn Phát - Công Ty TNHH Thương Mại Ô Tô Tuấn Phát,"280/9/4 Đường TX25, KP. 2, P. Thạnh Xuân, Q. 12, TP. Hồ Chí Minh",(028) 62717079                                ,TP. Hồ Chí Minh,Xe Tải - Kinh Doanh và Phân Phối
Công Ty TNHH Đại Phát Tín,"Số 1286 Mặt Tiền, QL 1A, P. Thới An, Q. 12, Tp. Hồ Chí Minh (TPHCM)",18008043                                ,Tp Hcm,Xe Tải - Kinh Doanh và Phân Phối
Công Ty TNHH Ô Tô Trường Vũ,"666/10 Quốc Lộ 91B, KV Bình Trung, P. Long Hòa, Q. Bình Thủy, TP. Cần Thơ",0939888798                              ,TP. Cần Thơ,Xe Tải - Kinh Doanh và Phân Phối
Công Ty Cổ Phần Xuất Nhập Khẩu Ô Tô Giải Phóng,"Km 1, Đường Võ Văn Kiệt, X. Kim Chung, H. Đông Anh, Hà Nội",0904823889                              ,Hà Nội,Xe Tải - Kinh Doanh và Phân Phối
Công Ty TNHH Dịch Vụ Thương Mại Trường Giang,"Số 4/5, KP. 4, P. An Phú, TX. Thuận An, Bình Dương",0911688588                              ,Bình Dương,Xe Tải - Kinh Doanh và Phân Phối
Công Ty Cổ Phần Vân Nam,"111/2 Đường 18, KP. 2, P. Bình Hưng Hòa, Q. Bình Tân, Tp. Hồ Chí Minh (TPHCM)",0903075869                              ,Tp Hcm,Xe Tải - Kinh Doanh và Phân Phối
Công Ty TNHH Bình An,"Km 63+80 Quốc Lộ 37, X. Đồng Lạc, H. Nam Sách, Hải Dương",(0220) 3753899                                 ,Hải Dương,Xe Tải - Kinh Doanh và Phân Phối
Công Ty TNHH Hoàng Phi Hải,"112/4C Đường HT48, Tổ 3, Khu Phố 1, Phường Hiệp Thành, Quận 12, Tp. Hồ Chí Minh (TPHCM)",0707196197                              ,Tp Hcm,Xe Tải - Kinh Doanh và Phân Phối
Công Ty TNHH Ô Tô Đông Hải,"Số 15 BT2, Đường Trần Thủ Độ, KĐT. Pháp Vân, P. Hoàng Liệt, Q. Hoàng Mai, Hà Nội",(024) 36284128                                ,Hà Nội,Xe Tải - Kinh Doanh và Phân Phối
Công Ty Cổ Phần Đầu Tư Phát Triển Máy Việt Nam,"BT1-07 KĐT An Hưng -  Tố Hữu, Phường Dương Nội, Quận Hà Đông, Hà Nội",19001089                                ,Hà Nội,Xe Tải - Kinh Doanh và Phân Phối
Công Ty Cổ Phần Xuất Nhập Khẩu Ô Tô Long Biên,"Km12, Quốc Lộ 3, TT Đông Anh, H. Đông Anh, Hà Nội",(024) 32127233                                ,Hà Nội,Xe Tải - Kinh Doanh và Phân Phối
Công Ty TNHH Thương Mại Ô Tô An Phước,"100 Võ Nguyên Giáp, KP. Tân Cang, P. Phước Tân, TP. Biên Hòa, Đồng Nai",0909771388                              ,Đồng Nai,Xe Tải - Kinh Doanh và Phân Phối
Công Ty Cổ Phần Xuất Nhập Khẩu Phân Phối Ô Tô Sài Gòn,"23/80/4A Nguyễn Hữu Tiến, P. Tây Thạnh, Q. Tân Phú, Tp. Hồ Chí Minh (TPHCM)",(028) 22645888                                ,Tp Hcm,Xe Tải - Kinh Doanh và Phân Phối
Công Ty TNHH Ô Tô Và Thiết Bị Chuyên Dùng Sao Bắc,"Tầng 8, Số 2A, Đại Cồ Việt, P. Lê Đại Hành, Q. Hai Bà Trưng, Hà Nội",0977109594                              ,Hà Nội,Xe Tải - Kinh Doanh và Phân Phối
Công Ty TNHH Sản Xuất Thương Mại Xuất Nhập Khẩu Đông Tây,"1137 QL 1A, KP. 5, P. Tân Tạo, Q. Bình Tân, Tp. Hồ Chí Minh (TPHCM)","(028) 38779123, 0975041074                    ",Tp Hcm,Xe Tải - Kinh Doanh và Phân Phối
Công Ty Cổ Phần Sài Gòn Ngôi Sao,"510 Quốc Lộ 13, KP. 6, P. Hiệp Bình Phước, TP. Thủ Đức, Tp. Hồ Chí Minh (TPHCM)","(028) 37263023, 0983036221                    ",Tp Hcm,Xe Tải - Kinh Doanh và Phân Phối
Đại Lý ISUZU Giải Phóng - Công Ty Cổ Phần Vận Tải Thương Mại Và Đầu Tư An Việt,"Km 12+300 QL. 1A, X. Vĩnh Quỳnh, H. Thanh Trì, Hà Nội",0966667534                              ,Hà Nội,Xe Tải - Kinh Doanh và Phân Phối
Công Ty Cổ Phần Ô Tô KCV Thăng Long,"Km 6 Đường Võ Văn Kiệt, X. Nam Hồng, H. Đông Anh, Hà Nội",(024) 39585188                                ,Hà Nội,Xe Tải - Kinh Doanh và Phân Phối
Công Ty Cổ Phần Đầu Tư Phát Triển Thắng Lợi,"Khu 12, P. Kim Đức, Tp. Việt Trì, Phú Thọ",0913007911                              ,Phú Thọ,Xe Tải - Kinh Doanh và Phân Phối
Công Ty TNHH Ô Tô Trường Lộc,"37 QL 13, Khu Phố Tây, P. Vĩnh Phú, TP. Thuận An, Bình Dương",(028) 37273427 - 0968 66 1979                 ,Bình Dương,Xe Tải - Kinh Doanh và Phân Phối
Công Ty TNHH Thương Mại Đầu Tư Bình Minh,"Tầng 7, Tháp Tây, Tòa Nhà Hancorp Plaza 72 Trần Đăng Ninh, Q. Cầu Giấy, Hà Nội",0982450336                              ,Hà Nội,Xe Tải - Kinh Doanh và Phân Phối
Công Ty TNHH Đầu Tư Thương Mại Và XNK Thăng Long,"Số Nhà 44, Tổ 68, P. Tương Mai, Q. Hoàng Mai, 		 Hà Nội",0973490868	                             ,Hà Nội,Xe Tải - Kinh Doanh và Phân Phối
Công Ty Cổ Phần Xuất Nhập Khẩu Thiết Bị Phụ Tùng Hoàng Mai,"Số 3, Tổ 55, P. Thanh Xuân Trung, Q. Thanh Xuân, Hà Nội",0965982222                              ,Hà Nội,Xe Tải - Kinh Doanh và Phân Phối
Ô Tô Việt - Công Ty Cổ Phần Sài Gòn Chuyên Dùng,"131 QL. 1A, X. Long Hiệp, TT. Bến Lức, Long An",0919696867                              ,Long An,Xe Tải - Kinh Doanh và Phân Phối
Xe Cơ Giới VICOMA - Công Ty Cổ Phần Ô Tô Và Máy Công Trình Vĩnh Hưng,"Đội 7, Yên Xá, X. Tân Triều, H. Thanh Trì, Hà Nội",(024) 66834021                                ,Hà Nội,Xe Tải - Kinh Doanh và Phân Phối
Công Ty Cổ Phần ÔTô Việt Đông,"Tập Thể Xí Nghiệp Vật Tư Vận Tải Luyên Kim, TT. Yên Viên, H. Gia Lâm, Hà Nội","(024) 39613712, 0965736888                    ",Hà Nội,Xe Tải - Kinh Doanh và Phân Phối
Công Ty Cổ Phần Xuất Nhập Khẩu Thương Mại và Dịch Vụ Vĩnh Phúc,"Thôn Mậu Thông, P. Khai Quang, TP. Vĩnh Yên, Vĩnh Phúc",0904585457                              ,Vĩnh Phúc,Xe Tải - Kinh Doanh và Phân Phối
Công Ty TNHH Sản Xuất Thương Mại Dịch Vụ Vận Tải Ô Tô Tiến Phát,"1251 QL 1A, P. Thới An, Q. 12, Tp. Hồ Chí Minh (TPHCM)",(028) 62553745                                ,Tp Hcm,Xe Tải - Kinh Doanh và Phân Phối
Công Ty TNHH Phát Triển Xây Dựng Và Thương Mại DCC,"Số 10, Đường 2A, KCN Biên Hòa II, Tp. Biên Hòa., Đồng Nai Tp. Hồ Chí Minh (TPHCM)",(028) 37273285                                ,Tp Hcm,Xe Tải - Kinh Doanh và Phân Phối
Đại Lý Xe Tải ISUZU,"M1, Phường Bình Hưng Hòa, Quận Bình Tân, Tp. Hồ Chí Minh (TPHCM)",0918805000                              ,Tp Hcm,Xe Tải - Kinh Doanh và Phân Phối
Công Ty Cổ Phần Phát Triển Thương Mại Dịch Vụ Và Đầu Tư Thăng Long,"Số 55, Nguyễn Văn Linh, P. Sài Đồng, Q. Long Biên, Hà Nội",(024) 36523321                                ,Hà Nội,Xe Tải - Kinh Doanh và Phân Phối
Xe Cơ Giới VICOMA - Công Ty Cổ Phần Ô Tô Và Máy Công Trình Vĩnh Hưng,"Đội 7, Yên Xá, X. Tân Triều, H. Thanh Trì, Hà Nội",(024) 66834021                                ,Hà Nội,Xe Tải - Kinh Doanh và Phân Phối
Công Ty Cổ Phần Ô Tô Giang Hoài,"Số 20/3 Đại Lộ Bình Dương, KP. Tây, P. Vĩnh Phú, TP. Thuận An, Bình Dương",0902904964                              ,Bình Dương,Xe Tải - Kinh Doanh và Phân Phối
Công Ty TNHH Sản Xuất Thương Mại Và Dịch Vụ ÔTô Việt,"170 QL. 1A, P. Tân Thới Nhất, Q. 12 Tp. Hồ Chí Minh (TPHCM)","(028) 62521521, 62504236                      ",Tp Hcm,Xe Tải - Kinh Doanh và Phân Phối
Ô Tô Tây Đô - Công Ty Cổ Phần Thương Mại Dịch Vụ Ô Tô Tây Đô,"86 Lê Hồng Phong, P. Trà An, Q. Bình Thủy, TP. Cần Thơ",(0292) 6251706                                 ,TP. Cần Thơ,Xe Tải - Kinh Doanh và Phân Phối
Công Ty TNHH Thế Giới Xe Tải,"Số 62 Tân Thới Hiệp 07, KP. 3, P. Tân Thới Hiệp, Q. 12, TP. HCM",0902888444                              ,TP. HCM,Xe Tải - Kinh Doanh và Phân Phối
Công Ty Cổ Phần Ô Tô Tata - Chi Nhánh TP. HCM,"1456 QL 1A, P. Thới An, Q. 12, Tp. Hồ Chí Minh (TPHCM)",0964354377                              ,Tp Hcm,Xe Tải - Kinh Doanh và Phân Phối
Ô Tô Hải Âu - Công Ty TNHH Ô Tô Hải Âu,"Tầng 5, Tháp Tây, Toà Nhà Hancorp, 72 Trần Đăng Ninh, Q. Cầu Giấy, Hà Nội",(024) 35372816                                ,Hà Nội,Xe Tải - Kinh Doanh và Phân Phối
Công Ty TNHH Tín Hưng Thịnh Auto,"Tổng Kho Sacombank, Đường số 10, KCN Sóng Thần, Dĩ An, Bình Dương",(028) 39585888                                ,Bình Dương,Xe Tải - Kinh Doanh và Phân Phối
Công Ty Cổ Phần Thiết Bị Vật Tư Minh Hải,"55 Đường Nguyễn Văn Linh, Q. Long Biên, Hà Nội",(024) 32127777                                ,Hà Nội,Xe Tải - Kinh Doanh và Phân Phối
Công Ty TNHH Trường Vinh Hi - Nô,"Số 513, Xa lộ Hà Nội, KP. 1, P. Long Bình, TP. Biên Hòa, Đồng Nai",(0251) 3893601                                 ,Đồng Nai,Xe Tải - Kinh Doanh và Phân Phối
Công Ty Cổ Phần Ô Tô Hyundai Ngôi Sao,"184C/1 Đường DT743, Khu phố 1A, Phường An Phú, Tp. Thuận An, Bình Dương",0901901998                              ,Bình Dương,Xe Tải - Kinh Doanh và Phân Phối
Công Ty XNK Ô Tô Miền Nam Đông Dương,"138 QL1A Tam Bình, Q. Thủ Đức, Tp. Hồ Chí Minh (TPHCM)",0929235352                              ,Tp Hcm,Xe Tải - Kinh Doanh và Phân Phối
Công Ty TNHH Lexim,"Lô A18-2, KCN Hà Nội - Đài Tư, Số 386 Nguyễn Văn Linh, P. Sài Đồng, Q. Long Biên, Hà Nội",(024) 38759998                                ,Hà Nội,Xe Tải - Kinh Doanh và Phân Phối
Công Ty Cổ Phần Nhân Lực,"147 Qu&#7889c lộ 1a, Phường An Phú Đông, Q.12, Tp. Hồ Chí Minh (TPHCM)",0962101690                              ,Tp Hcm,Xe Tải - Kinh Doanh và Phân Phối
Công Ty Cổ Phần Xuất Nhập Khẩu Ô Tô Hà Thành,"3-5 Nguyễn Văn Linh, P. Gia Thụy, Q. Long Biên, Hà Nội",0964432662                              ,Hà Nội,Xe Tải - Kinh Doanh và Phân Phối
Công Ty TNHH Ô Tô Hợp Nhất Miền Nam,"918 Quốc Lộ 13, P. Hiệp Bình Phước, TP. Thủ Đức, Tp. Hồ Chí Minh (TPHCM)",0931597898                              ,Tp Hcm,Xe Tải - Kinh Doanh và Phân Phối
Công Ty Cổ Phần Auto Hyundai MPC Miền Đông,"44C Xa Lộ Hà Nội, P. Bình Thắng, TX. Dĩ An, Bình Dương",0918977688                              ,Bình Dương,Xe Tải - Kinh Doanh và Phân Phối
Công Ty TNHH Ô Tô Trường Thành,"Quốc Lộ 3, Thôn Du Nội, X. Mai Lâm, H. Đông Anh, Hà Nội",(024) 36500478                                ,Hà Nội,Xe Tải - Kinh Doanh và Phân Phối
Ô Tô Đạt Tấn Phát - Công Ty TNHH Dịch Vụ Thương Mại Ô Tô Đạt Tấn Phát,"Số 795, KP. 4, Xa Lộ Hà Nội, P. Long Bình, TP. Biên Hòa, Đồng Nai",0937622860                              ,Đồng Nai,Xe Tải - Kinh Doanh và Phân Phối
Công Ty Trách Nhiệm Hữu Hạn Ô Tô Hyundai Miền Nam,"Số 88,  QL 1A, P. An Phú Đông, Q. 12, Tp. Hồ Chí Minh (TPHCM)","(028) 37171798, 0797949686                    ",Tp Hcm,Xe Tải - Kinh Doanh và Phân Phối
Công Ty TNHH Thương Mại Tân á Hoàn Mỹ,"198/71, QL. 3, P. 1, Q. Gò Vấp, Tp. Hồ Chí Minh (TPHCM)",(028) 8959955                                 ,Tp Hcm,Xe Tải - Kinh Doanh và Phân Phối
Ô Tô JAC Việt Nam - Công Ty Cổ Phần Ô Tô JAC Việt Nam,"79/4 KP Trung, P. Vĩnh Phú, TP. Thuận An, Bình Dương",0949666832                              ,Bình Dương,Xe Tải - Kinh Doanh và Phân Phối
Ô tô Suzuki Trọng Thiện - Công Ty TNHH Trọng Thiện,"KĐT Mới, P. Sở Dầu, Q. Hồng Bàng, Tp. Hải Phòng",0911959289                              ,Hải Phòng,Xe Tải - Kinh Doanh và Phân Phối
Xe Nâng Văn Nghĩa - Công Ty TNHH MTV Xe Ô Tô Văn Nghĩa,"Số 103, Ấp Thanh Hóa, Xã Hố Nai 3, Huyện Trảng Bom, Đồng Nai",Hotline: 0905.845.008                   ,Đồng Nai,Xe Tải - Kinh Doanh và Phân Phối
Ô Tô Shineray Việt Nam - Công Ty TNHH Ô Tô Shineray Việt Nam,"KCN Đại Đồng,  Hoàn Sơn, X. Hoàn Sơn, H. Tiên Du, Bắc Ninh",(0222) 3847833                                 ,Bắc Ninh,Xe Tải - Kinh Doanh và Phân Phối
Công Ty TNHH XNK Ô Tô SINOTRUK Miền Nam,"187/7 Điện Biên Phủ, Phường Đa kao, Quận 1, Tp. Hồ Chí Minh (TPHCM)",0902512562                              ,Tp Hcm,Xe Tải - Kinh Doanh và Phân Phối
Công Ty TNHH Ô Tô Và Thiết Bị Chuyên Dùng Sao Bắc,"km16+500, Quốc Lộ 5, TT. Như Quỳnh, H. Văn Lâm, Hưng Yên",0978417667                              ,Hưng Yên,Xe Tải - Kinh Doanh và Phân Phối
Ô Tô Đại Lợi - Công Ty TNHH Kính  Ô Tô Đại Lợi,"Lô 5, QL. 10, P. Lộc Vượng, TP. Nam Định, Nam Định",(0228) 3682165                                 ,Nam Định,Xe Tải - Kinh Doanh và Phân Phối
Chi Nhánh An Lạc Công Ty Cổ Phần Ô Tô Trường Hải (Tỉnh Đồng Nai),"36C11 ấp 3,Quốc Lộ 1A, X. Tân Kiên, H. Bình Chánh, Tp. Hồ Chí Minh (TPHCM)",(028) 37561241                                ,Tp Hcm,Xe Tải - Kinh Doanh và Phân Phối
Ô Tô Hồng Sơn Star Đà Nẵng - Công Ty TNHH Ô Tô Hồng Sơn Star Đà Nẵng,"Quốc Lộ 1 A, X. Hòa Phước, H. Hòa Vang, Tp. Đà Nẵng",(0236) 3687878                                 ,Đà Nẵng,Xe Tải - Kinh Doanh và Phân Phối
Tổng Công Ty Nhập Khẩu Xe Tải Trường Long,"1143/3B QL 1A, KP. 3, P. An Phú Đông, Q. 12, Tp. Hồ Chí Minh (TPHCM)",(028) 54433199                                ,Tp Hcm,Xe Tải - Kinh Doanh và Phân Phối
Công Ty TNHH Ô Tô Hiền Nhung,"Thôn 1, X. Yên Kiện, H. Đoan Hùng, Phú Thọ",(0210) 3642888                                 ,Phú Thọ,Xe Tải - Kinh Doanh và Phân Phối
Công Ty TNHH Ô Tô Nam Long,"TT Như Quỳnh, H. Văn Lâm, Hưng Yên",0984549446                              ,Hưng Yên,Xe Tải - Kinh Doanh và Phân Phối
Chi Nhánh Hà Đông - Công Ty Cổ Phần Ô Tô Trường Hải,"Thôn Yên Phúc, P. Biên Giang, Q. Hà Đông, Hà Nội",033716736                               ,Hà Nội,Xe Tải - Kinh Doanh và Phân Phối
Hyundai Thủ Đô - Công Ty Cổ Phần Đầu Tư Liên Doanh Quốc Tế Ami,"Tầng 4 Tòa Nhà MIE Bộ Công Thương, 7A Mạc Thị Bưởi, P. Vĩnh Tuy, Q. Hai Bà Trưng, Hà Nội",(024) 38332626                                ,Hà Nội,Xe Tải - Kinh Doanh và Phân Phối
Trung Tâm Ô Tô Tải & Bus Thaco Trọng Thiện Hải Phòng - Công Ty TNHH Trọng Thiện,"Km27, QL10, Thôn 6, X. Bắc Sơn, H. An Dương, Tp. Hải Phòng",0911113394                              ,Hải Phòng,Xe Tải - Kinh Doanh và Phân Phối
Công Ty Cổ Phần Cơ Khí Và Xây Dựng Giao Thông Vận Tải,"Phòng 201, N1, Trường Đại Học Giao Thông Vận Tải, Số 3 Cầu Giấy, Hà Nội","(024) 32115571, 0983004689                    ",Hà Nội,Xe Tải - Kinh Doanh và Phân Phối
Công Ty TNHH Đệ Nhất Ô Tô,"2454 QL 1A, P. An Phú Đông, Q. 12, Tp. Hồ Chí Minh (TPHCM)",0944906111                              ,Tp Hcm,Xe Tải - Kinh Doanh và Phân Phối
Công Ty Cổ Phần Xuất Nhập Khẩu Thiết Bị Phụ Tùng Hoàng Mai,"Số 3, Tổ 55, P. Thanh Xuân Trung, Q. Thanh Xuân, Hà Nội",0965982222                              ,Hà Nội,Xe Tải - Kinh Doanh và Phân Phối
Công Ty Cổ Phần Xuất Nhập Khẩu Thiết Bị Phụ Tùng Hoàng Mai,"Số 3, Tổ 55, P. Thanh Xuân Trung, Q. Thanh Xuân, Hà Nội",0965982222                              ,Hà Nội,Xe Tải - Kinh Doanh và Phân Phối
Công Ty Cổ Phần XNK Ô Tô Thành Đô,"KCN B&#7855c Thăng Long, Đường Hoàng Sa, X. Kim Chung, H. Đông Anh, Hà Nội",0904891238                              ,Hà Nội,Xe Tải - Kinh Doanh và Phân Phối
Công Ty Cổ Phần Cơ Khí Và Xây Dựng Giao Thông Vận Tải,"Phòng 201, N1, Trường Đại Học Giao Thông Vận Tải, Số 3 Cầu Giấy, Hà Nội","(024) 32115571, 0983004689                    ",Hà Nội,Xe Tải - Kinh Doanh và Phân Phối
Trung Tâm Ô Tô Tải & Bus Thaco Trọng Thiện Hải Phòng - Công Ty TNHH Trọng Thiện,"Km27, QL10, Thôn 6, X. Bắc Sơn, H. An Dương, Tp. Hải Phòng",0911113394                              ,Hải Phòng,Xe Tải - Kinh Doanh và Phân Phối
Chi Nhánh An Lạc Công Ty Cổ Phần Ô Tô Trường Hải (Tỉnh Đồng Nai),"36C11 ấp 3,Quốc Lộ 1A, X. Tân Kiên, H. Bình Chánh, Tp. Hồ Chí Minh (TPHCM)",(028) 37561241                                ,Tp Hcm,Xe Tải - Kinh Doanh và Phân Phối
Công Ty Cổ Phần Tân Thành Đô City Ford,"216-218 QL 13, P. Hiệp Bình Chánh, Q. Thủ Đức, Tp. Hồ Chí Minh (TPHCM)","(028) 66803257, 37262626,                     ",Tp Hcm,Xe Tải - Kinh Doanh và Phân Phối
Công Ty CP Ô Tô Sài Gòn Tây Ninh,"Số 96 QL. 22B, Khu Phố Hiệp Hòa, P. Hiệp Tân, TX. Hoà Thành, Tây Ninh",0932208208                              ,Tây Ninh,Xe Tải - Kinh Doanh và Phân Phối
Ô Tô Việt Đăng - Công Ty TNHH Thương Mại Cơ Khí Ô Tô Việt Đăng,"Km 2, Đường Phan Trọng Tuệ, H. Thanh Trì, Hà Nội",0902113929                              ,Hà Nội,Xe Tải - Kinh Doanh và Phân Phối
Công Ty TNHH Đệ Nhất Ô Tô,"2454 QL 1A, P. An Phú Đông, Q. 12, Tp. Hồ Chí Minh (TPHCM)",0944906111                              ,Tp Hcm,Xe Tải - Kinh Doanh và Phân Phối
Công Ty TNHH Trường Vinh Hi - Nô,"Số 513, Xa lộ Hà Nội, KP. 1, P. Long Bình, TP. Biên Hòa, Đồng Nai",(0251) 3893601                                 ,Đồng Nai,Xe Tải - Kinh Doanh và Phân Phối
Ô Tô JAC Việt Nam - Công Ty Cổ Phần Ô Tô JAC Việt Nam,"79/4 KP Trung, P. Vĩnh Phú, TP. Thuận An, Bình Dương",0949666832                              ,Bình Dương,Xe Tải - Kinh Doanh và Phân Phối
Công Ty TNHH Tín Hưng Thịnh Auto,"Tổng Kho Sacombank, Đường số 10, KCN Sóng Thần, Dĩ An, Bình Dương",(028) 39585888                                ,Bình Dương,Xe Tải - Kinh Doanh và Phân Phối
Công Ty XNK Ô Tô Miền Nam Đông Dương,"138 QL1A Tam Bình, Q. Thủ Đức, Tp. Hồ Chí Minh (TPHCM)",0929235352                              ,Tp Hcm,Xe Tải - Kinh Doanh và Phân Phối
Công Ty Cổ Phần XNK Phụ Tùng Ô Tô Tải Và Xe Chuyên Dụng Việt Trung,"Phòng 1214, Tòa K4, KĐT Việt Hưng, Q. Long Biên, Hà Nội",(024) 62542932                                ,Hà Nội,Xe Tải - Kinh Doanh và Phân Phối
Công ty TNHH Phát Triển Xây Dựng và Thương Mại,"Số 10, Đường 2A, KCN Biên Hoà 2, P. Long Bình Tân, TP. Biên Hoà, Đồng Nai",0967779886                              ,Đồng Nai,Xe Tải - Kinh Doanh và Phân Phối
Công Ty Trách Nhiệm Hữu Hạn Ô Tô Hyundai Miền Nam,"Số 88,  QL 1A, P. An Phú Đông, Q. 12, Tp. Hồ Chí Minh (TPHCM)","(028) 37171798, 0797949686                    ",Tp Hcm,Xe Tải - Kinh Doanh và Phân Phối
Công Ty TNHH Thương Mại Đầu Tư Bình Minh,"Tầng 7, Tháp Tây, Tòa Nhà Hancorp Plaza 72 Trần Đăng Ninh, Q. Cầu Giấy, Hà Nội",0982450336                              ,Hà Nội,Xe Tải - Kinh Doanh và Phân Phối
Công Ty Cổ Phần An Thái Coneco,"58 Đường Thiên Đức,TT. Yên Viên, H. Gia Lâm, Hà Nội",(024) 38780015                                ,Hà Nội,Xe Tải - Kinh Doanh và Phân Phối
Công Ty TNHH Đầu Tư Thương Mại Và XNK Thăng Long,"Số Nhà 44, Tổ 68, P. Tương Mai, Q. Hoàng Mai, 		 Hà Nội",0973490868	                             ,Hà Nội,Xe Tải - Kinh Doanh và Phân Phối
Công Ty Cổ Phần Ô Tô Hyundai Ngôi Sao,"184C/1 Đường DT743, Khu phố 1A, Phường An Phú, Tp. Thuận An, Bình Dương",0901901998                              ,Bình Dương,Xe Tải - Kinh Doanh và Phân Phối
Công Ty TNHH Ô Tô Trường Thành,"Quốc Lộ 3, Thôn Du Nội, X. Mai Lâm, H. Đông Anh, Hà Nội",(024) 36500478                                ,Hà Nội,Xe Tải - Kinh Doanh và Phân Phối
Hyundai Thủ Đô - Công Ty Cổ Phần Đầu Tư Liên Doanh Quốc Tế Ami,"Tầng 4 Tòa Nhà MIE Bộ Công Thương, 7A Mạc Thị Bưởi, P. Vĩnh Tuy, Q. Hai Bà Trưng, Hà Nội",(024) 38332626                                ,Hà Nội,Xe Tải - Kinh Doanh và Phân Phối
Công Ty Cổ Phần Xuất Nhập Khẩu Thương Mại và Dịch Vụ Vĩnh Phúc,"Thôn Mậu Thông, P. Khai Quang, TP. Vĩnh Yên, Vĩnh Phúc",0904585457                              ,Vĩnh Phúc,Xe Tải - Kinh Doanh và Phân Phối
Công Ty TNHH Thương Mại Ô Tô Việt - Nhật,"Số 319 Đường Hùng Vương, Quán Toan, Quận Hồng Bàng, Tp. Hải Phòng",(0225) 3850058                                 ,Hải Phòng,Xe Tải - Kinh Doanh và Phân Phối
Công Ty TNHH Bình Tâm,"15 Đường Võ Lai, TT. Phú Phong, H. Tây Sơn, Bình Định",0946012244                              ,Bình Định,Xe Tải - Kinh Doanh và Phân Phối
UD Trucks Sài Gòn - Công Ty TNHH Nam Hàn,"33 Quốc Lộ 1A, P. Hiệp Bình Phước, TP. Thủ Đức, Tp. Hồ Chí Minh (TPHCM)",0908538822                              ,Tp Hcm,Xe Tải - Kinh Doanh và Phân Phối
Công Ty Cổ Phần Đầu Tư Và TMDV Ô Tô Miền Bắc,"Ngõ 720, Nguyễn Văn Cừ, P. Gia Thụy, Q. Long Biên, Hà Nội",0984085899                              ,Hà Nội,Xe Tải - Kinh Doanh và Phân Phối
Công Ty TNHH Thương Mại Vinh Tùng,"524 Trần Hưng Đạo, Tp. Quy Nhơn, Bình Định","(0256) 3827090, 0888666279                     ",Bình Định,Xe Tải - Kinh Doanh và Phân Phối
Công Ty Cổ Phần Xuất Nhập Khẩu Ô Tô Và Xe Chuyên Dụng Việt Nam,"Km3 Quốc Lộ 23, X. Tiên Dương, H. Đông Anh, Hà Nội",(024) 22111112                                ,Hà Nội,Xe Tải - Kinh Doanh và Phân Phối
Tổng Công Ty Xe Tải Nhập Khẩu,"720 - 722 QL1A, P. Thới An, Q.12, Tp. Hồ Chí Minh (TPHCM)",0909760361                              ,Tp Hcm,Xe Tải - Kinh Doanh và Phân Phối
Đại Lý Xe Tải IZUZU Việt Nam,"175 Đại Lộ Bình Dương, KP. Trung, P. Vĩnh Phú, Tp. Thuận An, Bình Dương",0793153295                              ,Bình Dương,Xe Tải - Kinh Doanh và Phân Phối
Công Ty Cổ Phần Đầu Tư Phát Triển Máy Việt Nam - Chi Nhánh Bình Dương,"818 - 819 Đường Mỹ Phước Tân Vạn, KP7, P. Định Hoà, TP. Thủ Dầu Một, Bình Dương",0916797009                              ,Bình Dương,Xe Tải - Kinh Doanh và Phân Phối
Ô Tô Đông Phong Việt Nam - Công Ty TNHH Ô Tô Đông Phong Việt Nam,"42F5+87F, QL1A, X. Liên Bão, H. Tiên Du, Bắc Ninh",0967411789                              ,Bắc Ninh,Xe Tải - Kinh Doanh và Phân Phối
Công Ty Cổ Phần Đầu Tư Phát Triển Máy Việt Nam - Chi Nhánh Hồ Chí Minh,"2600/1B Quốc Lộ 1A, KP. 1, P. An Phú Đông, Q. 12, Tp. Hồ Chí Minh (TPHCM)",(028) 37198862                                ,Tp Hcm,Xe Tải - Kinh Doanh và Phân Phối
Công Ty TNHH Ô Tô Việt Nhân,"368A QL 51, Xã An Hòa, TP. Biên Hòa, Đồng Nai",Hotline : 0906 864 353                  ,Đồng Nai,Xe Tải - Kinh Doanh và Phân Phối
Xe Tải HINO Bình Dương - Công Ty Cổ Phần Ô Tô Vĩnh Thịnh,"55/5 Khu Phố Bình Giao, P. Thuận Giao, TP. Thuận An, Bình Dương",0777272424                              ,Bình Dương,Xe Tải - Kinh Doanh và Phân Phối
Hyundai Đông Nam - Chi Nhánh Mê Linh,"Km 09, Võ Văn Kiệt, TT. Quang Minh, H. Mê Linh, Hà Nội",0903410268                              ,Hà Nội,Xe Tải - Kinh Doanh và Phân Phối
ô Tô Cheng Long - Công Ty TNHH ô Tô Cheng Long,"Đường Võ Nguyên Giáp, P. Phước Tân, TP. Biên Hòa, Đồng Nai","0977020959, 0985800200                  ",Đồng Nai,Xe Tải - Kinh Doanh và Phân Phối
Công Ty TNHH Thương Mại Dịch Vụ Vận Tải Du Lịch Thành Nghĩa,"5/2 QL 1A, P. Thới An, Q. 12, Tp. Hồ Chí Minh (TPHCM)",0918290011                              ,Tp Hcm,Xe Tải - Kinh Doanh và Phân Phối
VinaMotor - Tổng Công Ty Công Nghiệp Ô Tô Việt Nam - CTCP,"120 Hàng Trống, Q. Hoàn Kiếm, Hà Nội",0961162255                              ,Hà Nội,Xe Tải - Kinh Doanh và Phân Phối
Công Ty TNHH Thương Mại  Đông Nghi,"Số 2/3-5 Hàm Nghi, P. Bến Nghé, Q. 1, Tp. Hồ Chí Minh (TPHCM)",0979805003                              ,Tp Hcm,Xe Tải - Kinh Doanh và Phân Phối
Công Ty Cổ Phần Đầu Tư Và XNK Thành Công,"55 Nguyễn Văn Linh, P. Phúc Đồng, Q. Long Biên, Hà Nội","(024) 32282007, 0973575555                    ",Hà Nội,Xe Tải - Kinh Doanh và Phân Phối
Công Ty TNHH TM DV Ô Tô Tải HCM,"1456 QL 1A, P. Thới An, Q. 12, Tp. Hồ Chí Minh (TPHCM)",0929738286                              ,Tp Hcm,Xe Tải - Kinh Doanh và Phân Phối
Mitsubishi Phú Mỹ Hưng,"Số 322 Nguyễn Văn Linh, Phường Bình Thuận, Quận 7, Tp. Hồ Chí Minh (TPHCM)",0906944603                              ,Tp Hcm,Xe Tải - Kinh Doanh và Phân Phối
Hyundai Đông Đô - Công Ty TNHH Ô Tô Thành Công Đông Đô,"11 Đ. Hoàng Cầu Mới, P. Trung Liệt, Q. Đống Đa, Hà Nội",0963588962                              ,Hà Nội,Xe Tải - Kinh Doanh và Phân Phối
Công Ty Cổ Phần Đầu Tư Phát Triển Máy Việt Nam - Chi Nhánh Bình Dương,"818 - 819 Đường Mỹ Phước Tân Vạn, KP7, P. Định Hoà, TP. Thủ Dầu Một, Bình Dương",0916797009                              ,Bình Dương,Xe Tải - Kinh Doanh và Phân Phối
Công Ty Cổ Phần Xuất Nhập Khẩu Ô Tô Và Xe Chuyên Dụng Việt Nam,"Km3 Quốc Lộ 23, X. Tiên Dương, H. Đông Anh, Hà Nội",(024) 22111112                                ,Hà Nội,Xe Tải - Kinh Doanh và Phân Phối
Tổng Công Ty Xe Tải Nhập Khẩu,"720 - 722 QL1A, P. Thới An, Q.12, Tp. Hồ Chí Minh (TPHCM)",0909760361                              ,Tp Hcm,Xe Tải - Kinh Doanh và Phân Phối
VinaMotor - Tổng Công Ty Công Nghiệp Ô Tô Việt Nam - CTCP,"120 Hàng Trống, Q. Hoàn Kiếm, Hà Nội",0961162255                              ,Hà Nội,Xe Tải - Kinh Doanh và Phân Phối
Đại Lý Xe Tải IZUZU Việt Nam,"175 Đại Lộ Bình Dương, KP. Trung, P. Vĩnh Phú, Tp. Thuận An, Bình Dương",0793153295                              ,Bình Dương,Xe Tải - Kinh Doanh và Phân Phối
Vận Tải Hoàn Hảo - Công Ty TNHH Thương Mại Dịch Vụ Ô Tô Vận Tải Hoàn Hảo,"448 Đường Hồ Văn Long, KP. 1, P. Bình Hưng Hòa B, Q. Bình Tân, Tp. Hồ Chí Minh (TPHCM)","0903146817, 0903186817                  ",Tp Hcm,Xe Tải - Kinh Doanh và Phân Phối
Công Ty TNHH Ô Tô Trường Tiến,"Quốc lộ 1A, ấp Trường Khánh 1, Xã Long Thạnh, Huyện Phụng Hiệp, Hậu Giang",0932929697                              ,Hậu Giang,Xe Tải - Kinh Doanh và Phân Phối
Công Ty Cổ Phần Thương Mại Và Dịch Vụ Tổng Hợp Kiến Hồng,"Ngõ 2, Tổ Dân Phố Phú Thứ, P. Tây Mỗ, Q. Nam Từ Liêm, Hà Nội",(024) 62290290                                ,Hà Nội,Xe Tải - Kinh Doanh và Phân Phối
Văn Phòng Đại Diện Hà Nội - Công Ty TNHH Ô Tô Isuzu Việt Nam,"R.A03, 25T2, N05, Đường Hoàng Đạo Thúy, P. Trung Hòa, Q. Cầu Giấy, Hà Nội",(024) 32191523                                ,Hà Nội,Xe Tải - Kinh Doanh và Phân Phối
Công Ty TNHH TM Ô Tô Hoàng Long,"55 Đường Mỹ Phước Tân Vạn, KP.4, Phường An Phú, Tp. Thuận An, Bình Dương",0707332228                              ,Bình Dương,Xe Tải - Kinh Doanh và Phân Phối
Công Ty TNHH Một Thành Viên Như Triệu,"44/4/2, Phạm Văn Chiêu, P. 8, Q. Gò Vấp, Tp. Hồ Chí Minh (TPHCM)",(028) 36203635                                ,Tp Hcm,Xe Tải - Kinh Doanh và Phân Phối
Công Ty Cổ Phần Ô Tô KCV Thăng Long,"Km 6, Đường Bắc Thăng Long, Xã Nam Hông, Huyện Đông Anh, Hà Nội",0963222660                              ,Hà Nội,Xe Tải - Kinh Doanh và Phân Phối
"Chengli Special Automobile Co., Ltd.","KCN Chengli, Ngoại ô phía Bắc, Thành phố Tô Châu, Hồ Bắc",(+86) 13872886372                             ,Hồ Bắc,Xe Tải - Kinh Doanh và Phân Phối
Công Ty Cổ Phần Sinotruk Việt Nam - Chi Nhánh Tại Thành Phố Hồ Chí Minh,"Phòng 4, Lầu 1, 39B Trường Sơn, P. 4, Q. Tân Bình, Tp. Hồ Chí Minh (TPHCM)",0982186188                              ,Tp Hcm,Xe Tải - Kinh Doanh và Phân Phối
Công ty TNHH ô tô chuyên dụng ChengLi,"Khu công nghiệp ô tô Nam Ngoại ô ChengLi, thành phố SuiZhou, Hồ Bắc",(+86) 13329885001                             ,Hồ Bắc,Xe Tải - Kinh Doanh và Phân Phối
Công Ty Cổ Phần Giải Pháp Dịch Vụ Công Nghệ Ahagara,"Số Nhà 29 Tổ 1, P. Quan Hoa, Q. Cầu Giấy, Hà Nội",0816404444                              ,Hà Nội,Xe Tải - Kinh Doanh và Phân Phối
Công Ty TNHH Một Thành Viên Hoàng Linh Hiếu,"Số 46- Phùng Chí Kiên, Tổ 85, Hòa Phú, P. Hoà Minh, Q. Liên Chiểu, Tp. Đà Nẵng",0905164042                              ,Đà Nẵng,Xe Tải - Kinh Doanh và Phân Phối
Công Ty TNHH Dịch Vụ Thương Mại Và Vận Tải Việt Hải,"Thôn Nho Lâm, X.Tân Lập, H.Yên Mỹ, Hưng Yên",0983964467                              ,Hưng Yên,Xe Tải - Kinh Doanh và Phân Phối
Công Ty Cổ Phần Đầu Tư Và Phát Triển Bảo Lâm,"Km4, Quốc Lộ 35, Thôn Trung Lương, X. Hiền Ninh, H. Sóc Sơn, Hà Nội",0918265665                              ,Hà Nội,Xe Tải - Kinh Doanh và Phân Phối
Công Ty Ô Tô Ngọc Điệp TMT Bình Thuận,"93A QL1A, Hàm Mỹ, Hàm Thuận Nam, Bình Thuận",0827179379                              ,Bình Thuận,Xe Tải - Kinh Doanh và Phân Phối
Trung Tâm Ô Tô Ngọc Anh,"111 Lý Thường Kiệt, Phường 6, Thành Phố Cà Mau, Cà Mau",0943456794                              ,Cà Mau,Xe Tải - Kinh Doanh và Phân Phối
Hyundai Phố Hiến - Công Ty TNHH Thương Mại Và Dịch Vụ Đông Đô,"Số 8 Đinh Điền, Phường Lam Sơn, Hưng Yên",0904607007                              ,Hưng Yên,Xe Tải - Kinh Doanh và Phân Phối
Công Ty TNHH Ô Tô Nam An Thái,"Km9, Quốc Lộ 19, H. Đông Hưng, Thái Bình",(0227) 3852666                                 ,Thái Bình,Xe Tải - Kinh Doanh và Phân Phối
Công Ty TNHH Ô Tô Trường Phúc,"Số 28/1 Quốc lộ 1A, P. Thới An, Q. 12, TP HCM",0945660509                              ,TP HCM,Xe Tải - Kinh Doanh và Phân Phối
Quốc Tuấn - Công Ty TNHH Quốc Tuấn,"Khu Công Nghiệp Biên Hòa 2, 20 Đường 2A, P. Long Bình, Tp. Biên Hòa, Đồng Nai",(0251) 3891375                                 ,Đồng Nai,Xe Tải - Kinh Doanh và Phân Phối
Tín Nghĩa - Công Ty TNHH Sản Xuất Thương Mại Dịch Vụ,"80 Lê Hồng Phong, P. Trà Nóc, Q. Bình Thủy, Tp. Cần Thơ",(0292) 3844780                                 ,Cần Thơ,Xe Tải - Kinh Doanh và Phân Phối
Doanh Nghiệp Tư Nhân Xuân Thảo,"Khu Phố 6,Xa Lộ Hà Nội, P. Linh Trung, Q. Thủ Đức, Tp. Hồ Chí Minh (TPHCM)",(028) 38871666                                ,Tp Hcm,Xe Tải - Kinh Doanh và Phân Phối
Nguyên Trần - Công Ty TNHH Nguyên Trần,"A13B Khu Phố 5,Xa Lộ Hà Nội, P. Tân Hiệp, Tp. Biên Hòa, Đồng Nai",(0251) 3893300                                 ,Đồng Nai,Xe Tải - Kinh Doanh và Phân Phối
Doanh Nghiệp Tư Nhân Hải Cường,"302 Điện Biên Phủ, P. 22, Q. Bình Thạnh, Tp. Hồ Chí Minh (TPHCM)",(028) 35123235                                ,Tp Hcm,Xe Tải - Kinh Doanh và Phân Phối
Hoàng Hạnh - Công Ty TNHH Hoàng Hạnh,"C9/4A Quốc Lộ 1A, TT. Tân Túc, H. Bình Chánh, Tp. Hồ Chí Minh (TPHCM)",(028) 37606807                                ,Tp Hcm,Xe Tải - Kinh Doanh và Phân Phối
Văn Phòng Đại Diện - Công Ty Pan Terra Pte Ltd,"Phòng 220, 243-243B Hoàng Văn Thụ, P. 1, Q. Tân Bình, Tp. Hồ Chí Minh (TPHCM)",(028) 38443441                                ,Tp Hcm,Xe Tải - Kinh Doanh và Phân Phối
Cty Trường Hải Cổ Phần Ô Tô-Cn Đà Nẵng,"405 P. Hòa Minh,Tôn Đức Thắng, Q. Liên Chiểu, Tp. Đà Nẵng",(0236) 3764495                                 ,Đà Nẵng,Xe Tải - Kinh Doanh và Phân Phối
Hubei Runli Special Automobile Company Limited,"No.77, CENTURY AVE, SUIZHOU City, HUBEI Province, China",0086 722 3309977                        ,China,Xe Tải - Kinh Doanh và Phân Phối
Ngân Hải - Công Ty TNHH Sản Xuất Thương Mại Dịch Vụ Ngân Hải,"D7/12 ấp 4, TT. Tân Túc, H. Bình Chánh, Tp. Hồ Chí Minh (TPHCM)",(028) 37600808                                ,Tp Hcm,Xe Tải - Kinh Doanh và Phân Phối
Công Ty Ô Tô Sài Gòn,"Số 10 Xa Lộ Hà Nội, Q.Thủ Đức, Tp. Hồ Chí Minh (TPHCM)",(028) 35493632                                ,Tp Hcm,Xe Tải - Kinh Doanh và Phân Phối
Việt Anh - Công Ty TNHH Ô Tô Việt Anh,"Km 14+500 Quốc Lộ 6, TX. Hà Đông, Hà Nội",(024) 3570137                                 ,Hà Nội,Xe Tải - Kinh Doanh và Phân Phối
Tuấn Anh - Công Ty TNHH Thương Mại Tuấn Anh,"79/15 Điện Biên Phủ, P. 22, Q. Bình Thạnh, Tp. Hồ Chí Minh (TPHCM)",(028) 38035243                                ,Tp Hcm,Xe Tải - Kinh Doanh và Phân Phối
Doanh Nghiệp Tư Nhân Lưỡng Tiện Thương Mại & Dịch Vụ,"127A Xa Lộ Hà Nội, P. Phước Long A, Q. 9, Tp. Hồ Chí Minh (TPHCM)",(028) 37313048                                ,Tp Hcm,Xe Tải - Kinh Doanh và Phân Phối
Thiên Hải Sơn - Công Ty TNHH Thiên Hải Sơn,"53C Nam Hòa, P. Phước Long A, Q. 9, Tp. Hồ Chí Minh (TPHCM)",(028) 37281702                                ,Tp Hcm,Xe Tải - Kinh Doanh và Phân Phối
Công Ty TNHH Thương Mại Ô Tô Việt Hàn,"Số 1 C24, Phố Tân Mai, P. Tân Mai, Q. Hoàng Mai, Hà Nội",0984422488                              ,Hà Nội,Xe Tải - Kinh Doanh và Phân Phối
"Qingdao Wuyue Automobile Sales Co.,Ltd","Phòng 1703 Tòa Nhà 2, Số 18, Đường Yinchuan East, H.  Laoshan, Thanh Đảo, Sơn Đông ",(+86) 53282832310                             ,,Xe Tải - Kinh Doanh và Phân Phối
Trường Hải - Cty Cổ Phần Ô Tô-Cn Cần Thơ,"340 Cách Mạng Tháng Tám, P. Bùi Hữu Nghĩa, Q. Bình Thủy, Tp. Cần Thơ",(0292) 3887956                                 ,Cần Thơ,Xe Tải - Kinh Doanh và Phân Phối
Hyundai Vinamotor Trường An - Vpđd Công ty TNHH Hyundai Vinamotor Trường An,"2 Bis Nguyễn Thị Minh Khai, P. Đa Kao, Q. 1, Tp. Hồ Chí Minh (TPHCM)",(028) 39103609                                ,Tp Hcm,Xe Tải - Kinh Doanh và Phân Phối
Long Vân - Công Ty TNHH Thương Mại Dịch Vụ Long Vân,"297/10 Cư Xá Văn Thánh Bắc, P. 25, Q. Bình Thạnh, Tp. Hồ Chí Minh (TPHCM)",(028) 38983116                                ,Tp Hcm,Xe Tải - Kinh Doanh và Phân Phối
Công Ty TNHH Ô Tô Sài Gòn,"700 Quốc Lộ 1A, P. Bình Hưng Hòa B, Q. Bình Tân, Tp. Hồ Chí Minh (TPHCM)",(028) 37522108                                ,Tp Hcm,Xe Tải - Kinh Doanh và Phân Phối
Cty Trường Hải Cổ Phần Ô Tô-Cn Đà Nẵng,"405 P. Hòa Minh,Tôn Đức Thắng, Q. Liên Chiểu, Tp. Đà Nẵng",(0236) 3764495                                 ,Đà Nẵng,Xe Tải - Kinh Doanh và Phân Phối
Liên á - Chi Nhánh Công Ty TNHH Thương Mại Liên á,"Tầng 7, 71-75 Hai Bà Trưng, Q. 1, Tp. Hồ Chí Minh (TPHCM)",(028) 38239722                                ,Tp Hcm,Xe Tải - Kinh Doanh và Phân Phối
Ngọc ẩn - Công Ty TNHH Thương Mại & Dịch Vụ Ngọc ẩn,"29 Cộng Hòa, P. 4, Q. Tân Bình, Tp. Hồ Chí Minh (TPHCM)",(028) 38116380                                ,Tp Hcm,Xe Tải - Kinh Doanh và Phân Phối
Nhật Cường - Công Ty TNHH Thương Mại & Xây Dựng Nhật Cường,"ấp Bình Thắng, X. Bình An,Xa Lộ Hà Nội, H. Dĩ An, Bình Dương",(0274) 3749284                                 ,Bình Dương,Xe Tải - Kinh Doanh và Phân Phối
Tuấn Anh - Công Ty TNHH Thương Mại Tuấn Anh,"79/15 Điện Biên Phủ, P. 22, Q. Bình Thạnh, Tp. Hồ Chí Minh (TPHCM)",(028) 38035243                                ,Tp Hcm,Xe Tải - Kinh Doanh và Phân Phối
Doanh Nghiệp Tư Nhân Nhật Nam Thương Mại Dịch Vụ,"384 Huỳnh Văn Bánh, P. 14, Q. Phú Nhuận, Tp. Hồ Chí Minh (TPHCM)",(028) 39911757                                ,Tp Hcm,Xe Tải - Kinh Doanh và Phân Phối
Nguyên Trần - Công Ty TNHH Nguyên Trần,"A13B Khu Phố 5,Xa Lộ Hà Nội, P. Tân Hiệp, Tp. Biên Hòa, Đồng Nai",(0251) 3893300                                 ,Đồng Nai,Xe Tải - Kinh Doanh và Phân Phối
Long Vân - Công Ty TNHH Thương Mại Dịch Vụ Long Vân,"297/10 Cư Xá Văn Thánh Bắc, P. 25, Q. Bình Thạnh, Tp. Hồ Chí Minh (TPHCM)",(028) 38983116                                ,Tp Hcm,Xe Tải - Kinh Doanh và Phân Phối
Tín Nghĩa - Công Ty TNHH Sản Xuất Thương Mại Dịch Vụ,"80 Lê Hồng Phong, P. Trà Nóc, Q. Bình Thủy, Tp. Cần Thơ",(0292) 3844780                                 ,Cần Thơ,Xe Tải - Kinh Doanh và Phân Phối
Phương Trang Đà Nẵng - Công Ty TNHH Phương Trang Đà Nẵng,"366 Điện Biên Phủ, Q. Thanh Khê, Tp. Đà Nẵng",(0236) 2488479                                 ,Đà Nẵng,Xe Tải - Kinh Doanh và Phân Phối
Gia Cát Tường - Công Ty Cổ Phần Thương Mại Xây Dựng Gia Cát Tường,"621 Quốc Lộ 13, P. Hiệp Bình Phước, Q. Thủ Đức, Tp. Hồ Chí Minh (TPHCM)",(028) 37268457                                ,Tp Hcm,Xe Tải - Kinh Doanh và Phân Phối
Hyundai Vinamotor Trường An - Vpđd Công ty TNHH Hyundai Vinamotor Trường An,"2 Bis Nguyễn Thị Minh Khai, P. Đa Kao, Q. 1, Tp. Hồ Chí Minh (TPHCM)",(028) 39103609                                ,Tp Hcm,Xe Tải - Kinh Doanh và Phân Phối
Kỳ Tường - Công Ty TNHH Kỳ Tường,"ấp Ngãi Thắng,Xa Lộ Hà Nội, X. Bình Thắng, H. Dĩ An, Bình Dương",(0274) 3774111                                 ,Bình Dương,Xe Tải - Kinh Doanh và Phân Phối
Trường Hải - Cty Cổ Phần Ô Tô-Cn Cần Thơ,"340 Cách Mạng Tháng Tám, P. Bùi Hữu Nghĩa, Q. Bình Thủy, Tp. Cần Thơ",(0292) 3887956                                 ,Cần Thơ,Xe Tải - Kinh Doanh và Phân Phối
Hoàn Cầu - Công Ty TNHH Thương Mại Dịch Vụ Hoàn Cầu,"125M8 Lương Thế Vinh, P. Tân Thới Hòa, Q. Tân Phú, Tp. Hồ Chí Minh (TPHCM)",(028) 39611827                                ,Tp Hcm,Xe Tải - Kinh Doanh và Phân Phối
Công Ty TNHH Một Thành Viên Thương Mại Ô Tô Vũ Hùng,"144 Nguyễn Cửu Đàm, P. Tân Sơn Nhì, Q. Tân Phú, Tp. Hồ Chí Minh (TPHCM)",0984155386                              ,Tp Hcm,Xe Tải - Kinh Doanh và Phân Phối
Tân Trung - Công Ty TNHH Ô Tô Tân Trung,"9 Xa Lộ Hà Nội, Khu Phố 3, P. Hiệp Phú, Q. 9, Tp. Hồ Chí Minh (TPHCM)",(028) 37306505                                ,Tp Hcm,Xe Tải - Kinh Doanh và Phân Phối
Doanh Nghiệp Tư Nhân Hải Cường,"302 Điện Biên Phủ, P. 22, Q. Bình Thạnh, Tp. Hồ Chí Minh (TPHCM)",(028) 35123235                                ,Tp Hcm,Xe Tải - Kinh Doanh và Phân Phối
Xuân Mai - Công Ty TNHH Một Thành Viên Xuân Mai,"31-31A Lý Phục Man, P. Bình Thuận, Q. Thủ Đức, Tp. Hồ Chí Minh (TPHCM)",(028) 37733888                                ,Tp Hcm,Xe Tải - Kinh Doanh và Phân Phối
Ngân Hải - Công Ty TNHH Sản Xuất Thương Mại Dịch Vụ Ngân Hải,"D7/12 ấp 4, TT. Tân Túc, H. Bình Chánh, Tp. Hồ Chí Minh (TPHCM)",(028) 37600808                                ,Tp Hcm,Xe Tải - Kinh Doanh và Phân Phối
Thiên Hải Sơn - Công Ty TNHH Thiên Hải Sơn,"53C Nam Hòa, P. Phước Long A, Q. 9, Tp. Hồ Chí Minh (TPHCM)",(028) 37281702                                ,Tp Hcm,Xe Tải - Kinh Doanh và Phân Phối
Công Ty TNHH Thương Mại Dịch Vụ Ô Tô Bavico Hóc Môn,"917 Quang Trung, P. 8, Q. Gò Vấp, Tp. Hồ Chí Minh (TPHCM)",0934123131                              ,Tp Hcm,Xe Tải - Kinh Doanh và Phân Phối
Việt Anh - Công Ty TNHH Ô Tô Việt Anh,"Km 14+500 Quốc Lộ 6, TX. Hà Đông, Hà Nội",(024) 3570137                                 ,Hà Nội,Xe Tải - Kinh Doanh và Phân Phối
Bảo Long - Công Ty TNHH Sản Xuất & Dịch Vụ Thương Mại Bảo Long,"79/4 ấp Trung, X. Vĩnh Phú, H. Thuận An, Bình Dương",(0274) 3786163                                 ,Bình Dương,Xe Tải - Kinh Doanh và Phân Phối
Nguyên Thành Long - Công Ty TNHH Thương Mại Dịch Vụ & Sản Xuất Nguyên Thành Long,"100A Bùi Minh Trực, P. 6, Q. 8, Tp. Hồ Chí Minh (TPHCM)",(028) 38502200                                ,Tp Hcm,Xe Tải - Kinh Doanh và Phân Phối
Công Ty Cổ Phần Thương Mại Ô - tô Việt Hàn,"KM14, Ngọc Hồi, H. Thanh Trì, Hà Nội",0934456687                              ,Hà Nội,Xe Tải - Kinh Doanh và Phân Phối
Văn Phòng Đại Diện - Công Ty Pan Terra Pte Ltd,"Phòng 220, 243-243B Hoàng Văn Thụ, P. 1, Q. Tân Bình, Tp. Hồ Chí Minh (TPHCM)",(028) 38443441                                ,Tp Hcm,Xe Tải - Kinh Doanh và Phân Phối
Phương Khanh - Công Ty TNHH Ô Tô Phương Khanh,"9B Cách Mạng Tháng Tám, P. 15, Q. Tân Bình, Tp. Hồ Chí Minh (TPHCM)",(028) 38104403                                ,Tp Hcm,Xe Tải - Kinh Doanh và Phân Phối
Doanh Nghiệp Tư Nhân Xuân Thảo,"Khu Phố 6,Xa Lộ Hà Nội, P. Linh Trung, Q. Thủ Đức, Tp. Hồ Chí Minh (TPHCM)",(028) 38871666                                ,Tp Hcm,Xe Tải - Kinh Doanh và Phân Phối
Hyundai Nam Việt - Công Ty TNHH Ô Tô Hyundai Nam Việt,"Khu Công Nghiệp Biên Hòa 2, 01 Đường 2A, Tp. Biên Hòa, Đồng Nai",(0251) 3836188                                 ,Đồng Nai,Xe Tải - Kinh Doanh và Phân Phối
Hoàng Hạnh - Công Ty TNHH Hoàng Hạnh,"C9/4A Quốc Lộ 1A, TT. Tân Túc, H. Bình Chánh, Tp. Hồ Chí Minh (TPHCM)",(028) 37606807                                ,Tp Hcm,Xe Tải - Kinh Doanh và Phân Phối
Thảo Khoa - Công Ty TNHH Một Thành Viên,"225 Nguyễn Văn Đậu, P. 11, Q. Bình Thạnh, Tp. Hồ Chí Minh (TPHCM)",(028) 62949220                                ,Tp Hcm,Xe Tải - Kinh Doanh và Phân Phối
Công Ty TNHH Ô Tô Sài Gòn,"700 Quốc Lộ 1A, P. Bình Hưng Hòa B, Q. Bình Tân, Tp. Hồ Chí Minh (TPHCM)",(028) 37522108                                ,Tp Hcm,Xe Tải - Kinh Doanh và Phân Phối
Đại Phát Hãng - Công Ty TNHH Thương Mại Đại Phát Hãng,"1247 Quốc Lộ 1A, P. An Lạc, Q. Bình Tân, Tp. Hồ Chí Minh (TPHCM)",(028) 37515959                                ,Tp Hcm,Xe Tải - Kinh Doanh và Phân Phối
Công Ty Cổ Phần Thiên Thành An,"Tầng 4, Tòa Nhà ATS, Số 8 Phạm Hùng, Q. Nam Từ Liêm, Hà Nội",(024) 32005997                                ,Hà Nội,Xe Tải - Kinh Doanh và Phân Phối
Công Ty Cổ Phần Thương Mại Dịch Vụ Phú Mẫn,"79/43 Đường Số 51, P. 14, Q. Gò Vấp, Tp. Hồ Chí Minh","0909063588, 0976670146                  ",Tp Hcm,Xe Tải - Kinh Doanh và Phân Phối
Minh Hùng - Công Ty TNHH Thương Mại Dịch Vụ Xuất Nhập Khẩu Minh Hùng,"37 Nguyễn Hữu Tiến, P. Tây Thạnh, Q. Tân Phú, Tp. Hồ Chí Minh (TPHCM)",(028) 37312927                                ,Tp Hcm,Xe Tải - Kinh Doanh và Phân Phối
Showroom TMT Bình Tân,"1454 QL1A, Phường Thới An, Quận 12, Tp. Hồ Chí Minh (TPHCM)",0962187170                              ,Tp Hcm,Xe Tải - Kinh Doanh và Phân Phối
Hyundai Vũ Hùng,"72 qu&#7889c lộ 1A, P. Thới An, Q.12, Tp. Hồ Chí Minh (TPHCM)",(028) 0984 155 386                            ,Tp Hcm,Xe Tải - Kinh Doanh và Phân Phối
Công Ty TNHH MTV Cơ Khí Chuyên Dụng Bắc Bộ Trường Hải,"Lô D6, KCN Đài Tư - Hà Nội, 386 Nguyễn Văn Linh, Sài Đồng, Long Biên, Hà Nội",0938808304                              ,Hà Nội,Xe Tải - Kinh Doanh và Phân Phối
Công Ty TNHH Hyundai-Vinamotor Trường An,"131 Quốc Lộ 1A, H. Bến Lức, Long An",(0272) 3641069                                 ,Long An,Xe Tải - Kinh Doanh và Phân Phối
Công Ty TNHH Đầu Tư Phát Triển Hưng Việt Long,"68 Quan Nhân, P. Trung Hòa, Q. Cầu Giấy, Hà Nội",0978875559                              ,Hà Nội,Xe Tải - Kinh Doanh và Phân Phối
Công Ty Cổ Phần Cơ Điện Việt Nam,"Lô 2-3-83-84, KCN Nội Bài, X.Quang Tiến, H.Sóc Sơn, Hà Nội",(024) 37555435                                ,Hà Nội,Xe Tải - Kinh Doanh và Phân Phối
Công Ty TNHH Thương Mại & Dịch Vụ Ô Tô Long Biên,"Số 3-5 Nguyễn Văn Linh, Long Biên, Hà Nội",0983 583 166                            ,Hà Nội,Xe Tải - Kinh Doanh và Phân Phối
Chi Nhánh Công Ty TNHH Liên Doanh Ô Tô Hòa Bình tại TP. Hồ Chí Minh,"22 Cộng Hòa, P. 4, Q. Tân Bình, Tp. Hồ Chí Minh (TPHCM)",(028) 35037765                                ,Tp Hcm,Xe Tải - Kinh Doanh và Phân Phối
Nam Á Truck,"Tân Thới Hiệp 21, P. Tân Thới Hiệp, Q. 12, ",0908589990                              ,,Xe Tải - Kinh Doanh và Phân Phối
Công Ty Cổ Phần Ô Tô Hyundai - Việt Hàn,"158 Cách Mạng Tháng Tám, Q. Cẩm Lệ, Tp. Đà Nẵng",(0236) 3698399                                 ,Đà Nẵng,Xe Tải - Kinh Doanh và Phân Phối
Công Ty TNHH VM Motors Đại Hàn,"Số 137A, Quốc Lộ 1A, Khu Phố 1, P. Thới An, Q. 12, Tp. Hồ Chí Minh (TPHCM)",(028) 37176789                                ,Tp Hcm,Xe Tải - Kinh Doanh và Phân Phối
Công Ty Cổ Phần Cơ Điện Việt Nam,"Lô 2-3-83-84, KCN Nội Bài, X.Quang Tiến, H.Sóc Sơn, Hà Nội",(024) 37555435                                ,Hà Nội,Xe Tải - Kinh Doanh và Phân Phối
Công Ty TNHH Hồng Sơn,"Tổ Dân Phố Trường Thọ Đông A, P. Trương Quang Trọng, TP. Quảng Ngãi, Quảng Ngãi",(0255) 3830830                                 ,Quảng Ngãi,Xe Tải - Kinh Doanh và Phân Phối
Công Ty Cổ Phần Kinh Doanh Quốc Tế Đại Việt,"Nhà 702, Tòa nhà CT2, Khu Đô Thị Văn Khê, Q. Hà Đông, Hà Nội",(024) 33571779                                ,Hà Nội,Xe Tải - Kinh Doanh và Phân Phối
Công Ty TNHH Hyundai-Vinamotor Trường An,"131 Quốc Lộ 1A, H. Bến Lức, Long An",(0272) 3641069                                 ,Long An,Xe Tải - Kinh Doanh và Phân Phối
Ô Tô Nam Việt Anh - Công Ty Cổ Phần Ô Tô Nam Việt Anh,"Số 8A, QL 1A, ấp Hưng Bình, X. Hưng Thịnh, H. Trảng Bom, Đồng Nai",0901295594                              ,Đồng Nai,Xe Tải - Kinh Doanh và Phân Phối
GerGroup,"Số 3 Nguyễn Văn Linh, Long Biên, Hà Nội",0979402351                              ,Hà Nội,Xe Tải - Kinh Doanh và Phân Phối
Công Ty TNHH MTV Cơ Khí Chuyên Dụng Bắc Bộ Trường Hải,"Lô D6, KCN Đài Tư - Hà Nội, 386 Nguyễn Văn Linh, Sài Đồng, Long Biên, Hà Nội",0938808304                              ,Hà Nội,Xe Tải - Kinh Doanh và Phân Phối
Công Ty CP Thương Mại Quốc Tế Hợp Nhất,"Km19, QL5, Trưng Trắc, Văn Lâm, Hưng Yên",(024) 66739988                                ,Hưng Yên,Xe Tải - Kinh Doanh và Phân Phối
Hyundai Vũ Hùng,"72 qu&#7889c lộ 1A, P. Thới An, Q.12, Tp. Hồ Chí Minh (TPHCM)",(028) 0984 155 386                            ,Tp Hcm,Xe Tải - Kinh Doanh và Phân Phối
Trang My - Công Ty Cổ Phần Trang My,"444- 446- 448 Nguyễn Tất Thành, P. 18, Q. 4, Tp. Hồ Chí Minh (TPHCM)",(028) 39413556                                ,Tp Hcm,Xe Tải - Kinh Doanh và Phân Phối
Công Ty TNHH MTV Phát Đạt,"44C Xa Lộ Hà Nội, Bình Thắng, Tx. Dĩ An, Bình Dương",01226608931                             ,Bình Dương,Xe Tải - Kinh Doanh và Phân Phối
"Hubei Guang Jie Special Vehicle Co., Ltd","The Southern Suburbs of Zengdu District, Suizhou City, Hubei, China ",0086-722-3253299                        ,,Xe Tải - Kinh Doanh và Phân Phối
Lộc Tài - Công Ty TNHH MTV Thương Mại & Xây Dựng Lộc Tài,"61/1Khu Phố Đông A, P. Đông Hòa, TX. Dĩ An, Bình Dương",(0274) 3751758                                 ,Bình Dương,Xe Tải - Kinh Doanh và Phân Phối
Công Ty TNHH Sản Xuất Thương Mại Dịch Vụ Ô Tô Hàn,"Số 39 Quốc Lộ 1A, KP3,  P. Hiệp Bình Phước, Q. Thủ Đức, Tp. Hồ Chí Minh (TPHCM)",(028) 37273282                                ,Tp Hcm,Xe Tải - Kinh Doanh và Phân Phối
Hải Hoàng - Công Ty TNHH Hải Hoàng,"86-87 ấp Tân Thành, X. Bắc Sơn,Quốc Lộ 1A, H. Trảng Bom, Đồng Nai",(0251) 3967166                                 ,Đồng Nai,Xe Tải - Kinh Doanh và Phân Phối
Showroom TMT Bình Tân,"1454 QL1A, Phường Thới An, Quận 12, Tp. Hồ Chí Minh (TPHCM)",0962187170                              ,Tp Hcm,Xe Tải - Kinh Doanh và Phân Phối
Công Ty Cổ Phần Ô Tô ZENITH,"288/2 Quốc Lộ 1A, Phường Thới An, Quận 12, Tp. Hồ Chí Minh (TPHCM)",(028) 36202401                                ,Tp Hcm,Xe Tải - Kinh Doanh và Phân Phối
Công Ty Cổ Phần Thương Mại Dịch Vụ Phú Mẫn,"79/43 Đường Số 51, P. 14, Q. Gò Vấp, Tp. Hồ Chí Minh","0909063588, 0976670146                  ",Tp Hcm,Xe Tải - Kinh Doanh và Phân Phối
Công Ty Cổ Phần Đầu Tư TM & XNK Đức Thịnh,"Số 16A, Ngõ 89, Phố Quan Nhân, P. Nhân Chính, Q. Thanh Xuân, Hà Nội",(024) 66881679                                ,Hà Nội,Xe Tải - Kinh Doanh và Phân Phối
Doanh Nghiệp Tư Nhân Siêu Nghĩa,"3A ấp Chánh, X. Long Hiệp, H. Bến Lức, Long An",(0272) 3641828                                 ,Long An,Xe Tải - Kinh Doanh và Phân Phối
Công ty TNHH Ô Tô Chengli,"KCN Chengli, Thị trấn Tùy Châu, Hồ Bắc",(+86) 13926591183                             ,Hồ Bắc,Xe Tải - Kinh Doanh và Phân Phối
Công Ty Cổ Phần Ô Tô Nam Hoa,"Số 55, Nguyễn Văn Linh, P. Phúc Đồng, Q. Long Biên, Hà Nội",0938833889                              ,Hà Nội,Xe Tải - Kinh Doanh và Phân Phối
Công Ty Cổ Phần Ô Tô Hyundai Mê Linh,"Km 9, Đường Bắc Thăng Long, Nội Bài, Mê Linh, Hà Nội",0934568595                              ,Hà Nội,Xe Tải - Kinh Doanh và Phân Phối
Chi Nhánh Công Ty TNHH Liên Doanh Ô Tô Hòa Bình tại TP. Hồ Chí Minh,"22 Cộng Hòa, P. 4, Q. Tân Bình, Tp. Hồ Chí Minh (TPHCM)",(028) 35037765                                ,Tp Hcm,Xe Tải - Kinh Doanh và Phân Phối
Isuzu Long Biên,"Số 449, Đường Nguyễn Văn Linh, Phường Phúc Đồng, Quận Long Biên, Hà Nội",0919486296                              ,Hà Nội,Xe Tải - Kinh Doanh và Phân Phối
Công Ty Cổ Phần Ngôi Sao Quốc Tế VTP,"Tổ 4, Đường Mễ Trì Hạ, Phường Mễ Trì, Quận Nam Từ Liêm, Hà Nội",(024) 38182888                                ,Hà Nội,Xe Tải - Kinh Doanh và Phân Phối
HTX Vận Tải Đoàn Kết,"Số 27 Ngõ 148 Đường Thanh Bình, P. Mộ Lao, Q. Hà Đông, Hà Nội",0963058000                              ,Hà Nội,Xe Tải - Kinh Doanh và Phân Phối
Công Ty Cổ Phần Ô Tô Mê Linh,"Km 9, Đường Võ Văn Kiệt, TT. Quang Minh, Mê Linh, 	 Hà Nội",0917080233	                             ,Hà Nội,Xe Tải - Kinh Doanh và Phân Phối
Minh Hùng - Công Ty TNHH Thương Mại Dịch Vụ Xuất Nhập Khẩu Minh Hùng,"37 Nguyễn Hữu Tiến, P. Tây Thạnh, Q. Tân Phú, Tp. Hồ Chí Minh (TPHCM)",(028) 37312927                                ,Tp Hcm,Xe Tải - Kinh Doanh và Phân Phối
Ô Tô Nhân Lực - Công Ty Cổ Phần Nhân Lực,"147 QL. 1A (Xa Lộ Đại Hàn), P. An Phú Đông, Q. 12, Tp. Hồ Chí Minh (TPHCM)",(028) 37198879                                ,Tp Hcm,Xe Tải - Kinh Doanh và Phân Phối
Công Ty TNHH Thương Mại & Dịch Vụ Ô Tô Long Biên,"Số 3-5 Nguyễn Văn Linh, Long Biên, Hà Nội",0983 583 166                            ,Hà Nội,Xe Tải - Kinh Doanh và Phân Phối
